{
  "type": "FeatureCollection",
  "features": [
    {
      "type": "Feature",
      "geometry": {
        "type": "Point",
        "coordinates": [
          139.8614973,
          35.6438529
        ]
      },
      "properties": {
        "id": "way/156572594",
        "ward": "edogawa",
        "category": "police",
        "name": "葛西警察署臨海公園交番",
        "tags": {
          "@id": "way/156572594",
          "amenity": "police",
          "building": "yes",
          "name": "葛西警察署臨海公園交番",
          "name:en": "Koban",
          "note": "National-Land Numerical Information (Public Facility) 2006, MLIT Japan",
          "note:ja": "国土数値情報（公共施設データ）平成19年　国土交通省",
          "source": "KSJ2",
          "source_ref": "http://nlftp.mlit.go.jp/ksj/jpgis/datalist/KsjTmplt-P02-v2_0.html",
          "@geometry": "center"
        }
      }
    },
    {
      "type": "Feature",
      "geometry": {
        "type": "Point",
        "coordinates": [
          139.842935,
          35.706286
        ]
      },
      "properties": {
        "id": "way/184703353",
        "ward": "edogawa",
        "category": "police",
        "name": "小松川警察署平井駅前交番",
        "tags": {
          "@id": "way/184703353",
          "KSJ2:ADS": "平井3-30-3",
          "KSJ2:AdminArea": "東京都江戸川区",
          "KSJ2:PubFacAdmin": "都道府県",
          "amenity": "police",
          "building": "civic",
          "name": "小松川警察署平井駅前交番",
          "note": "National-Land Numerical Information (Public Facility) 2006, MLIT Japan",
          "note:ja": "国土数値情報（公共施設データ）平成19年　国土交通省",
          "source": "Bing, 1980/1-2007/4; KSJ2",
          "source_ref": "http://nlftp.mlit.go.jp/ksj/jpgis/datalist/KsjTmplt-P02-v2_0.html",
          "@geometry": "center"
        }
      }
    },
    {
      "type": "Feature",
      "geometry": {
        "type": "Point",
        "coordinates": [
          139.8553674,
          35.6573994
        ]
      },
      "properties": {
        "id": "way/462324786",
        "ward": "edogawa",
        "category": "police",
        "name": "葛西警察署清新町交番",
        "tags": {
          "@id": "way/462324786",
          "amenity": "police",
          "building": "yes",
          "name": "葛西警察署清新町交番",
          "note": "National-Land Numerical Information (Public Facility) 2006, MLIT Japan",
          "source": "KSJ2;GSImaps/std",
          "@geometry": "center"
        }
      }
    },
    {
      "type": "Feature",
      "geometry": {
        "type": "Point",
        "coordinates": [
          139.8593766,
          35.6640757
        ]
      },
      "properties": {
        "id": "way/510335814",
        "ward": "edogawa",
        "category": "police",
        "name": "西葛西駅前交番",
        "tags": {
          "@id": "way/510335814",
          "amenity": "police",
          "building": "yes",
          "name": "西葛西駅前交番",
          "name:en": "Koban",
          "note": "National-Land Numerical Information (Public Facility) 2006, MLIT Japan",
          "note:ja": "国土数値情報（公共施設データ）平成19年　国土交通省",
          "source": "KSJ2",
          "source_ref": "http://nlftp.mlit.go.jp/ksj/jpgis/datalist/KsjTmplt-P02-v2_0.html",
          "@geometry": "center"
        }
      }
    },
    {
      "type": "Feature",
      "geometry": {
        "type": "Point",
        "coordinates": [
          139.8693613,
          35.6694154
        ]
      },
      "properties": {
        "id": "way/510609083",
        "ward": "edogawa",
        "category": "fire_station",
        "name": "葛西消防署",
        "tags": {
          "@id": "way/510609083",
          "addr:postcode": "134-0083",
          "amenity": "fire_station",
          "building": "yes",
          "fax": "+81-3-36862062",
          "name": "葛西消防署",
          "name:en": "Kasai Fire Station",
          "name:ja": "葛西消防署",
          "note": "National-Land Numerical Information (Public Facility) 2006, MLIT Japan",
          "note:ja": "国土数値情報（公共施設データ）平成19年　国土交通省",
          "operator": "東京消防庁第七消防方面本部",
          "phone": "+81-3-36890119",
          "source": "KSJ2; (URL)",
          "source_ref": "http://nlftp.mlit.go.jp/ksj/jpgis/datalist/KsjTmplt-P02-v2_0.html",
          "website": "http://www.tfd.metro.tokyo.jp/hp-kasai/",
          "@geometry": "center"
        }
      }
    },
    {
      "type": "Feature",
      "geometry": {
        "type": "Point",
        "coordinates": [
          139.8575851,
          35.6702346
        ]
      },
      "properties": {
        "id": "way/510609100",
        "ward": "edogawa",
        "category": "police",
        "name": "葛西橋東交番",
        "tags": {
          "@id": "way/510609100",
          "amenity": "police",
          "building": "yes",
          "name": "葛西橋東交番",
          "note": "National-Land Numerical Information (Public Facility) 2006, MLIT Japan",
          "note:ja": "国土数値情報（公共施設データ）平成19年　国土交通省",
          "source": "KSJ2",
          "source_ref": "http://nlftp.mlit.go.jp/ksj/jpgis/datalist/KsjTmplt-P02-v2_0.html",
          "@geometry": "center"
        }
      }
    },
    {
      "type": "Feature",
      "geometry": {
        "type": "Point",
        "coordinates": [
          139.8795745,
          35.6615103
        ]
      },
      "properties": {
        "id": "way/510724372",
        "ward": "edogawa",
        "category": "police",
        "name": "葛西警察署",
        "tags": {
          "@id": "way/510724372",
          "amenity": "police",
          "building": "yes",
          "name": "葛西警察署",
          "note": "National-Land Numerical Information (Public Facility) 2006, MLIT Japan",
          "note:ja": "国土数値情報（公共施設データ）平成19年　国土交通省",
          "source": "KSJ2",
          "source_ref": "http://nlftp.mlit.go.jp/ksj/jpgis/datalist/KsjTmplt-P02-v2_0.html",
          "wikidata": "Q11621013",
          "@geometry": "center"
        }
      }
    },
    {
      "type": "Feature",
      "geometry": {
        "type": "Point",
        "coordinates": [
          139.8716743,
          35.6484224
        ]
      },
      "properties": {
        "id": "way/510893460",
        "ward": "edogawa",
        "category": "police",
        "name": "葛西警察署南葛西交番",
        "tags": {
          "@id": "way/510893460",
          "amenity": "police",
          "building": "yes",
          "name": "葛西警察署南葛西交番",
          "note": "National-Land Numerical Information (Public Facility) 2006, MLIT Japan",
          "note:ja": "国土数値情報（公共施設データ）平成19年　国土交通省",
          "source": "KSJ2",
          "source_ref": "http://nlftp.mlit.go.jp/ksj/jpgis/datalist/KsjTmplt-P02-v2_0.html",
          "@geometry": "center"
        }
      }
    },
    {
      "type": "Feature",
      "geometry": {
        "type": "Point",
        "coordinates": [
          139.87385,
          35.6488238
        ]
      },
      "properties": {
        "id": "way/510893464",
        "ward": "edogawa",
        "category": "fire_station",
        "name": "葛西消防署南葛西出張所",
        "tags": {
          "@id": "way/510893464",
          "amenity": "fire_station",
          "building": "yes",
          "name": "葛西消防署南葛西出張所",
          "note": "National-Land Numerical Information (Public Facility) 2006, MLIT Japan",
          "note:ja": "国土数値情報（公共施設データ）平成19年　国土交通省",
          "source": "KSJ2",
          "source_ref": "http://nlftp.mlit.go.jp/ksj/jpgis/datalist/KsjTmplt-P02-v2_0.html",
          "@geometry": "center"
        }
      }
    },
    {
      "type": "Feature",
      "geometry": {
        "type": "Point",
        "coordinates": [
          139.8724117,
          35.6634744
        ]
      },
      "properties": {
        "id": "way/511706472",
        "ward": "edogawa",
        "category": "police",
        "name": "葛西駅前交番",
        "tags": {
          "@id": "way/511706472",
          "addr:block_number": "43",
          "addr:housenumber": "21",
          "amenity": "police",
          "building": "yes",
          "check_date": "2023-05-13",
          "name": "葛西駅前交番",
          "name:en": "Koban",
          "note": "National-Land Numerical Information (Public Facility) 2006, MLIT Japan",
          "note:ja": "国土数値情報（公共施設データ）平成19年　国土交通省",
          "operator": "葛西警察署",
          "source": "KSJ2",
          "source_ref": "http://nlftp.mlit.go.jp/ksj/jpgis/datalist/KsjTmplt-P02-v2_0.html",
          "@geometry": "center"
        }
      }
    },
    {
      "type": "Feature",
      "geometry": {
        "type": "Point",
        "coordinates": [
          139.8875961,
          35.7338178
        ]
      },
      "properties": {
        "id": "way/514642458",
        "ward": "edogawa",
        "category": "police",
        "name": "小岩警察署",
        "tags": {
          "@id": "way/514642458",
          "amenity": "police",
          "building": "yes",
          "name": "小岩警察署",
          "name:en": "Koiwa Police Station",
          "note": "National-Land Numerical Information (Public Facility) 2006, MLIT Japan",
          "note:ja": "国土数値情報（公共施設データ）平成19年　国土交通省",
          "source": "KSJ2",
          "source_ref": "http://nlftp.mlit.go.jp/ksj/jpgis/datalist/KsjTmplt-P02-v2_0.html",
          "wikidata": "Q11460036",
          "@geometry": "center"
        }
      }
    },
    {
      "type": "Feature",
      "geometry": {
        "type": "Point",
        "coordinates": [
          139.8827055,
          35.6658989
        ]
      },
      "properties": {
        "id": "way/604223039",
        "ward": "edogawa",
        "category": "police",
        "name": "葛西警察署 東葛西五丁目交番",
        "tags": {
          "@id": "way/604223039",
          "amenity": "police",
          "building": "yes",
          "name": "葛西警察署 東葛西五丁目交番",
          "note": "National-Land Numerical Information (Public Facility) 2006, MLIT Japan",
          "note:ja": "国土数値情報（公共施設データ）平成19年　国土交通省",
          "operator": "葛西警察署",
          "source": "KSJ2",
          "source_ref": "http://nlftp.mlit.go.jp/ksj/jpgis/datalist/KsjTmplt-P02-v2_0.html",
          "@geometry": "center"
        }
      }
    },
    {
      "type": "Feature",
      "geometry": {
        "type": "Point",
        "coordinates": [
          139.8821099,
          35.6562804
        ]
      },
      "properties": {
        "id": "way/604252879",
        "ward": "edogawa",
        "category": "police",
        "name": "葛西警察署 東葛西九丁目駐在所",
        "tags": {
          "@id": "way/604252879",
          "amenity": "police",
          "building": "yes",
          "name": "葛西警察署 東葛西九丁目駐在所",
          "note": "National-Land Numerical Information (Public Facility) 2006, MLIT Japan",
          "note:ja": "国土数値情報（公共施設データ）平成19年　国土交通省",
          "source": "KSJ2",
          "source_ref": "http://nlftp.mlit.go.jp/ksj/jpgis/datalist/KsjTmplt-P02-v2_0.html",
          "@geometry": "center"
        }
      }
    },
    {
      "type": "Feature",
      "geometry": {
        "type": "Point",
        "coordinates": [
          139.8797983,
          35.6896304
        ]
      },
      "properties": {
        "id": "way/605646947",
        "ward": "edogawa",
        "category": "police",
        "name": "小松川警察署 一之江交番",
        "tags": {
          "@id": "way/605646947",
          "amenity": "police",
          "building": "yes",
          "name": "小松川警察署 一之江交番",
          "@geometry": "center"
        }
      }
    },
    {
      "type": "Feature",
      "geometry": {
        "type": "Point",
        "coordinates": [
          139.8977717,
          35.6927112
        ]
      },
      "properties": {
        "id": "way/654167383",
        "ward": "edogawa",
        "category": "police",
        "name": "小松川警察署瑞江駅前交番",
        "tags": {
          "@id": "way/654167383",
          "amenity": "police",
          "building": "yes",
          "name": "小松川警察署瑞江駅前交番",
          "source": "survey",
          "source_ref": "http://nlftp.mlit.go.jp/ksj/jpgis/datalist/KsjTmplt-P02-v2_0.html",
          "wheelchair": "yes",
          "@geometry": "center"
        }
      }
    },
    {
      "type": "Feature",
      "geometry": {
        "type": "Point",
        "coordinates": [
          139.8717689,
          35.6677662
        ]
      },
      "properties": {
        "id": "way/660867401",
        "ward": "edogawa",
        "category": "police",
        "name": "葛西警察署共栄橋交番",
        "tags": {
          "@id": "way/660867401",
          "amenity": "police",
          "building": "yes",
          "name": "葛西警察署共栄橋交番",
          "note": "National-Land Numerical Information (Public Facility) 2006, MLIT Japan",
          "note:ja": "国土数値情報（公共施設データ）平成19年　国土交通省",
          "source": "KSJ2",
          "source_ref": "http://nlftp.mlit.go.jp/ksj/jpgis/datalist/KsjTmplt-P02-v2_0.html",
          "@geometry": "center"
        }
      }
    },
    {
      "type": "Feature",
      "geometry": {
        "type": "Point",
        "coordinates": [
          139.863725,
          35.702561
        ]
      },
      "properties": {
        "id": "node/734837930",
        "ward": "edogawa",
        "category": "police",
        "name": "小松川警察署",
        "tags": {
          "@id": "node/734837930",
          "amenity": "police",
          "name": "小松川警察署",
          "name:en": "Komatsugawa Police Station",
          "wikidata": "Q11461136"
        }
      }
    },
    {
      "type": "Feature",
      "geometry": {
        "type": "Point",
        "coordinates": [
          139.894893,
          35.708656
        ]
      },
      "properties": {
        "id": "node/1420775504",
        "ward": "edogawa",
        "category": "fire_station",
        "name": "小岩消防署",
        "tags": {
          "@id": "node/1420775504",
          "addr:block_number": "42",
          "addr:city": "江戸川区",
          "addr:housenumber": "11",
          "addr:neighbourhood": "鹿骨二丁目",
          "addr:postcode": "133-0073",
          "addr:province": "東京都",
          "amenity": "fire_station",
          "fax": "+81-3-36786770",
          "name": "小岩消防署",
          "name:en": "Koiwa Fire Station",
          "name:ja": "小岩消防署",
          "note": "National-Land Numerical Information (Public Facility) 2006, MLIT Japan",
          "note:ja": "国土数値情報（公共施設データ）平成19年　国土交通省",
          "operator": "東京消防庁第七消防方面本部",
          "phone": "+81-3-36770119",
          "source": "KSJ2;(URL)",
          "source_ref": "http://nlftp.mlit.go.jp/ksj/jpgis/datalist/KsjTmplt-P02-v2_0.html",
          "website": "http://www.tfd.metro.tokyo.jp/hp-koiwa/"
        }
      }
    },
    {
      "type": "Feature",
      "geometry": {
        "type": "Point",
        "coordinates": [
          139.88992,
          35.737456
        ]
      },
      "properties": {
        "id": "node/1420775508",
        "ward": "edogawa",
        "category": "fire_station",
        "name": "小岩消防署北小岩出張所",
        "tags": {
          "@id": "node/1420775508",
          "amenity": "fire_station",
          "name": "小岩消防署北小岩出張所",
          "name:en": "Koiwa Fire Station, Kita-Koiwa Branch",
          "note": "National-Land Numerical Information (Public Facility) 2006, MLIT Japan",
          "note:ja": "国土数値情報（公共施設データ）平成19年　国土交通省",
          "source": "KSJ2",
          "source_ref": "http://nlftp.mlit.go.jp/ksj/jpgis/datalist/KsjTmplt-P02-v2_0.html"
        }
      }
    },
    {
      "type": "Feature",
      "geometry": {
        "type": "Point",
        "coordinates": [
          139.8820217,
          35.7237608
        ]
      },
      "properties": {
        "id": "node/1420775513",
        "ward": "edogawa",
        "category": "fire_station",
        "name": "小岩消防署南小岩出張所",
        "tags": {
          "@id": "node/1420775513",
          "amenity": "fire_station",
          "name": "小岩消防署南小岩出張所",
          "note": "National-Land Numerical Information (Public Facility) 2006, MLIT Japan",
          "note:ja": "国土数値情報（公共施設データ）平成19年　国土交通省",
          "source": "KSJ2",
          "source_ref": "http://nlftp.mlit.go.jp/ksj/jpgis/datalist/KsjTmplt-P02-v2_0.html"
        }
      }
    },
    {
      "type": "Feature",
      "geometry": {
        "type": "Point",
        "coordinates": [
          139.9091277,
          35.6937689
        ]
      },
      "properties": {
        "id": "node/1420775517",
        "ward": "edogawa",
        "category": "fire_station",
        "name": "小岩消防署篠崎出張所",
        "tags": {
          "@id": "node/1420775517",
          "amenity": "fire_station",
          "check_date": "2023-05-20",
          "name": "小岩消防署篠崎出張所",
          "note": "National-Land Numerical Information (Public Facility) 2006, MLIT Japan",
          "note:ja": "国土数値情報（公共施設データ）平成19年　国土交通省",
          "source": "KSJ2",
          "source_ref": "http://nlftp.mlit.go.jp/ksj/jpgis/datalist/KsjTmplt-P02-v2_0.html"
        }
      }
    },
    {
      "type": "Feature",
      "geometry": {
        "type": "Point",
        "coordinates": [
          139.8909224,
          35.7321105
        ]
      },
      "properties": {
        "id": "node/1420775538",
        "ward": "edogawa",
        "category": "police",
        "name": "小岩警察署 一里塚交番",
        "tags": {
          "@id": "node/1420775538",
          "amenity": "police",
          "name": "小岩警察署 一里塚交番",
          "note": "National-Land Numerical Information (Public Facility) 2006, MLIT Japan",
          "note:ja": "国土数値情報（公共施設データ）平成19年　国土交通省",
          "source": "KSJ2",
          "source_ref": "http://nlftp.mlit.go.jp/ksj/jpgis/datalist/KsjTmplt-P02-v2_0.html"
        }
      }
    },
    {
      "type": "Feature",
      "geometry": {
        "type": "Point",
        "coordinates": [
          139.873778,
          35.72344
        ]
      },
      "properties": {
        "id": "node/1420775539",
        "ward": "edogawa",
        "category": "police",
        "name": "小岩警察署上一色駐在所",
        "tags": {
          "@id": "node/1420775539",
          "KSJ2:ADS": "上一色2-1-2",
          "KSJ2:AdminArea": "東京都江戸川区",
          "KSJ2:PubFacAdmin": "都道府県",
          "amenity": "police",
          "name": "小岩警察署上一色駐在所",
          "note": "National-Land Numerical Information (Public Facility) 2006, MLIT Japan",
          "note:ja": "国土数値情報（公共施設データ）平成19年　国土交通省",
          "source": "KSJ2",
          "source_ref": "http://nlftp.mlit.go.jp/ksj/jpgis/datalist/KsjTmplt-P02-v2_0.html"
        }
      }
    },
    {
      "type": "Feature",
      "geometry": {
        "type": "Point",
        "coordinates": [
          139.902142,
          35.714155
        ]
      },
      "properties": {
        "id": "node/1420775548",
        "ward": "edogawa",
        "category": "police",
        "name": "小岩警察署上篠崎駐在所",
        "tags": {
          "@id": "node/1420775548",
          "KSJ2:ADS": "上篠崎1-22-28",
          "KSJ2:AdminArea": "東京都江戸川区",
          "KSJ2:PubFacAdmin": "都道府県",
          "amenity": "police",
          "name": "小岩警察署上篠崎駐在所",
          "note": "National-Land Numerical Information (Public Facility) 2006, MLIT Japan",
          "note:ja": "国土数値情報（公共施設データ）平成19年　国土交通省",
          "source": "KSJ2",
          "source_ref": "http://nlftp.mlit.go.jp/ksj/jpgis/datalist/KsjTmplt-P02-v2_0.html"
        }
      }
    },
    {
      "type": "Feature",
      "geometry": {
        "type": "Point",
        "coordinates": [
          139.8809503,
          35.7222944
        ]
      },
      "properties": {
        "id": "node/1420775552",
        "ward": "edogawa",
        "category": "police",
        "name": "小岩警察署 二枚橋交番",
        "tags": {
          "@id": "node/1420775552",
          "amenity": "police",
          "name": "小岩警察署 二枚橋交番",
          "note": "National-Land Numerical Information (Public Facility) 2006, MLIT Japan",
          "note:ja": "国土数値情報（公共施設データ）平成19年　国土交通省",
          "source": "KSJ2",
          "source_ref": "http://nlftp.mlit.go.jp/ksj/jpgis/datalist/KsjTmplt-P02-v2_0.html"
        }
      }
    },
    {
      "type": "Feature",
      "geometry": {
        "type": "Point",
        "coordinates": [
          139.8826344,
          35.741382
        ]
      },
      "properties": {
        "id": "node/1420775556",
        "ward": "edogawa",
        "category": "police",
        "name": "小岩警察署京成小岩駅前交番",
        "tags": {
          "@id": "node/1420775556",
          "amenity": "police",
          "name": "小岩警察署京成小岩駅前交番",
          "note": "National-Land Numerical Information (Public Facility) 2006, MLIT Japan",
          "note:ja": "国土数値情報（公共施設データ）平成19年　国土交通省",
          "source": "KSJ2",
          "source_ref": "http://nlftp.mlit.go.jp/ksj/jpgis/datalist/KsjTmplt-P02-v2_0.html"
        }
      }
    },
    {
      "type": "Feature",
      "geometry": {
        "type": "Point",
        "coordinates": [
          139.8848256,
          35.7363427
        ]
      },
      "properties": {
        "id": "node/1420775560",
        "ward": "edogawa",
        "category": "police",
        "name": "小岩警察署 北小岩二丁目交番",
        "tags": {
          "@id": "node/1420775560",
          "amenity": "police",
          "name": "小岩警察署 北小岩二丁目交番",
          "name:en": "Koban",
          "note": "National-Land Numerical Information (Public Facility) 2006, MLIT Japan",
          "note:ja": "国土数値情報（公共施設データ）平成19年　国土交通省",
          "source": "KSJ2",
          "source_ref": "http://nlftp.mlit.go.jp/ksj/jpgis/datalist/KsjTmplt-P02-v2_0.html"
        }
      }
    },
    {
      "type": "Feature",
      "geometry": {
        "type": "Point",
        "coordinates": [
          139.8886395,
          35.7421769
        ]
      },
      "properties": {
        "id": "node/1420775568",
        "ward": "edogawa",
        "category": "police",
        "name": "小岩警察署北小岩駐在所",
        "tags": {
          "@id": "node/1420775568",
          "amenity": "police",
          "name": "小岩警察署北小岩駐在所",
          "note": "National-Land Numerical Information (Public Facility) 2006, MLIT Japan",
          "note:ja": "国土数値情報（公共施設データ）平成19年　国土交通省",
          "source": "KSJ2",
          "source_ref": "http://nlftp.mlit.go.jp/ksj/jpgis/datalist/KsjTmplt-P02-v2_0.html"
        }
      }
    },
    {
      "type": "Feature",
      "geometry": {
        "type": "Point",
        "coordinates": [
          139.8903081,
          35.7209467
        ]
      },
      "properties": {
        "id": "node/1420775569",
        "ward": "edogawa",
        "category": "police",
        "name": "小岩警察署 南小岩交番",
        "tags": {
          "@id": "node/1420775569",
          "amenity": "police",
          "name": "小岩警察署 南小岩交番",
          "name:en": "Koban",
          "note": "National-Land Numerical Information (Public Facility) 2006, MLIT Japan",
          "note:ja": "国土数値情報（公共施設データ）平成19年　国土交通省",
          "source": "KSJ2",
          "source_ref": "http://nlftp.mlit.go.jp/ksj/jpgis/datalist/KsjTmplt-P02-v2_0.html"
        }
      }
    },
    {
      "type": "Feature",
      "geometry": {
        "type": "Point",
        "coordinates": [
          139.8819066,
          35.7330816
        ]
      },
      "properties": {
        "id": "node/1420775579",
        "ward": "edogawa",
        "category": "police",
        "name": "小岩警察署 小岩駅前交番",
        "tags": {
          "@id": "node/1420775579",
          "amenity": "police",
          "name": "小岩警察署 小岩駅前交番",
          "name:en": "Koban",
          "note": "National-Land Numerical Information (Public Facility) 2006, MLIT Japan",
          "note:ja": "国土数値情報（公共施設データ）平成19年　国土交通省",
          "source": "KSJ2",
          "source_ref": "http://nlftp.mlit.go.jp/ksj/jpgis/datalist/KsjTmplt-P02-v2_0.html"
        }
      }
    },
    {
      "type": "Feature",
      "geometry": {
        "type": "Point",
        "coordinates": [
          139.8950795,
          35.735853
        ]
      },
      "properties": {
        "id": "node/1420775583",
        "ward": "edogawa",
        "category": "police",
        "name": "小岩警察署江戸川交番",
        "tags": {
          "@id": "node/1420775583",
          "amenity": "police",
          "name": "小岩警察署江戸川交番",
          "name:en": "Koban",
          "note": "National-Land Numerical Information (Public Facility) 2006, MLIT Japan",
          "note:ja": "国土数値情報（公共施設データ）平成19年　国土交通省",
          "source": "KSJ2",
          "source_ref": "http://nlftp.mlit.go.jp/ksj/jpgis/datalist/KsjTmplt-P02-v2_0.html"
        }
      }
    },
    {
      "type": "Feature",
      "geometry": {
        "type": "Point",
        "coordinates": [
          139.8739207,
          35.7160483
        ]
      },
      "properties": {
        "id": "node/1420775584",
        "ward": "edogawa",
        "category": "police",
        "name": "小岩警察署 菅原橋交番",
        "tags": {
          "@id": "node/1420775584",
          "amenity": "police",
          "name": "小岩警察署 菅原橋交番",
          "name:en": "Koban",
          "note": "National-Land Numerical Information (Public Facility) 2006, MLIT Japan",
          "note:ja": "国土数値情報（公共施設データ）平成19年　国土交通省",
          "source": "KSJ2",
          "source_ref": "http://nlftp.mlit.go.jp/ksj/jpgis/datalist/KsjTmplt-P02-v2_0.html"
        }
      }
    },
    {
      "type": "Feature",
      "geometry": {
        "type": "Point",
        "coordinates": [
          139.8753759,
          35.7318118
        ]
      },
      "properties": {
        "id": "node/1420775593",
        "ward": "edogawa",
        "category": "police",
        "name": "小岩警察署 西小岩交番",
        "tags": {
          "@id": "node/1420775593",
          "amenity": "police",
          "name": "小岩警察署 西小岩交番",
          "name:en": "Koban",
          "note": "National-Land Numerical Information (Public Facility) 2006, MLIT Japan",
          "note:ja": "国土数値情報（公共施設データ）平成19年　国土交通省",
          "source": "KSJ2",
          "source_ref": "http://nlftp.mlit.go.jp/ksj/jpgis/datalist/KsjTmplt-P02-v2_0.html"
        }
      }
    },
    {
      "type": "Feature",
      "geometry": {
        "type": "Point",
        "coordinates": [
          139.88931,
          35.710294
        ]
      },
      "properties": {
        "id": "node/1420775597",
        "ward": "edogawa",
        "category": "police",
        "name": "小岩警察署鹿骨交番",
        "tags": {
          "@id": "node/1420775597",
          "addr:block_number": "59",
          "addr:city": "江戸川区",
          "addr:housenumber": "3",
          "addr:neighbourhood": "鹿骨一丁目",
          "addr:province": "東京都",
          "amenity": "police",
          "name": "小岩警察署鹿骨交番",
          "note": "National-Land Numerical Information (Public Facility) 2006, MLIT Japan",
          "note:ja": "国土数値情報（公共施設データ）平成19年　国土交通省",
          "source": "KSJ2",
          "source_ref": "http://nlftp.mlit.go.jp/ksj/jpgis/datalist/KsjTmplt-P02-v2_0.html"
        }
      }
    },
    {
      "type": "Feature",
      "geometry": {
        "type": "Point",
        "coordinates": [
          139.879789,
          35.6896286
        ]
      },
      "properties": {
        "id": "node/1420776075",
        "ward": "edogawa",
        "category": "police",
        "name": "小松川警察署 一之江交番",
        "tags": {
          "@id": "node/1420776075",
          "amenity": "police",
          "name": "小松川警察署 一之江交番",
          "note": "National-Land Numerical Information (Public Facility) 2006, MLIT Japan",
          "note:ja": "国土数値情報（公共施設データ）平成19年　国土交通省",
          "source": "KSJ2",
          "source_ref": "http://nlftp.mlit.go.jp/ksj/jpgis/datalist/KsjTmplt-P02-v2_0.html"
        }
      }
    },
    {
      "type": "Feature",
      "geometry": {
        "type": "Point",
        "coordinates": [
          139.873895,
          35.70321
        ]
      },
      "properties": {
        "id": "node/1420776081",
        "ward": "edogawa",
        "category": "police",
        "name": "小松川警察署京葉通交番",
        "tags": {
          "@id": "node/1420776081",
          "amenity": "police",
          "name": "小松川警察署京葉通交番",
          "name:en": "Koban",
          "note": "National-Land Numerical Information (Public Facility) 2006, MLIT Japan",
          "note:ja": "国土数値情報（公共施設データ）平成19年　国土交通省",
          "source": "KSJ2",
          "source_ref": "http://nlftp.mlit.go.jp/ksj/jpgis/datalist/KsjTmplt-P02-v2_0.html"
        }
      }
    },
    {
      "type": "Feature",
      "geometry": {
        "type": "Point",
        "coordinates": [
          139.8869888,
          35.6839121
        ]
      },
      "properties": {
        "id": "node/1420776089",
        "ward": "edogawa",
        "category": "police",
        "name": "小松川警察署今井交番",
        "tags": {
          "@id": "node/1420776089",
          "amenity": "police",
          "name": "小松川警察署今井交番",
          "note": "National-Land Numerical Information (Public Facility) 2006, MLIT Japan",
          "note:ja": "国土数値情報（公共施設データ）平成19年　国土交通省",
          "source": "KSJ2",
          "source_ref": "http://nlftp.mlit.go.jp/ksj/jpgis/datalist/KsjTmplt-P02-v2_0.html"
        }
      }
    },
    {
      "type": "Feature",
      "geometry": {
        "type": "Point",
        "coordinates": [
          139.867753,
          35.7082979
        ]
      },
      "properties": {
        "id": "node/1420776094",
        "ward": "edogawa",
        "category": "police",
        "name": "小松川警察署 八蔵橋交番",
        "tags": {
          "@id": "node/1420776094",
          "amenity": "police",
          "name": "小松川警察署 八蔵橋交番",
          "name:en": "Koban",
          "note": "National-Land Numerical Information (Public Facility) 2006, MLIT Japan",
          "note:ja": "国土数値情報（公共施設データ）平成19年　国土交通省",
          "source": "KSJ2",
          "source_ref": "http://nlftp.mlit.go.jp/ksj/jpgis/datalist/KsjTmplt-P02-v2_0.html"
        }
      }
    },
    {
      "type": "Feature",
      "geometry": {
        "type": "Point",
        "coordinates": [
          139.90868,
          35.693524
        ]
      },
      "properties": {
        "id": "node/1420776103",
        "ward": "edogawa",
        "category": "police",
        "name": "小松川警察署南篠崎交番",
        "tags": {
          "@id": "node/1420776103",
          "KSJ2:ADS": "南篠崎5-12-7",
          "KSJ2:AdminArea": "東京都江戸川区",
          "KSJ2:PubFacAdmin": "都道府県",
          "amenity": "police",
          "check_date": "2023-05-20",
          "name": "小松川警察署南篠崎交番",
          "note": "National-Land Numerical Information (Public Facility) 2006, MLIT Japan",
          "note:ja": "国土数値情報（公共施設データ）平成19年　国土交通省",
          "source": "KSJ2",
          "source_ref": "http://nlftp.mlit.go.jp/ksj/jpgis/datalist/KsjTmplt-P02-v2_0.html"
        }
      }
    },
    {
      "type": "Feature",
      "geometry": {
        "type": "Point",
        "coordinates": [
          139.8497681,
          35.6893507
        ]
      },
      "properties": {
        "id": "node/1420776104",
        "ward": "edogawa",
        "category": "police",
        "name": "小松川警察署小松川一丁目交番",
        "tags": {
          "@id": "node/1420776104",
          "amenity": "police",
          "name": "小松川警察署小松川一丁目交番",
          "name:en": "Koban",
          "note": "National-Land Numerical Information (Public Facility) 2006, MLIT Japan",
          "note:ja": "国土数値情報（公共施設データ）平成19年　国土交通省",
          "source": "KSJ2",
          "source_ref": "http://nlftp.mlit.go.jp/ksj/jpgis/datalist/KsjTmplt-P02-v2_0.html",
          "wheelchair": "yes"
        }
      }
    },
    {
      "type": "Feature",
      "geometry": {
        "type": "Point",
        "coordinates": [
          139.850426,
          35.699792
        ]
      },
      "properties": {
        "id": "node/1420776106",
        "ward": "edogawa",
        "category": "police",
        "name": "小松川警察署小松川四丁目交番",
        "tags": {
          "@id": "node/1420776106",
          "amenity": "police",
          "name": "小松川警察署小松川四丁目交番",
          "name:en": "Koban",
          "note": "National-Land Numerical Information (Public Facility) 2006, MLIT Japan",
          "note:ja": "国土数値情報（公共施設データ）平成19年　国土交通省",
          "source": "KSJ2",
          "source_ref": "http://nlftp.mlit.go.jp/ksj/jpgis/datalist/KsjTmplt-P02-v2_0.html"
        }
      }
    },
    {
      "type": "Feature",
      "geometry": {
        "type": "Point",
        "coordinates": [
          139.8420423,
          35.7121136
        ]
      },
      "properties": {
        "id": "node/1420776115",
        "ward": "edogawa",
        "category": "police",
        "name": "小松川警察署平井七丁目交番",
        "tags": {
          "@id": "node/1420776115",
          "amenity": "police",
          "name": "小松川警察署平井七丁目交番",
          "note": "National-Land Numerical Information (Public Facility) 2006, MLIT Japan",
          "note:ja": "国土数値情報（公共施設データ）平成19年　国土交通省",
          "source": "KSJ2",
          "source_ref": "http://nlftp.mlit.go.jp/ksj/jpgis/datalist/KsjTmplt-P02-v2_0.html"
        }
      }
    },
    {
      "type": "Feature",
      "geometry": {
        "type": "Point",
        "coordinates": [
          139.8677433,
          35.691475
        ]
      },
      "properties": {
        "id": "node/1420776127",
        "ward": "edogawa",
        "category": "police",
        "name": "小松川警察署 東小松川交番",
        "tags": {
          "@id": "node/1420776127",
          "amenity": "police",
          "name": "小松川警察署 東小松川交番",
          "name:en": "Koban",
          "note": "National-Land Numerical Information (Public Facility) 2006, MLIT Japan",
          "note:ja": "国土数値情報（公共施設データ）平成19年　国土交通省",
          "source": "KSJ2",
          "source_ref": "http://nlftp.mlit.go.jp/ksj/jpgis/datalist/KsjTmplt-P02-v2_0.html"
        }
      }
    },
    {
      "type": "Feature",
      "geometry": {
        "type": "Point",
        "coordinates": [
          139.897783,
          35.686047
        ]
      },
      "properties": {
        "id": "node/1420776131",
        "ward": "edogawa",
        "category": "police",
        "name": "小松川警察署東瑞江交番",
        "tags": {
          "@id": "node/1420776131",
          "KSJ2:ADS": "東瑞江2-39-3",
          "KSJ2:AdminArea": "東京都江戸川区",
          "KSJ2:PubFacAdmin": "都道府県",
          "amenity": "police",
          "name": "小松川警察署東瑞江交番",
          "note": "National-Land Numerical Information (Public Facility) 2006, MLIT Japan",
          "note:ja": "国土数値情報（公共施設データ）平成19年　国土交通省",
          "source": "KSJ2",
          "source_ref": "http://nlftp.mlit.go.jp/ksj/jpgis/datalist/KsjTmplt-P02-v2_0.html"
        }
      }
    },
    {
      "type": "Feature",
      "geometry": {
        "type": "Point",
        "coordinates": [
          139.8596166,
          35.7116563
        ]
      },
      "properties": {
        "id": "node/1420776142",
        "ward": "edogawa",
        "category": "police",
        "name": "小松川警察署 松島四丁目交番",
        "tags": {
          "@id": "node/1420776142",
          "amenity": "police",
          "name": "小松川警察署 松島四丁目交番",
          "name:en": "Koban",
          "note": "National-Land Numerical Information (Public Facility) 2006, MLIT Japan",
          "note:ja": "国土数値情報（公共施設データ）平成19年　国土交通省",
          "source": "KSJ2",
          "source_ref": "http://nlftp.mlit.go.jp/ksj/jpgis/datalist/KsjTmplt-P02-v2_0.html"
        }
      }
    },
    {
      "type": "Feature",
      "geometry": {
        "type": "Point",
        "coordinates": [
          139.8699934,
          35.6970122
        ]
      },
      "properties": {
        "id": "node/1420776144",
        "ward": "edogawa",
        "category": "police",
        "name": "小松川警察署 松江交番",
        "tags": {
          "@id": "node/1420776144",
          "amenity": "police",
          "name": "小松川警察署 松江交番",
          "name:en": "Koban",
          "note": "National-Land Numerical Information (Public Facility) 2006, MLIT Japan",
          "note:ja": "国土数値情報（公共施設データ）平成19年　国土交通省",
          "source": "KSJ2",
          "source_ref": "http://nlftp.mlit.go.jp/ksj/jpgis/datalist/KsjTmplt-P02-v2_0.html"
        }
      }
    },
    {
      "type": "Feature",
      "geometry": {
        "type": "Point",
        "coordinates": [
          139.8903386,
          35.698842
        ]
      },
      "properties": {
        "id": "node/1420776148",
        "ward": "edogawa",
        "category": "police",
        "name": "小松川警察署 椿町駐在所",
        "tags": {
          "@id": "node/1420776148",
          "amenity": "police",
          "name": "小松川警察署 椿町駐在所",
          "note": "National-Land Numerical Information (Public Facility) 2006, MLIT Japan",
          "note:ja": "国土数値情報（公共施設データ）平成19年　国土交通省",
          "source": "KSJ2",
          "source_ref": "http://nlftp.mlit.go.jp/ksj/jpgis/datalist/KsjTmplt-P02-v2_0.html"
        }
      }
    },
    {
      "type": "Feature",
      "geometry": {
        "type": "Point",
        "coordinates": [
          139.9042265,
          35.7056975
        ]
      },
      "properties": {
        "id": "node/1420776177",
        "ward": "edogawa",
        "category": "police",
        "name": "小松川警察署篠崎駅前交番",
        "tags": {
          "@id": "node/1420776177",
          "KSJ2:ADS": "篠崎町7-27-15先",
          "KSJ2:AdminArea": "東京都江戸川区",
          "KSJ2:PubFacAdmin": "都道府県",
          "amenity": "police",
          "check_date": "2023-05-20",
          "name": "小松川警察署篠崎駅前交番",
          "name:en": "Koban",
          "note": "National-Land Numerical Information (Public Facility) 2006, MLIT Japan",
          "note:ja": "国土数値情報（公共施設データ）平成19年　国土交通省",
          "source": "KSJ2",
          "source_ref": "http://nlftp.mlit.go.jp/ksj/jpgis/datalist/KsjTmplt-P02-v2_0.html"
        }
      }
    },
    {
      "type": "Feature",
      "geometry": {
        "type": "Point",
        "coordinates": [
          139.895553,
          35.701829
        ]
      },
      "properties": {
        "id": "node/1420776181",
        "ward": "edogawa",
        "category": "police",
        "name": "小松川警察署西瑞江交番",
        "tags": {
          "@id": "node/1420776181",
          "KSJ2:ADS": "谷河内1-10-14",
          "KSJ2:AdminArea": "東京都江戸川区",
          "KSJ2:PubFacAdmin": "都道府県",
          "amenity": "police",
          "name": "小松川警察署西瑞江交番",
          "note": "National-Land Numerical Information (Public Facility) 2006, MLIT Japan",
          "note:ja": "国土数値情報（公共施設データ）平成19年　国土交通省",
          "source": "KSJ2",
          "source_ref": "http://nlftp.mlit.go.jp/ksj/jpgis/datalist/KsjTmplt-P02-v2_0.html"
        }
      }
    },
    {
      "type": "Feature",
      "geometry": {
        "type": "Point",
        "coordinates": [
          139.8562485,
          35.6829351
        ]
      },
      "properties": {
        "id": "node/1420784164",
        "ward": "edogawa",
        "category": "police",
        "name": "東京湾岸警察署中川水上派出所",
        "tags": {
          "@id": "node/1420784164",
          "amenity": "police",
          "name": "東京湾岸警察署中川水上派出所",
          "note": "National-Land Numerical Information (Public Facility) 2006, MLIT Japan",
          "note:ja": "国土数値情報（公共施設データ）平成19年　国土交通省",
          "source": "KSJ2",
          "source_ref": "http://nlftp.mlit.go.jp/ksj/jpgis/datalist/KsjTmplt-P02-v2_0.html"
        }
      }
    },
    {
      "type": "Feature",
      "geometry": {
        "type": "Point",
        "coordinates": [
          139.8724835,
          35.706006
        ]
      },
      "properties": {
        "id": "node/1420787604",
        "ward": "edogawa",
        "category": "fire_station",
        "name": "江戸川消防署",
        "tags": {
          "@id": "node/1420787604",
          "KSJ2:ADS": "中央2-9-13",
          "KSJ2:AdminArea": "東京都江戸川区",
          "KSJ2:PubFacAdmin": "市区町村",
          "addr:postcode": "132-0021",
          "amenity": "fire_station",
          "fax": "+81-3-36560599",
          "name": "江戸川消防署",
          "name:en": "Edogawa Fire Station",
          "name:ja": "江戸川消防署",
          "note": "National-Land Numerical Information (Public Facility) 2006, MLIT Japan",
          "note:ja": "国土数値情報（公共施設データ）平成19年　国土交通省",
          "operator": "東京消防庁第七消防方面本部",
          "phone": "+81-3-36560119",
          "source": "KSJ2; (URL)",
          "source_ref": "http://nlftp.mlit.go.jp/ksj/jpgis/datalist/KsjTmplt-P02-v2_0.html",
          "website": "http://www.tfd.metro.tokyo.jp/hp-edogawa/"
        }
      }
    },
    {
      "type": "Feature",
      "geometry": {
        "type": "Point",
        "coordinates": [
          139.8482771,
          35.7025174
        ]
      },
      "properties": {
        "id": "node/1420787605",
        "ward": "edogawa",
        "category": "fire_station",
        "name": "江戸川消防署小松川出張所",
        "tags": {
          "@id": "node/1420787605",
          "amenity": "fire_station",
          "name": "江戸川消防署小松川出張所",
          "name:en": "Edogawa Fire Station Komatsugawa Branch",
          "note": "National-Land Numerical Information (Public Facility) 2006, MLIT Japan",
          "note:ja": "国土数値情報（公共施設データ）平成19年　国土交通省",
          "source": "KSJ2",
          "source_ref": "http://nlftp.mlit.go.jp/ksj/jpgis/datalist/KsjTmplt-P02-v2_0.html"
        }
      }
    },
    {
      "type": "Feature",
      "geometry": {
        "type": "Point",
        "coordinates": [
          139.890089,
          35.685269
        ]
      },
      "properties": {
        "id": "node/1420787606",
        "ward": "edogawa",
        "category": "fire_station",
        "name": "江戸川消防署瑞江出張所",
        "tags": {
          "@id": "node/1420787606",
          "KSJ2:ADS": "西瑞江3-26",
          "KSJ2:AdminArea": "東京都江戸川区",
          "KSJ2:PubFacAdmin": "市区町村",
          "amenity": "fire_station",
          "name": "江戸川消防署瑞江出張所",
          "note": "National-Land Numerical Information (Public Facility) 2006, MLIT Japan",
          "note:ja": "国土数値情報（公共施設データ）平成19年　国土交通省",
          "source": "KSJ2",
          "source_ref": "http://nlftp.mlit.go.jp/ksj/jpgis/datalist/KsjTmplt-P02-v2_0.html"
        }
      }
    },
    {
      "type": "Feature",
      "geometry": {
        "type": "Point",
        "coordinates": [
          139.867516,
          35.6783634
        ]
      },
      "properties": {
        "id": "node/1420797124",
        "ward": "edogawa",
        "category": "fire_station",
        "name": "葛西消防署船堀出張所",
        "tags": {
          "@id": "node/1420797124",
          "KSJ2:ADS": "船堀6-11-17",
          "KSJ2:AdminArea": "東京都江戸川区",
          "KSJ2:PubFacAdmin": "市区町村",
          "amenity": "fire_station",
          "name": "葛西消防署船堀出張所",
          "note": "National-Land Numerical Information (Public Facility) 2006, MLIT Japan",
          "note:ja": "国土数値情報（公共施設データ）平成19年　国土交通省",
          "source": "KSJ2",
          "source_ref": "http://nlftp.mlit.go.jp/ksj/jpgis/datalist/KsjTmplt-P02-v2_0.html"
        }
      }
    },
    {
      "type": "Feature",
      "geometry": {
        "type": "Point",
        "coordinates": [
          139.86198,
          35.680045
        ]
      },
      "properties": {
        "id": "node/1420797129",
        "ward": "edogawa",
        "category": "police",
        "name": "葛西警察署宇喜田駐在所",
        "tags": {
          "@id": "node/1420797129",
          "KSJ2:ADS": "宇喜田町1035",
          "KSJ2:AdminArea": "東京都江戸川区",
          "KSJ2:PubFacAdmin": "都道府県",
          "amenity": "police",
          "name": "葛西警察署宇喜田駐在所",
          "note": "National-Land Numerical Information (Public Facility) 2006, MLIT Japan",
          "note:ja": "国土数値情報（公共施設データ）平成19年　国土交通省",
          "source": "KSJ2",
          "source_ref": "http://nlftp.mlit.go.jp/ksj/jpgis/datalist/KsjTmplt-P02-v2_0.html"
        }
      }
    },
    {
      "type": "Feature",
      "geometry": {
        "type": "Point",
        "coordinates": [
          139.8792341,
          35.6774626
        ]
      },
      "properties": {
        "id": "node/1420797132",
        "ward": "edogawa",
        "category": "police",
        "name": "葛西警察署 江戸川六丁目交番",
        "tags": {
          "@id": "node/1420797132",
          "amenity": "police",
          "name": "葛西警察署 江戸川六丁目交番",
          "name:en": "Koban",
          "note": "National-Land Numerical Information (Public Facility) 2006, MLIT Japan",
          "note:ja": "国土数値情報（公共施設データ）平成19年　国土交通省",
          "source": "KSJ2",
          "source_ref": "http://nlftp.mlit.go.jp/ksj/jpgis/datalist/KsjTmplt-P02-v2_0.html"
        }
      }
    },
    {
      "type": "Feature",
      "geometry": {
        "type": "Point",
        "coordinates": [
          139.8639433,
          35.6837041
        ]
      },
      "properties": {
        "id": "node/1420797135",
        "ward": "edogawa",
        "category": "police",
        "name": "葛西警察署船堀駅前交番",
        "tags": {
          "@id": "node/1420797135",
          "amenity": "police",
          "name": "葛西警察署船堀駅前交番",
          "name:en": "Koban",
          "note": "National-Land Numerical Information (Public Facility) 2006, MLIT Japan",
          "note:ja": "国土数値情報（公共施設データ）平成19年　国土交通省",
          "source": "KSJ2",
          "source_ref": "http://nlftp.mlit.go.jp/ksj/jpgis/datalist/KsjTmplt-P02-v2_0.html"
        }
      }
    },
    {
      "type": "Feature",
      "geometry": {
        "type": "Point",
        "coordinates": [
          139.8738544,
          35.6634786
        ]
      },
      "properties": {
        "id": "node/5057818711",
        "ward": "edogawa",
        "category": "aed",
        "name": "",
        "tags": {
          "@id": "node/5057818711",
          "defibrillator:location": "鉄道博物館エントランス",
          "emergency": "defibrillator",
          "indoor": "yes"
        }
      }
    },
    {
      "type": "Feature",
      "geometry": {
        "type": "Point",
        "coordinates": [
          139.8727195,
          35.6635976
        ]
      },
      "properties": {
        "id": "node/5057818712",
        "ward": "edogawa",
        "category": "aed",
        "name": "",
        "tags": {
          "@id": "node/5057818712",
          "defibrillator:location": "改札内",
          "emergency": "defibrillator",
          "indoor": "yes"
        }
      }
    },
    {
      "type": "Feature",
      "geometry": {
        "type": "Point",
        "coordinates": [
          139.8724097,
          35.6634794
        ]
      },
      "properties": {
        "id": "node/5070766661",
        "ward": "edogawa",
        "category": "aed",
        "name": "",
        "tags": {
          "@id": "node/5070766661",
          "emergency": "defibrillator",
          "indoor": "yes"
        }
      }
    },
    {
      "type": "Feature",
      "geometry": {
        "type": "Point",
        "coordinates": [
          139.8515939,
          35.7061209
        ]
      },
      "properties": {
        "id": "node/6377421948",
        "ward": "edogawa",
        "category": "aed",
        "name": "",
        "tags": {
          "@id": "node/6377421948",
          "emergency": "defibrillator"
        }
      }
    },
    {
      "type": "Feature",
      "geometry": {
        "type": "Point",
        "coordinates": [
          139.8451272,
          35.7133113
        ]
      },
      "properties": {
        "id": "node/6377421989",
        "ward": "edogawa",
        "category": "aed",
        "name": "",
        "tags": {
          "@id": "node/6377421989",
          "emergency": "defibrillator"
        }
      }
    },
    {
      "type": "Feature",
      "geometry": {
        "type": "Point",
        "coordinates": [
          139.8567719,
          35.6797594
        ]
      },
      "properties": {
        "id": "node/10981791428",
        "ward": "edogawa",
        "category": "fire_station",
        "name": "葛西消防団第八分団本部",
        "tags": {
          "@id": "node/10981791428",
          "amenity": "fire_station",
          "check_date": "2023-06-17",
          "name": "葛西消防団第八分団本部",
          "name:ja": "葛西消防団第八分団本部"
        }
      }
    }
  ]
}