{
  "type": "FeatureCollection",
  "features": [
    {
      "type": "Feature",
      "geometry": {
        "type": "Point",
        "coordinates": [
          139.6456925,
          35.7706485
        ]
      },
      "properties": {
        "id": "way/157263587",
        "ward": "itabashi",
        "category": "police",
        "name": "",
        "tags": {
          "@id": "way/157263587",
          "amenity": "police",
          "building": "yes",
          "source": "Bing,2007-03",
          "@geometry": "center"
        }
      }
    },
    {
      "type": "Feature",
      "geometry": {
        "type": "Point",
        "coordinates": [
          139.6973432,
          35.7737117
        ]
      },
      "properties": {
        "id": "way/179895099",
        "ward": "itabashi",
        "category": "fire_station",
        "name": "志村消防署志村坂上出張所",
        "tags": {
          "@id": "way/179895099",
          "amenity": "fire_station",
          "building": "yes",
          "name": "志村消防署志村坂上出張所",
          "name:en": "Fire Substation",
          "note": "National-Land Numerical Information (Public Facility) 2006, MLIT Japan",
          "note:ja": "国土数値情報（公共施設データ）平成19年　国土交通省",
          "source": "KSJ2",
          "source_ref": "http://nlftp.mlit.go.jp/ksj/jpgis/datalist/KsjTmplt-P02-v2_0.html",
          "@geometry": "center"
        }
      }
    },
    {
      "type": "Feature",
      "geometry": {
        "type": "Point",
        "coordinates": [
          139.6881083,
          35.7584525
        ]
      },
      "properties": {
        "id": "way/389492592",
        "ward": "itabashi",
        "category": "police",
        "name": "民間 森の番所",
        "tags": {
          "@id": "way/389492592",
          "amenity": "police",
          "building": "yes",
          "name": "民間 森の番所",
          "operator": "南ときわ台民間交番運営委員会",
          "source": "source=GSImaps/ort",
          "@geometry": "center"
        }
      }
    },
    {
      "type": "Feature",
      "geometry": {
        "type": "Point",
        "coordinates": [
          139.6770326,
          35.763517
        ]
      },
      "properties": {
        "id": "node/426893504",
        "ward": "itabashi",
        "category": "police",
        "name": "板橋警察署 上板橋駅前交番",
        "tags": {
          "@id": "node/426893504",
          "amenity": "police",
          "name": "板橋警察署 上板橋駅前交番",
          "name:en": "Koban",
          "note": "National-Land Numerical Information (Public Facility) 2006, MLIT Japan",
          "note:ja": "国土数値情報（公共施設データ）平成19年　国土交通省",
          "source": "KSJ2",
          "source_ref": "http://nlftp.mlit.go.jp/ksj/jpgis/datalist/KsjTmplt-P02-v2_0.html"
        }
      }
    },
    {
      "type": "Feature",
      "geometry": {
        "type": "Point",
        "coordinates": [
          139.7059345,
          35.7421114
        ]
      },
      "properties": {
        "id": "way/525097847",
        "ward": "itabashi",
        "category": "police",
        "name": "板橋警察署熊野交番",
        "tags": {
          "@id": "way/525097847",
          "addr:city": "板橋区",
          "addr:province": "東京都",
          "addr:quarter": "熊野町",
          "amenity": "police",
          "building": "yes",
          "name": "板橋警察署熊野交番",
          "note": "National-Land Numerical Information (Public Facility) 2006, MLIT Japan",
          "note:ja": "国土数値情報（公共施設データ）平成19年　国土交通省",
          "operator": "警視庁",
          "source": "KSJ2",
          "source_ref": "http://nlftp.mlit.go.jp/ksj/jpgis/datalist/KsjTmplt-P02-v2_0.html",
          "@geometry": "center"
        }
      }
    },
    {
      "type": "Feature",
      "geometry": {
        "type": "Point",
        "coordinates": [
          139.6770291,
          35.7635131
        ]
      },
      "properties": {
        "id": "way/609932448",
        "ward": "itabashi",
        "category": "police",
        "name": "",
        "tags": {
          "@id": "way/609932448",
          "amenity": "police",
          "building": "yes",
          "@geometry": "center"
        }
      }
    },
    {
      "type": "Feature",
      "geometry": {
        "type": "Point",
        "coordinates": [
          139.6815563,
          35.7843418
        ]
      },
      "properties": {
        "id": "way/668093092",
        "ward": "itabashi",
        "category": "fire_station",
        "name": "",
        "tags": {
          "@id": "way/668093092",
          "addr:housenumber": "3",
          "amenity": "fire_station",
          "building": "yes",
          "@geometry": "center"
        }
      }
    },
    {
      "type": "Feature",
      "geometry": {
        "type": "Point",
        "coordinates": [
          139.678659,
          35.777196
        ]
      },
      "properties": {
        "id": "node/1420780221",
        "ward": "itabashi",
        "category": "fire_station",
        "name": "志村消防署",
        "tags": {
          "@id": "node/1420780221",
          "KSJ2:PubFacAdmin": "市区町村",
          "addr:block_number": "17",
          "addr:city": "板橋区",
          "addr:housenumber": "1",
          "addr:neighbourhood": "相生町",
          "addr:province": "東京都",
          "amenity": "fire_station",
          "fax": "+81 3-5398-2555",
          "name": "志村消防署",
          "name:en": "Shimura Fire Station",
          "name:ja": "志村消防署",
          "note": "National-Land Numerical Information (Public Facility) 2006, MLIT Japan",
          "note:ja": "国土数値情報（公共施設データ）平成19年　国土交通省",
          "operator": "東京消防庁第十消防方面本部",
          "phone": "+81 3-5398-0119",
          "source": "KSJ2; (URL)",
          "source_ref": "http://nlftp.mlit.go.jp/ksj/jpgis/datalist/KsjTmplt-P02-v2_0.html",
          "website": "http://www.tfd.metro.tokyo.jp/hp-simura/index.html"
        }
      }
    },
    {
      "type": "Feature",
      "geometry": {
        "type": "Point",
        "coordinates": [
          139.6301727,
          35.7770768
        ]
      },
      "properties": {
        "id": "node/1420780229",
        "ward": "itabashi",
        "category": "fire_station",
        "name": "志村消防署成増出張所",
        "tags": {
          "@id": "node/1420780229",
          "KSJ2:PubFacAdmin": "市区町村",
          "addr:block_number": "30",
          "addr:city": "板橋区",
          "addr:housenumber": "12",
          "addr:neighbourhood": "成増一丁目",
          "addr:province": "東京都",
          "amenity": "fire_station",
          "name": "志村消防署成増出張所",
          "note": "National-Land Numerical Information (Public Facility) 2006, MLIT Japan",
          "note:ja": "国土数値情報（公共施設データ）平成19年　国土交通省",
          "source": "KSJ2",
          "source_ref": "http://nlftp.mlit.go.jp/ksj/jpgis/datalist/KsjTmplt-P02-v2_0.html"
        }
      }
    },
    {
      "type": "Feature",
      "geometry": {
        "type": "Point",
        "coordinates": [
          139.6815681,
          35.7843442
        ]
      },
      "properties": {
        "id": "node/1420780234",
        "ward": "itabashi",
        "category": "fire_station",
        "name": "志村消防署 蓮根出張所",
        "tags": {
          "@id": "node/1420780234",
          "amenity": "fire_station",
          "name": "志村消防署 蓮根出張所",
          "note": "National-Land Numerical Information (Public Facility) 2006, MLIT Japan",
          "note:ja": "国土数値情報（公共施設データ）平成19年　国土交通省",
          "source": "KSJ2",
          "source_ref": "http://nlftp.mlit.go.jp/ksj/jpgis/datalist/KsjTmplt-P02-v2_0.html"
        }
      }
    },
    {
      "type": "Feature",
      "geometry": {
        "type": "Point",
        "coordinates": [
          139.6402508,
          35.7769603
        ]
      },
      "properties": {
        "id": "node/1420780239",
        "ward": "itabashi",
        "category": "fire_station",
        "name": "志村消防署赤塚出張所",
        "tags": {
          "@id": "node/1420780239",
          "KSJ2:PubFacAdmin": "市区町村",
          "addr:block_number": "1",
          "addr:city": "板橋区",
          "addr:housenumber": "10",
          "addr:neighbourhood": "赤塚三丁目",
          "addr:province": "東京都",
          "amenity": "fire_station",
          "name": "志村消防署赤塚出張所",
          "note": "National-Land Numerical Information (Public Facility) 2006, MLIT Japan",
          "note:ja": "国土数値情報（公共施設データ）平成19年　国土交通省",
          "source": "KSJ2",
          "source_ref": "http://nlftp.mlit.go.jp/ksj/jpgis/datalist/KsjTmplt-P02-v2_0.html"
        }
      }
    },
    {
      "type": "Feature",
      "geometry": {
        "type": "Point",
        "coordinates": [
          139.6578912,
          35.7861931
        ]
      },
      "properties": {
        "id": "node/1420780244",
        "ward": "itabashi",
        "category": "fire_station",
        "name": "志村消防署 高島平出張所",
        "tags": {
          "@id": "node/1420780244",
          "amenity": "fire_station",
          "name": "志村消防署 高島平出張所",
          "note": "National-Land Numerical Information (Public Facility) 2006, MLIT Japan",
          "note:ja": "国土数値情報（公共施設データ）平成19年　国土交通省",
          "source": "KSJ2",
          "source_ref": "http://nlftp.mlit.go.jp/ksj/jpgis/datalist/KsjTmplt-P02-v2_0.html"
        }
      }
    },
    {
      "type": "Feature",
      "geometry": {
        "type": "Point",
        "coordinates": [
          139.6993228,
          35.7726921
        ]
      },
      "properties": {
        "id": "node/1420780249",
        "ward": "itabashi",
        "category": "police",
        "name": "志村警察署",
        "tags": {
          "@id": "node/1420780249",
          "amenity": "police",
          "name": "志村警察署",
          "name:en": "Shimura Police Station",
          "note": "National-Land Numerical Information (Public Facility) 2006, MLIT Japan",
          "note:ja": "国土数値情報（公共施設データ）平成19年　国土交通省",
          "source": "KSJ2",
          "source_ref": "http://nlftp.mlit.go.jp/ksj/jpgis/datalist/KsjTmplt-P02-v2_0.html",
          "wikidata": "Q11491032"
        }
      }
    },
    {
      "type": "Feature",
      "geometry": {
        "type": "Point",
        "coordinates": [
          139.677869,
          35.7745702
        ]
      },
      "properties": {
        "id": "node/1420780250",
        "ward": "itabashi",
        "category": "police",
        "name": "志村警察署 中台三丁目交番",
        "tags": {
          "@id": "node/1420780250",
          "amenity": "police",
          "name": "志村警察署 中台三丁目交番",
          "name:ja": "志村警察署 中台三丁目交番",
          "name:ja-Hira": "しむらけいさつしょ なかだいさんちょうめこうばん",
          "note": "National-Land Numerical Information (Public Facility) 2006, MLIT Japan",
          "note:ja": "国土数値情報（公共施設データ）平成19年 国土交通省",
          "source": "KSJ2",
          "source_ref": "http://nlftp.mlit.go.jp/ksj/jpgis/datalist/KsjTmplt-P02-v2_0.html"
        }
      }
    },
    {
      "type": "Feature",
      "geometry": {
        "type": "Point",
        "coordinates": [
          139.6764025,
          35.7687595
        ]
      },
      "properties": {
        "id": "node/1420780251",
        "ward": "itabashi",
        "category": "police",
        "name": "志村警察署 中台交番",
        "tags": {
          "@id": "node/1420780251",
          "amenity": "police",
          "name": "志村警察署 中台交番",
          "note": "National-Land Numerical Information (Public Facility) 2006, MLIT Japan",
          "note:ja": "国土数値情報（公共施設データ）平成19年　国土交通省",
          "source": "KSJ2",
          "source_ref": "http://nlftp.mlit.go.jp/ksj/jpgis/datalist/KsjTmplt-P02-v2_0.html"
        }
      }
    },
    {
      "type": "Feature",
      "geometry": {
        "type": "Point",
        "coordinates": [
          139.6951023,
          35.7662213
        ]
      },
      "properties": {
        "id": "node/1420780252",
        "ward": "itabashi",
        "category": "police",
        "name": "志村警察署 前野町交番",
        "tags": {
          "@id": "node/1420780252",
          "amenity": "police",
          "name": "志村警察署 前野町交番",
          "note": "National-Land Numerical Information (Public Facility) 2006, MLIT Japan",
          "note:ja": "国土数値情報（公共施設データ）平成19年　国土交通省",
          "source": "KSJ2",
          "source_ref": "http://nlftp.mlit.go.jp/ksj/jpgis/datalist/KsjTmplt-P02-v2_0.html"
        }
      }
    },
    {
      "type": "Feature",
      "geometry": {
        "type": "Point",
        "coordinates": [
          139.688936,
          35.771614
        ]
      },
      "properties": {
        "id": "node/1420780253",
        "ward": "itabashi",
        "category": "police",
        "name": "志村警察署北前野地域安全センター",
        "tags": {
          "@id": "node/1420780253",
          "amenity": "police",
          "name": "志村警察署北前野地域安全センター",
          "name:en": "Local Security Center",
          "note": "National-Land Numerical Information (Public Facility) 2006, MLIT Japan",
          "note:ja": "国土数値情報（公共施設データ）平成19年　国土交通省",
          "source": "KSJ2",
          "source_ref": "http://nlftp.mlit.go.jp/ksj/jpgis/datalist/KsjTmplt-P02-v2_0.html"
        }
      }
    },
    {
      "type": "Feature",
      "geometry": {
        "type": "Point",
        "coordinates": [
          139.694403,
          35.7765479
        ]
      },
      "properties": {
        "id": "node/1420780254",
        "ward": "itabashi",
        "category": "police",
        "name": "志村警察署坂上交番",
        "tags": {
          "@id": "node/1420780254",
          "amenity": "police",
          "name": "志村警察署坂上交番",
          "name:en": "Koban",
          "note": "National-Land Numerical Information (Public Facility) 2006, MLIT Japan",
          "note:ja": "国土数値情報（公共施設データ）平成19年　国土交通省",
          "source": "KSJ2",
          "source_ref": "http://nlftp.mlit.go.jp/ksj/jpgis/datalist/KsjTmplt-P02-v2_0.html"
        }
      }
    },
    {
      "type": "Feature",
      "geometry": {
        "type": "Point",
        "coordinates": [
          139.6847005,
          35.7878838
        ]
      },
      "properties": {
        "id": "node/1420780255",
        "ward": "itabashi",
        "category": "police",
        "name": "志村警察署 坂下交番",
        "tags": {
          "@id": "node/1420780255",
          "amenity": "police",
          "name": "志村警察署 坂下交番",
          "note": "National-Land Numerical Information (Public Facility) 2006, MLIT Japan",
          "note:ja": "国土数値情報（公共施設データ）平成19年　国土交通省",
          "source": "KSJ2",
          "source_ref": "http://nlftp.mlit.go.jp/ksj/jpgis/datalist/KsjTmplt-P02-v2_0.html"
        }
      }
    },
    {
      "type": "Feature",
      "geometry": {
        "type": "Point",
        "coordinates": [
          139.701685,
          35.774503
        ]
      },
      "properties": {
        "id": "node/1420780256",
        "ward": "itabashi",
        "category": "police",
        "name": "志村警察署小豆沢交番",
        "tags": {
          "@id": "node/1420780256",
          "amenity": "police",
          "name": "志村警察署小豆沢交番",
          "name:en": "Koban",
          "note": "National-Land Numerical Information (Public Facility) 2006, MLIT Japan",
          "note:ja": "国土数値情報（公共施設データ）平成19年　国土交通省",
          "source": "KSJ2",
          "source_ref": "http://nlftp.mlit.go.jp/ksj/jpgis/datalist/KsjTmplt-P02-v2_0.html"
        }
      }
    },
    {
      "type": "Feature",
      "geometry": {
        "type": "Point",
        "coordinates": [
          139.6855815,
          35.7962341
        ]
      },
      "properties": {
        "id": "node/1420780257",
        "ward": "itabashi",
        "category": "police",
        "name": "志村警察署戸田橋交番",
        "tags": {
          "@id": "node/1420780257",
          "amenity": "police",
          "name": "志村警察署戸田橋交番",
          "name:en": "Koban",
          "note": "National-Land Numerical Information (Public Facility) 2006, MLIT Japan",
          "note:ja": "国土数値情報（公共施設データ）平成19年　国土交通省",
          "source": "KSJ2",
          "source_ref": "http://nlftp.mlit.go.jp/ksj/jpgis/datalist/KsjTmplt-P02-v2_0.html"
        }
      }
    },
    {
      "type": "Feature",
      "geometry": {
        "type": "Point",
        "coordinates": [
          139.7040637,
          35.7659092
        ]
      },
      "properties": {
        "id": "node/1420780258",
        "ward": "itabashi",
        "category": "police",
        "name": "志村警察署 清水交番",
        "tags": {
          "@id": "node/1420780258",
          "amenity": "police",
          "name": "志村警察署 清水交番",
          "name:en": "Koban",
          "note": "National-Land Numerical Information (Public Facility) 2006, MLIT Japan",
          "note:ja": "国土数値情報（公共施設データ）平成19年　国土交通省",
          "source": "KSJ2",
          "source_ref": "http://nlftp.mlit.go.jp/ksj/jpgis/datalist/KsjTmplt-P02-v2_0.html"
        }
      }
    },
    {
      "type": "Feature",
      "geometry": {
        "type": "Point",
        "coordinates": [
          139.6763857,
          35.7803525
        ]
      },
      "properties": {
        "id": "node/1420780259",
        "ward": "itabashi",
        "category": "police",
        "name": "志村警察署 蓮根交番",
        "tags": {
          "@id": "node/1420780259",
          "amenity": "police",
          "name": "志村警察署 蓮根交番",
          "note": "National-Land Numerical Information (Public Facility) 2006, MLIT Japan",
          "note:ja": "国土数値情報（公共施設データ）平成19年　国土交通省",
          "source": "KSJ2",
          "source_ref": "http://nlftp.mlit.go.jp/ksj/jpgis/datalist/KsjTmplt-P02-v2_0.html"
        }
      }
    },
    {
      "type": "Feature",
      "geometry": {
        "type": "Point",
        "coordinates": [
          139.6704014,
          35.773857
        ]
      },
      "properties": {
        "id": "node/1420780260",
        "ward": "itabashi",
        "category": "police",
        "name": "志村警察署 西台交番",
        "tags": {
          "@id": "node/1420780260",
          "amenity": "police",
          "name": "志村警察署 西台交番",
          "note": "National-Land Numerical Information (Public Facility) 2006, MLIT Japan",
          "note:ja": "国土数値情報（公共施設データ）平成19年　国土交通省",
          "source": "KSJ2",
          "source_ref": "http://nlftp.mlit.go.jp/ksj/jpgis/datalist/KsjTmplt-P02-v2_0.html"
        }
      }
    },
    {
      "type": "Feature",
      "geometry": {
        "type": "Point",
        "coordinates": [
          139.711102,
          35.750145
        ]
      },
      "properties": {
        "id": "node/1420786143",
        "ward": "itabashi",
        "category": "fire_station",
        "name": "板橋消防署",
        "tags": {
          "@id": "node/1420786143",
          "addr:block_number": "60",
          "addr:city": "板橋区",
          "addr:housenumber": "15",
          "addr:neighbourhood": "板橋二丁目",
          "addr:province": "東京都",
          "amenity": "fire_station",
          "fax": "03-3964-0605",
          "name": "板橋消防署",
          "name:en": "Itabashi Fire Station",
          "name:ja": "板橋消防署",
          "note": "National-Land Numerical Information (Public Facility) 2006, MLIT Japan",
          "note:ja": "国土数値情報（公共施設データ）平成19年　国土交通省",
          "phone": "03-3964-0119",
          "source": "KSJ2; (URL)",
          "source_ref": "http://nlftp.mlit.go.jp/ksj/jpgis/datalist/KsjTmplt-P02-v2_0.html",
          "website": "http://www.tfd.metro.tokyo.jp/hp-itabasi/index.html"
        }
      }
    },
    {
      "type": "Feature",
      "geometry": {
        "type": "Point",
        "coordinates": [
          139.681898,
          35.749186
        ]
      },
      "properties": {
        "id": "node/1420786144",
        "ward": "itabashi",
        "category": "fire_station",
        "name": "板橋消防署小茂根出張所",
        "tags": {
          "@id": "node/1420786144",
          "amenity": "fire_station",
          "name": "板橋消防署小茂根出張所",
          "name:en": "Itabashi Fire Station Komone Branch",
          "note": "National-Land Numerical Information (Public Facility) 2006, MLIT Japan",
          "note:ja": "国土数値情報（公共施設データ）平成19年　国土交通省",
          "source": "KSJ2",
          "source_ref": "http://nlftp.mlit.go.jp/ksj/jpgis/datalist/KsjTmplt-P02-v2_0.html"
        }
      }
    },
    {
      "type": "Feature",
      "geometry": {
        "type": "Point",
        "coordinates": [
          139.686464,
          35.758671
        ]
      },
      "properties": {
        "id": "node/1420786145",
        "ward": "itabashi",
        "category": "fire_station",
        "name": "板橋消防署常盤台出張所",
        "tags": {
          "@id": "node/1420786145",
          "amenity": "fire_station",
          "check_date": "2024-08-17",
          "name": "板橋消防署常盤台出張所",
          "name:en": "Itabashi Fire Station Tokiwadai Branch",
          "note": "National-Land Numerical Information (Public Facility) 2006, MLIT Japan",
          "note:ja": "国土数値情報（公共施設データ）平成19年　国土交通省",
          "source": "KSJ2",
          "source_ref": "http://nlftp.mlit.go.jp/ksj/jpgis/datalist/KsjTmplt-P02-v2_0.html"
        }
      }
    },
    {
      "type": "Feature",
      "geometry": {
        "type": "Point",
        "coordinates": [
          139.710713,
          35.750395
        ]
      },
      "properties": {
        "id": "node/1420786154",
        "ward": "itabashi",
        "category": "police",
        "name": "板橋警察署",
        "tags": {
          "@id": "node/1420786154",
          "amenity": "police",
          "name": "板橋警察署",
          "name:en": "Itabashi Police Station",
          "note": "National-Land Numerical Information (Public Facility) 2006, MLIT Japan",
          "note:ja": "国土数値情報（公共施設データ）平成19年　国土交通省",
          "source": "KSJ2",
          "source_ref": "http://nlftp.mlit.go.jp/ksj/jpgis/datalist/KsjTmplt-P02-v2_0.html",
          "wikidata": "Q11532682"
        }
      }
    },
    {
      "type": "Feature",
      "geometry": {
        "type": "Point",
        "coordinates": [
          139.695797,
          35.755783
        ]
      },
      "properties": {
        "id": "node/1420786156",
        "ward": "itabashi",
        "category": "police",
        "name": "板橋警察署中板橋交番",
        "tags": {
          "@id": "node/1420786156",
          "addr:block_number": "33",
          "addr:city": "板橋区",
          "addr:housenumber": "2",
          "addr:neighbourhood": "弥生町",
          "addr:province": "東京都",
          "amenity": "police",
          "name": "板橋警察署中板橋交番",
          "note": "National-Land Numerical Information (Public Facility) 2006, MLIT Japan",
          "note:ja": "国土数値情報（公共施設データ）平成19年　国土交通省",
          "operator": "警視庁",
          "source": "KSJ2",
          "source_ref": "http://nlftp.mlit.go.jp/ksj/jpgis/datalist/KsjTmplt-P02-v2_0.html"
        }
      }
    },
    {
      "type": "Feature",
      "geometry": {
        "type": "Point",
        "coordinates": [
          139.7161486,
          35.7532628
        ]
      },
      "properties": {
        "id": "node/1420786157",
        "ward": "itabashi",
        "category": "police",
        "name": "板橋警察署 加賀交番",
        "tags": {
          "@id": "node/1420786157",
          "amenity": "police",
          "name": "板橋警察署 加賀交番",
          "name:en": "Koban",
          "note": "National-Land Numerical Information (Public Facility) 2006, MLIT Japan",
          "note:ja": "国土数値情報（公共施設データ）平成19年　国土交通省",
          "source": "KSJ2",
          "source_ref": "http://nlftp.mlit.go.jp/ksj/jpgis/datalist/KsjTmplt-P02-v2_0.html"
        }
      }
    },
    {
      "type": "Feature",
      "geometry": {
        "type": "Point",
        "coordinates": [
          139.6854124,
          35.7403809
        ]
      },
      "properties": {
        "id": "node/1420786158",
        "ward": "itabashi",
        "category": "police",
        "name": "板橋警察署 向原地域安全センター",
        "tags": {
          "@id": "node/1420786158",
          "amenity": "police",
          "name": "板橋警察署 向原地域安全センター",
          "name:en": "Koban",
          "note": "National-Land Numerical Information (Public Facility) 2006, MLIT Japan",
          "note:ja": "国土数値情報（公共施設データ）平成19年　国土交通省",
          "source": "KSJ2",
          "source_ref": "http://nlftp.mlit.go.jp/ksj/jpgis/datalist/KsjTmplt-P02-v2_0.html"
        }
      }
    },
    {
      "type": "Feature",
      "geometry": {
        "type": "Point",
        "coordinates": [
          139.6971807,
          35.7485412
        ]
      },
      "properties": {
        "id": "node/1420786159",
        "ward": "itabashi",
        "category": "police",
        "name": "板橋警察署大山町交番",
        "tags": {
          "@id": "node/1420786159",
          "amenity": "police",
          "name": "板橋警察署大山町交番",
          "note": "National-Land Numerical Information (Public Facility) 2006, MLIT Japan",
          "note:ja": "国土数値情報（公共施設データ）平成19年　国土交通省",
          "source": "KSJ2",
          "source_ref": "http://nlftp.mlit.go.jp/ksj/jpgis/datalist/KsjTmplt-P02-v2_0.html"
        }
      }
    },
    {
      "type": "Feature",
      "geometry": {
        "type": "Point",
        "coordinates": [
          139.6911159,
          35.7461162
        ]
      },
      "properties": {
        "id": "node/1420786160",
        "ward": "itabashi",
        "category": "police",
        "name": "板橋警察署 大谷口交番",
        "tags": {
          "@id": "node/1420786160",
          "amenity": "police",
          "name": "板橋警察署 大谷口交番",
          "note": "National-Land Numerical Information (Public Facility) 2006, MLIT Japan",
          "note:ja": "国土数値情報（公共施設データ）平成19年　国土交通省",
          "source": "KSJ2",
          "source_ref": "http://nlftp.mlit.go.jp/ksj/jpgis/datalist/KsjTmplt-P02-v2_0.html"
        }
      }
    },
    {
      "type": "Feature",
      "geometry": {
        "type": "Point",
        "coordinates": [
          139.6971563,
          35.7597925
        ]
      },
      "properties": {
        "id": "node/1420786161",
        "ward": "itabashi",
        "category": "police",
        "name": "板橋警察署 富士見交番",
        "tags": {
          "@id": "node/1420786161",
          "amenity": "police",
          "name": "板橋警察署 富士見交番",
          "name:en": "Fujimi Koban",
          "note": "National-Land Numerical Information (Public Facility) 2006, MLIT Japan",
          "note:ja": "国土数値情報（公共施設データ）平成19年　国土交通省",
          "source": "KSJ2",
          "source_ref": "http://nlftp.mlit.go.jp/ksj/jpgis/datalist/KsjTmplt-P02-v2_0.html"
        }
      }
    },
    {
      "type": "Feature",
      "geometry": {
        "type": "Point",
        "coordinates": [
          139.6900187,
          35.7585929
        ]
      },
      "properties": {
        "id": "node/1420786162",
        "ward": "itabashi",
        "category": "police",
        "name": "板橋警察署常盤台交番",
        "tags": {
          "@id": "node/1420786162",
          "amenity": "police",
          "name": "板橋警察署常盤台交番",
          "name:en": "Koban",
          "note": "National-Land Numerical Information (Public Facility) 2006, MLIT Japan",
          "note:ja": "国土数値情報（公共施設データ）平成19年　国土交通省",
          "source": "KSJ2",
          "source_ref": "http://nlftp.mlit.go.jp/ksj/jpgis/datalist/KsjTmplt-P02-v2_0.html"
        }
      }
    },
    {
      "type": "Feature",
      "geometry": {
        "type": "Point",
        "coordinates": [
          139.7155152,
          35.74906
        ]
      },
      "properties": {
        "id": "node/1420786163",
        "ward": "itabashi",
        "category": "police",
        "name": "板橋警察署 平尾交番",
        "tags": {
          "@id": "node/1420786163",
          "amenity": "police",
          "name": "板橋警察署 平尾交番",
          "note": "National-Land Numerical Information (Public Facility) 2006, MLIT Japan",
          "note:ja": "国土数値情報（公共施設データ）平成19年　国土交通省",
          "source": "KSJ2",
          "source_ref": "http://nlftp.mlit.go.jp/ksj/jpgis/datalist/KsjTmplt-P02-v2_0.html"
        }
      }
    },
    {
      "type": "Feature",
      "geometry": {
        "type": "Point",
        "coordinates": [
          139.6876379,
          35.7552757
        ]
      },
      "properties": {
        "id": "node/1420786164",
        "ward": "itabashi",
        "category": "police",
        "name": "板橋警察署 東山町交番",
        "tags": {
          "@id": "node/1420786164",
          "amenity": "police",
          "name": "板橋警察署 東山町交番",
          "name:en": "Koban",
          "name:ja": "板橋警察署東山町交番",
          "note": "National-Land Numerical Information (Public Facility) 2006, MLIT Japan",
          "note:ja": "国土数値情報（公共施設データ）平成19年　国土交通省",
          "source": "KSJ2",
          "source_ref": "http://nlftp.mlit.go.jp/ksj/jpgis/datalist/KsjTmplt-P02-v2_0.html"
        }
      }
    },
    {
      "type": "Feature",
      "geometry": {
        "type": "Point",
        "coordinates": [
          139.7077697,
          35.7592239
        ]
      },
      "properties": {
        "id": "node/1420786165",
        "ward": "itabashi",
        "category": "police",
        "name": "板橋警察署 板橋本町交番",
        "tags": {
          "@id": "node/1420786165",
          "amenity": "police",
          "name": "板橋警察署 板橋本町交番",
          "name:en": "Koban",
          "note": "National-Land Numerical Information (Public Facility) 2006, MLIT Japan",
          "note:ja": "国土数値情報（公共施設データ）平成19年　国土交通省",
          "source": "KSJ2",
          "source_ref": "http://nlftp.mlit.go.jp/ksj/jpgis/datalist/KsjTmplt-P02-v2_0.html"
        }
      }
    },
    {
      "type": "Feature",
      "geometry": {
        "type": "Point",
        "coordinates": [
          139.676243,
          35.757504
        ]
      },
      "properties": {
        "id": "node/1420786166",
        "ward": "itabashi",
        "category": "police",
        "name": "板橋警察署桜川三丁目駐在所",
        "tags": {
          "@id": "node/1420786166",
          "addr:block_number": "3",
          "addr:city": "板橋区",
          "addr:housenumber": "7",
          "addr:neighbourhood": "桜川三丁目",
          "addr:province": "東京都",
          "amenity": "police",
          "name": "板橋警察署桜川三丁目駐在所",
          "note": "National-Land Numerical Information (Public Facility) 2006, MLIT Japan",
          "note:ja": "国土数値情報（公共施設データ）平成19年　国土交通省",
          "operator": "警視庁",
          "source": "KSJ2",
          "source_ref": "http://nlftp.mlit.go.jp/ksj/jpgis/datalist/KsjTmplt-P02-v2_0.html"
        }
      }
    },
    {
      "type": "Feature",
      "geometry": {
        "type": "Point",
        "coordinates": [
          139.6775504,
          35.7477053
        ]
      },
      "properties": {
        "id": "node/1420786168",
        "ward": "itabashi",
        "category": "police",
        "name": "板橋警察署 茂呂交番",
        "tags": {
          "@id": "node/1420786168",
          "amenity": "police",
          "name": "板橋警察署 茂呂交番",
          "name:en": "Koban",
          "note": "National-Land Numerical Information (Public Facility) 2006, MLIT Japan",
          "note:ja": "国土数値情報（公共施設データ）平成19年　国土交通省",
          "source": "KSJ2",
          "source_ref": "http://nlftp.mlit.go.jp/ksj/jpgis/datalist/KsjTmplt-P02-v2_0.html"
        }
      }
    },
    {
      "type": "Feature",
      "geometry": {
        "type": "Point",
        "coordinates": [
          139.7017064,
          35.7498544
        ]
      },
      "properties": {
        "id": "node/1420786169",
        "ward": "itabashi",
        "category": "police",
        "name": "板橋警察署 養育院前交番",
        "tags": {
          "@id": "node/1420786169",
          "amenity": "police",
          "name": "板橋警察署 養育院前交番",
          "name:en": "Koban",
          "note": "National-Land Numerical Information (Public Facility) 2006, MLIT Japan",
          "note:ja": "国土数値情報（公共施設データ）平成19年　国土交通省",
          "source": "KSJ2",
          "source_ref": "http://nlftp.mlit.go.jp/ksj/jpgis/datalist/KsjTmplt-P02-v2_0.html"
        }
      }
    },
    {
      "type": "Feature",
      "geometry": {
        "type": "Point",
        "coordinates": [
          139.6587912,
          35.7865804
        ]
      },
      "properties": {
        "id": "node/1420800394",
        "ward": "itabashi",
        "category": "police",
        "name": "高島平警察署",
        "tags": {
          "@id": "node/1420800394",
          "amenity": "police",
          "name": "高島平警察署",
          "note": "National-Land Numerical Information (Public Facility) 2006, MLIT Japan",
          "note:ja": "国土数値情報（公共施設データ）平成19年　国土交通省",
          "source": "KSJ2",
          "source_ref": "http://nlftp.mlit.go.jp/ksj/jpgis/datalist/KsjTmplt-P02-v2_0.html",
          "wikidata": "Q11669641"
        }
      }
    },
    {
      "type": "Feature",
      "geometry": {
        "type": "Point",
        "coordinates": [
          139.637888,
          35.7819196
        ]
      },
      "properties": {
        "id": "node/1420800395",
        "ward": "itabashi",
        "category": "police",
        "name": "高島平警察署 上赤塚交番",
        "tags": {
          "@id": "node/1420800395",
          "amenity": "police",
          "name": "高島平警察署 上赤塚交番",
          "note": "National-Land Numerical Information (Public Facility) 2006, MLIT Japan",
          "note:ja": "国土数値情報（公共施設データ）平成19年　国土交通省",
          "source": "KSJ2",
          "source_ref": "http://nlftp.mlit.go.jp/ksj/jpgis/datalist/KsjTmplt-P02-v2_0.html"
        }
      }
    },
    {
      "type": "Feature",
      "geometry": {
        "type": "Point",
        "coordinates": [
          139.6456964,
          35.7706482
        ]
      },
      "properties": {
        "id": "node/1420800396",
        "ward": "itabashi",
        "category": "police",
        "name": "高島平警察署 下赤塚交番",
        "tags": {
          "@id": "node/1420800396",
          "amenity": "police",
          "name": "高島平警察署 下赤塚交番",
          "note": "National-Land Numerical Information (Public Facility) 2006, MLIT Japan",
          "note:ja": "国土数値情報（公共施設データ）平成19年　国土交通省",
          "source": "KSJ2",
          "source_ref": "http://nlftp.mlit.go.jp/ksj/jpgis/datalist/KsjTmplt-P02-v2_0.html"
        }
      }
    },
    {
      "type": "Feature",
      "geometry": {
        "type": "Point",
        "coordinates": [
          139.6617344,
          35.7690973
        ]
      },
      "properties": {
        "id": "node/1420800397",
        "ward": "itabashi",
        "category": "police",
        "name": "高島平警察署 北野交番",
        "tags": {
          "@id": "node/1420800397",
          "amenity": "police",
          "name": "高島平警察署 北野交番",
          "note": "National-Land Numerical Information (Public Facility) 2006, MLIT Japan",
          "note:ja": "国土数値情報（公共施設データ）平成19年　国土交通省",
          "source": "KSJ2",
          "source_ref": "http://nlftp.mlit.go.jp/ksj/jpgis/datalist/KsjTmplt-P02-v2_0.html"
        }
      }
    },
    {
      "type": "Feature",
      "geometry": {
        "type": "Point",
        "coordinates": [
          139.6325992,
          35.7770465
        ]
      },
      "properties": {
        "id": "node/1420800399",
        "ward": "itabashi",
        "category": "police",
        "name": "高島平警察署 成増駅前交番",
        "tags": {
          "@id": "node/1420800399",
          "amenity": "police",
          "name": "高島平警察署 成増駅前交番",
          "note": "National-Land Numerical Information (Public Facility) 2006, MLIT Japan",
          "note:ja": "国土数値情報（公共施設データ）平成19年　国土交通省",
          "source": "KSJ2",
          "source_ref": "http://nlftp.mlit.go.jp/ksj/jpgis/datalist/KsjTmplt-P02-v2_0.html"
        }
      }
    },
    {
      "type": "Feature",
      "geometry": {
        "type": "Point",
        "coordinates": [
          139.663917,
          35.7950655
        ]
      },
      "properties": {
        "id": "node/1420800400",
        "ward": "itabashi",
        "category": "police",
        "name": "高島平警察署 新河岸交番",
        "tags": {
          "@id": "node/1420800400",
          "amenity": "police",
          "name": "高島平警察署 新河岸交番",
          "note": "National-Land Numerical Information (Public Facility) 2006, MLIT Japan",
          "note:ja": "国土数値情報（公共施設データ）平成19年　国土交通省",
          "source": "KSJ2",
          "source_ref": "http://nlftp.mlit.go.jp/ksj/jpgis/datalist/KsjTmplt-P02-v2_0.html"
        }
      }
    },
    {
      "type": "Feature",
      "geometry": {
        "type": "Point",
        "coordinates": [
          139.6442322,
          35.7924281
        ]
      },
      "properties": {
        "id": "node/1420800402",
        "ward": "itabashi",
        "category": "police",
        "name": "高島平警察署 笹目橋交番",
        "tags": {
          "@id": "node/1420800402",
          "amenity": "police",
          "name": "高島平警察署 笹目橋交番",
          "name:en": "Koban",
          "note": "National-Land Numerical Information (Public Facility) 2006, MLIT Japan",
          "note:ja": "国土数値情報（公共施設データ）平成19年　国土交通省",
          "source": "KSJ2",
          "source_ref": "http://nlftp.mlit.go.jp/ksj/jpgis/datalist/KsjTmplt-P02-v2_0.html"
        }
      }
    },
    {
      "type": "Feature",
      "geometry": {
        "type": "Point",
        "coordinates": [
          139.6740596,
          35.7866226
        ]
      },
      "properties": {
        "id": "node/1420800403",
        "ward": "itabashi",
        "category": "police",
        "name": "高島平警察署 西台駅前交番",
        "tags": {
          "@id": "node/1420800403",
          "amenity": "police",
          "name": "高島平警察署 西台駅前交番",
          "note": "National-Land Numerical Information (Public Facility) 2006, MLIT Japan",
          "note:ja": "国土数値情報（公共施設データ）平成19年　国土交通省",
          "source": "KSJ2",
          "source_ref": "http://nlftp.mlit.go.jp/ksj/jpgis/datalist/KsjTmplt-P02-v2_0.html"
        }
      }
    },
    {
      "type": "Feature",
      "geometry": {
        "type": "Point",
        "coordinates": [
          139.6347336,
          35.775029
        ]
      },
      "properties": {
        "id": "node/1420800404",
        "ward": "itabashi",
        "category": "police",
        "name": "高島平警察署 赤塚交番",
        "tags": {
          "@id": "node/1420800404",
          "amenity": "police",
          "name": "高島平警察署 赤塚交番",
          "name:en": "Koban",
          "note": "National-Land Numerical Information (Public Facility) 2006, MLIT Japan",
          "note:ja": "国土数値情報（公共施設データ）平成19年　国土交通省",
          "source": "KSJ2",
          "source_ref": "http://nlftp.mlit.go.jp/ksj/jpgis/datalist/KsjTmplt-P02-v2_0.html"
        }
      }
    },
    {
      "type": "Feature",
      "geometry": {
        "type": "Point",
        "coordinates": [
          139.660177,
          35.7884192
        ]
      },
      "properties": {
        "id": "node/1420800405",
        "ward": "itabashi",
        "category": "police",
        "name": "高島平警察署 高島平駅前交番",
        "tags": {
          "@id": "node/1420800405",
          "amenity": "police",
          "name": "高島平警察署 高島平駅前交番",
          "note": "National-Land Numerical Information (Public Facility) 2006, MLIT Japan",
          "note:ja": "国土数値情報（公共施設データ）平成19年　国土交通省",
          "source": "KSJ2",
          "source_ref": "http://nlftp.mlit.go.jp/ksj/jpgis/datalist/KsjTmplt-P02-v2_0.html"
        }
      }
    },
    {
      "type": "Feature",
      "geometry": {
        "type": "Point",
        "coordinates": [
          139.6593888,
          35.7795504
        ]
      },
      "properties": {
        "id": "node/2466743448",
        "ward": "itabashi",
        "category": "police",
        "name": "高島平警察署 徳丸駐在所",
        "tags": {
          "@id": "node/2466743448",
          "amenity": "police",
          "name": "高島平警察署 徳丸駐在所"
        }
      }
    },
    {
      "type": "Feature",
      "geometry": {
        "type": "Point",
        "coordinates": [
          139.6475363,
          35.7800981
        ]
      },
      "properties": {
        "id": "node/2466743449",
        "ward": "itabashi",
        "category": "police",
        "name": "高島平警察署 松月院前交番",
        "tags": {
          "@id": "node/2466743449",
          "amenity": "police",
          "name": "高島平警察署 松月院前交番"
        }
      }
    },
    {
      "type": "Feature",
      "geometry": {
        "type": "Point",
        "coordinates": [
          139.6859944,
          35.7720313
        ]
      },
      "properties": {
        "id": "node/6181579846",
        "ward": "itabashi",
        "category": "aed",
        "name": "",
        "tags": {
          "@id": "node/6181579846",
          "emergency": "defibrillator"
        }
      }
    },
    {
      "type": "Feature",
      "geometry": {
        "type": "Point",
        "coordinates": [
          139.6897623,
          35.7586619
        ]
      },
      "properties": {
        "id": "node/12116504543",
        "ward": "itabashi",
        "category": "aed",
        "name": "",
        "tags": {
          "@id": "node/12116504543",
          "access": "permissive",
          "emergency": "defibrillator",
          "indoor": "yes"
        }
      }
    },
    {
      "type": "Feature",
      "geometry": {
        "type": "Point",
        "coordinates": [
          139.6854033,
          35.7403666
        ]
      },
      "properties": {
        "id": "node/12778805832",
        "ward": "itabashi",
        "category": "aed",
        "name": "",
        "tags": {
          "@id": "node/12778805832",
          "emergency": "defibrillator",
          "indoor": "yes"
        }
      }
    },
    {
      "type": "Feature",
      "geometry": {
        "type": "Point",
        "coordinates": [
          139.6334819,
          35.7782388
        ]
      },
      "properties": {
        "id": "node/13174787825",
        "ward": "itabashi",
        "category": "aed",
        "name": "",
        "tags": {
          "@id": "node/13174787825",
          "access": "yes",
          "emergency": "defibrillator",
          "indoor": "no"
        }
      }
    },
    {
      "type": "Feature",
      "geometry": {
        "type": "Point",
        "coordinates": [
          139.6452238,
          35.7920481
        ]
      },
      "properties": {
        "id": "node/13321817060",
        "ward": "itabashi",
        "category": "aed",
        "name": "",
        "tags": {
          "@id": "node/13321817060",
          "emergency": "defibrillator",
          "indoor": "yes"
        }
      }
    },
    {
      "type": "Feature",
      "geometry": {
        "type": "Point",
        "coordinates": [
          139.6452238,
          35.7920481
        ]
      },
      "properties": {
        "id": "node/13325623024",
        "ward": "itabashi",
        "category": "aed",
        "name": "",
        "tags": {
          "@id": "node/13325623024",
          "emergency": "defibrillator",
          "indoor": "yes"
        }
      }
    }
  ]
}