{
  "type": "FeatureCollection",
  "features": [
    {
      "type": "Feature",
      "geometry": {
        "type": "Point",
        "coordinates": [
          139.8622399,
          35.762329
        ]
      },
      "properties": {
        "id": "way/149336656",
        "ward": "katsushika",
        "category": "police",
        "name": "亀有警察署",
        "tags": {
          "@id": "way/149336656",
          "amenity": "police",
          "name": "亀有警察署",
          "name:en": "Kameari Police Station",
          "note": "National-Land Numerical Information (Public Facility) 2006, MLIT Japan",
          "note:ja": "国土数値情報（公共施設データ）平成19年　国土交通省",
          "source": "KSJ2",
          "source_ref": "http://nlftp.mlit.go.jp/ksj/jpgis/datalist/KsjTmplt-P02-v2_0.html",
          "wikidata": "Q11370962",
          "@geometry": "center"
        }
      }
    },
    {
      "type": "Feature",
      "geometry": {
        "type": "Point",
        "coordinates": [
          139.8266272,
          35.7470393
        ]
      },
      "properties": {
        "id": "way/222484435",
        "ward": "katsushika",
        "category": "police",
        "name": "堀切駅前交番",
        "tags": {
          "@id": "way/222484435",
          "amenity": "police",
          "building": "yes",
          "name": "堀切駅前交番",
          "@geometry": "center"
        }
      }
    },
    {
      "type": "Feature",
      "geometry": {
        "type": "Point",
        "coordinates": [
          139.8586486,
          35.7165962
        ]
      },
      "properties": {
        "id": "way/233636145",
        "ward": "katsushika",
        "category": "police",
        "name": "葛飾警察署新小岩駅前交番",
        "tags": {
          "@id": "way/233636145",
          "amenity": "police",
          "building": "yes",
          "name": "葛飾警察署新小岩駅前交番",
          "note": "National-Land Numerical Information (Public Facility) 2006, MLIT Japan",
          "note:ja": "国土数値情報（公共施設データ）平成19年　国土交通省",
          "source": "KSJ2",
          "source_ref": "http://nlftp.mlit.go.jp/ksj/jpgis/datalist/KsjTmplt-P02-v2_0.html",
          "@geometry": "center"
        }
      }
    },
    {
      "type": "Feature",
      "geometry": {
        "type": "Point",
        "coordinates": [
          139.8612241,
          35.7415908
        ]
      },
      "properties": {
        "id": "way/758369176",
        "ward": "katsushika",
        "category": "fire_station",
        "name": "東京消防庁第七消防方面訓練場",
        "tags": {
          "@id": "way/758369176",
          "amenity": "fire_station",
          "name": "東京消防庁第七消防方面訓練場",
          "@geometry": "center"
        }
      }
    },
    {
      "type": "Feature",
      "geometry": {
        "type": "Point",
        "coordinates": [
          139.8396322,
          35.7503731
        ]
      },
      "properties": {
        "id": "node/1420766578",
        "ward": "katsushika",
        "category": "police",
        "name": "亀有警察署 お花茶屋交番",
        "tags": {
          "@id": "node/1420766578",
          "amenity": "police",
          "name": "亀有警察署 お花茶屋交番",
          "name:en": "Koban",
          "note": "National-Land Numerical Information (Public Facility) 2006, MLIT Japan",
          "note:ja": "国土数値情報（公共施設データ）平成19年　国土交通省",
          "source": "KSJ2",
          "source_ref": "http://nlftp.mlit.go.jp/ksj/jpgis/datalist/KsjTmplt-P02-v2_0.html"
        }
      }
    },
    {
      "type": "Feature",
      "geometry": {
        "type": "Point",
        "coordinates": [
          139.8480476,
          35.7670846
        ]
      },
      "properties": {
        "id": "node/1420766579",
        "ward": "katsushika",
        "category": "police",
        "name": "亀有警察署 亀有駅北口交番",
        "tags": {
          "@id": "node/1420766579",
          "amenity": "police",
          "name": "亀有警察署 亀有駅北口交番",
          "name:en": "Koban",
          "note": "National-Land Numerical Information (Public Facility) 2006, MLIT Japan",
          "note:ja": "国土数値情報（公共施設データ）平成19年　国土交通省",
          "source": "KSJ2",
          "source_ref": "http://nlftp.mlit.go.jp/ksj/jpgis/datalist/KsjTmplt-P02-v2_0.html"
        }
      }
    },
    {
      "type": "Feature",
      "geometry": {
        "type": "Point",
        "coordinates": [
          139.8474092,
          35.7662206
        ]
      },
      "properties": {
        "id": "node/1420766580",
        "ward": "katsushika",
        "category": "police",
        "name": "亀有警察署 亀有駅南口交番",
        "tags": {
          "@id": "node/1420766580",
          "amenity": "police",
          "name": "亀有警察署 亀有駅南口交番",
          "name:en": "Koban",
          "note": "National-Land Numerical Information (Public Facility) 2006, MLIT Japan",
          "note:ja": "国土数値情報（公共施設データ）平成19年　国土交通省",
          "source": "KSJ2",
          "source_ref": "http://nlftp.mlit.go.jp/ksj/jpgis/datalist/KsjTmplt-P02-v2_0.html"
        }
      }
    },
    {
      "type": "Feature",
      "geometry": {
        "type": "Point",
        "coordinates": [
          139.8612746,
          35.7552073
        ]
      },
      "properties": {
        "id": "node/1420766581",
        "ward": "katsushika",
        "category": "police",
        "name": "亀有警察署 亀田橋駐在所",
        "tags": {
          "@id": "node/1420766581",
          "amenity": "police",
          "name": "亀有警察署 亀田橋駐在所",
          "note": "National-Land Numerical Information (Public Facility) 2006, MLIT Japan",
          "note:ja": "国土数値情報（公共施設データ）平成19年　国土交通省",
          "source": "KSJ2",
          "source_ref": "http://nlftp.mlit.go.jp/ksj/jpgis/datalist/KsjTmplt-P02-v2_0.html"
        }
      }
    },
    {
      "type": "Feature",
      "geometry": {
        "type": "Point",
        "coordinates": [
          139.8438839,
          35.7569687
        ]
      },
      "properties": {
        "id": "node/1420766582",
        "ward": "katsushika",
        "category": "police",
        "name": "亀有警察署十三橋交番",
        "tags": {
          "@id": "node/1420766582",
          "amenity": "police",
          "name": "亀有警察署十三橋交番",
          "note": "National-Land Numerical Information (Public Facility) 2006, MLIT Japan",
          "note:ja": "国土数値情報（公共施設データ）平成19年　国土交通省",
          "source": "KSJ2",
          "source_ref": "http://nlftp.mlit.go.jp/ksj/jpgis/datalist/KsjTmplt-P02-v2_0.html"
        }
      }
    },
    {
      "type": "Feature",
      "geometry": {
        "type": "Point",
        "coordinates": [
          139.866337,
          35.776117
        ]
      },
      "properties": {
        "id": "node/1420766583",
        "ward": "katsushika",
        "category": "police",
        "name": "亀有警察署南水元交番",
        "tags": {
          "@id": "node/1420766583",
          "KSJ2:ADS": "南水元3-6-2",
          "KSJ2:AdminArea": "東京都葛飾区",
          "KSJ2:PubFacAdmin": "都道府県",
          "amenity": "police",
          "name": "亀有警察署南水元交番",
          "note": "National-Land Numerical Information (Public Facility) 2006, MLIT Japan",
          "note:ja": "国土数値情報（公共施設データ）平成19年　国土交通省",
          "source": "KSJ2",
          "source_ref": "http://nlftp.mlit.go.jp/ksj/jpgis/datalist/KsjTmplt-P02-v2_0.html"
        }
      }
    },
    {
      "type": "Feature",
      "geometry": {
        "type": "Point",
        "coordinates": [
          139.8302148,
          35.7539411
        ]
      },
      "properties": {
        "id": "node/1420766584",
        "ward": "katsushika",
        "category": "police",
        "name": "亀有警察署 堀切七丁目交番",
        "tags": {
          "@id": "node/1420766584",
          "amenity": "police",
          "name": "亀有警察署 堀切七丁目交番",
          "name:en": "Koban",
          "note": "National-Land Numerical Information (Public Facility) 2006, MLIT Japan",
          "note:ja": "国土数値情報（公共施設データ）平成19年　国土交通省",
          "source": "KSJ2",
          "source_ref": "http://nlftp.mlit.go.jp/ksj/jpgis/datalist/KsjTmplt-P02-v2_0.html"
        }
      }
    },
    {
      "type": "Feature",
      "geometry": {
        "type": "Point",
        "coordinates": [
          139.8232923,
          35.7553736
        ]
      },
      "properties": {
        "id": "node/1420766585",
        "ward": "katsushika",
        "category": "police",
        "name": "亀有警察署 小菅交番",
        "tags": {
          "@id": "node/1420766585",
          "amenity": "police",
          "name": "亀有警察署 小菅交番",
          "name:en": "Koban",
          "note": "National-Land Numerical Information (Public Facility) 2006, MLIT Japan",
          "note:ja": "国土数値情報（公共施設データ）平成19年　国土交通省",
          "source": "bing,survey Apr-May 2013",
          "source_ref": "http://nlftp.mlit.go.jp/ksj/jpgis/datalist/KsjTmplt-P02-v2_0.html"
        }
      }
    },
    {
      "type": "Feature",
      "geometry": {
        "type": "Point",
        "coordinates": [
          139.8796678,
          35.7765696
        ]
      },
      "properties": {
        "id": "node/1420766586",
        "ward": "katsushika",
        "category": "police",
        "name": "亀有警察署東金町交番",
        "tags": {
          "@id": "node/1420766586",
          "KSJ2:ADS": "東金町7-5-5",
          "KSJ2:AdminArea": "東京都葛飾区",
          "KSJ2:PubFacAdmin": "都道府県",
          "amenity": "police",
          "name": "亀有警察署東金町交番",
          "note": "National-Land Numerical Information (Public Facility) 2006, MLIT Japan",
          "note:ja": "国土数値情報（公共施設データ）平成19年　国土交通省",
          "source": "KSJ2",
          "source_ref": "http://nlftp.mlit.go.jp/ksj/jpgis/datalist/KsjTmplt-P02-v2_0.html"
        }
      }
    },
    {
      "type": "Feature",
      "geometry": {
        "type": "Point",
        "coordinates": [
          139.8705079,
          35.7584161
        ]
      },
      "properties": {
        "id": "node/1420766588",
        "ward": "katsushika",
        "category": "police",
        "name": "亀有警察署 柴又二丁目交番",
        "tags": {
          "@id": "node/1420766588",
          "amenity": "police",
          "name": "亀有警察署 柴又二丁目交番",
          "name:en": "Koban",
          "note": "National-Land Numerical Information (Public Facility) 2006, MLIT Japan",
          "note:ja": "国土数値情報（公共施設データ）平成19年　国土交通省",
          "source": "KSJ2",
          "source_ref": "http://nlftp.mlit.go.jp/ksj/jpgis/datalist/KsjTmplt-P02-v2_0.html"
        }
      }
    },
    {
      "type": "Feature",
      "geometry": {
        "type": "Point",
        "coordinates": [
          139.8769165,
          35.7562071
        ]
      },
      "properties": {
        "id": "node/1420766589",
        "ward": "katsushika",
        "category": "police",
        "name": "亀有警察署柴又交番",
        "tags": {
          "@id": "node/1420766589",
          "amenity": "police",
          "name": "亀有警察署柴又交番",
          "name:en": "Koban",
          "note": "National-Land Numerical Information (Public Facility) 2006, MLIT Japan",
          "note:ja": "国土数値情報（公共施設データ）平成19年　国土交通省",
          "source": "KSJ2",
          "source_ref": "http://nlftp.mlit.go.jp/ksj/jpgis/datalist/KsjTmplt-P02-v2_0.html"
        }
      }
    },
    {
      "type": "Feature",
      "geometry": {
        "type": "Point",
        "coordinates": [
          139.866921,
          35.781005
        ]
      },
      "properties": {
        "id": "node/1420766590",
        "ward": "katsushika",
        "category": "police",
        "name": "亀有警察署水元公園前交番",
        "tags": {
          "@id": "node/1420766590",
          "KSJ2:ADS": "東水元3-1-3",
          "KSJ2:AdminArea": "東京都葛飾区",
          "KSJ2:PubFacAdmin": "都道府県",
          "amenity": "police",
          "name": "亀有警察署水元公園前交番",
          "note": "National-Land Numerical Information (Public Facility) 2006, MLIT Japan",
          "note:ja": "国土数値情報（公共施設データ）平成19年　国土交通省",
          "source": "KSJ2",
          "source_ref": "http://nlftp.mlit.go.jp/ksj/jpgis/datalist/KsjTmplt-P02-v2_0.html"
        }
      }
    },
    {
      "type": "Feature",
      "geometry": {
        "type": "Point",
        "coordinates": [
          139.8529282,
          35.7808322
        ]
      },
      "properties": {
        "id": "node/1420766591",
        "ward": "katsushika",
        "category": "police",
        "name": "亀有警察署水元駐在所",
        "tags": {
          "@id": "node/1420766591",
          "amenity": "police",
          "name": "亀有警察署水元駐在所",
          "note": "National-Land Numerical Information (Public Facility) 2006, MLIT Japan",
          "note:ja": "国土数値情報（公共施設データ）平成19年　国土交通省",
          "source": "KSJ2",
          "source_ref": "http://nlftp.mlit.go.jp/ksj/jpgis/datalist/KsjTmplt-P02-v2_0.html"
        }
      }
    },
    {
      "type": "Feature",
      "geometry": {
        "type": "Point",
        "coordinates": [
          139.85977,
          35.7932862
        ]
      },
      "properties": {
        "id": "node/1420766592",
        "ward": "katsushika",
        "category": "police",
        "name": "亀有警察署葛三橋交番",
        "tags": {
          "@id": "node/1420766592",
          "amenity": "police",
          "name": "亀有警察署葛三橋交番",
          "note": "National-Land Numerical Information (Public Facility) 2006, MLIT Japan",
          "note:ja": "国土数値情報（公共施設データ）平成19年　国土交通省",
          "source": "KSJ2",
          "source_ref": "http://nlftp.mlit.go.jp/ksj/jpgis/datalist/KsjTmplt-P02-v2_0.html"
        }
      }
    },
    {
      "type": "Feature",
      "geometry": {
        "type": "Point",
        "coordinates": [
          139.8335076,
          35.7590227
        ]
      },
      "properties": {
        "id": "node/1420766593",
        "ward": "katsushika",
        "category": "police",
        "name": "亀有警察署 西亀有交番",
        "tags": {
          "@id": "node/1420766593",
          "amenity": "police",
          "name": "亀有警察署 西亀有交番",
          "note": "National-Land Numerical Information (Public Facility) 2006, MLIT Japan",
          "note:ja": "国土数値情報（公共施設データ）平成19年　国土交通省",
          "source": "KSJ2",
          "source_ref": "http://nlftp.mlit.go.jp/ksj/jpgis/datalist/KsjTmplt-P02-v2_0.html"
        }
      }
    },
    {
      "type": "Feature",
      "geometry": {
        "type": "Point",
        "coordinates": [
          139.8573009,
          35.7890393
        ]
      },
      "properties": {
        "id": "node/1420766594",
        "ward": "katsushika",
        "category": "police",
        "name": "亀有警察署西水元駐在所",
        "tags": {
          "@id": "node/1420766594",
          "amenity": "police",
          "name": "亀有警察署西水元駐在所",
          "note": "National-Land Numerical Information (Public Facility) 2006, MLIT Japan",
          "note:ja": "国土数値情報（公共施設データ）平成19年　国土交通省",
          "source": "KSJ2",
          "source_ref": "http://nlftp.mlit.go.jp/ksj/jpgis/datalist/KsjTmplt-P02-v2_0.html"
        }
      }
    },
    {
      "type": "Feature",
      "geometry": {
        "type": "Point",
        "coordinates": [
          139.8702694,
          35.7701064
        ]
      },
      "properties": {
        "id": "node/1420766595",
        "ward": "katsushika",
        "category": "police",
        "name": "亀有警察署 金町駅北口交番",
        "tags": {
          "@id": "node/1420766595",
          "amenity": "police",
          "name": "亀有警察署 金町駅北口交番",
          "name:en": "Koban",
          "note": "National-Land Numerical Information (Public Facility) 2006, MLIT Japan",
          "note:ja": "国土数値情報（公共施設データ）平成19年　国土交通省",
          "source": "KSJ2",
          "source_ref": "http://nlftp.mlit.go.jp/ksj/jpgis/datalist/KsjTmplt-P02-v2_0.html"
        }
      }
    },
    {
      "type": "Feature",
      "geometry": {
        "type": "Point",
        "coordinates": [
          139.8720042,
          35.7693314
        ]
      },
      "properties": {
        "id": "node/1420766596",
        "ward": "katsushika",
        "category": "police",
        "name": "亀有警察署金町駅南口交番",
        "tags": {
          "@id": "node/1420766596",
          "amenity": "police",
          "name": "亀有警察署金町駅南口交番",
          "name:en": "Koban",
          "note": "National-Land Numerical Information (Public Facility) 2006, MLIT Japan",
          "note:ja": "国土数値情報（公共施設データ）平成19年　国土交通省",
          "source": "KSJ2",
          "source_ref": "http://nlftp.mlit.go.jp/ksj/jpgis/datalist/KsjTmplt-P02-v2_0.html",
          "wheelchair": "yes"
        }
      }
    },
    {
      "type": "Feature",
      "geometry": {
        "type": "Point",
        "coordinates": [
          139.8510482,
          35.7536774
        ]
      },
      "properties": {
        "id": "node/1420766597",
        "ward": "katsushika",
        "category": "police",
        "name": "亀有警察署 青戸交番",
        "tags": {
          "@id": "node/1420766597",
          "amenity": "police",
          "name": "亀有警察署 青戸交番",
          "note": "National-Land Numerical Information (Public Facility) 2006, MLIT Japan",
          "note:ja": "国土数値情報（公共施設データ）平成19年　国土交通省",
          "source": "KSJ2",
          "source_ref": "http://nlftp.mlit.go.jp/ksj/jpgis/datalist/KsjTmplt-P02-v2_0.html"
        }
      }
    },
    {
      "type": "Feature",
      "geometry": {
        "type": "Point",
        "coordinates": [
          139.8577736,
          35.7527237
        ]
      },
      "properties": {
        "id": "node/1420766598",
        "ward": "katsushika",
        "category": "police",
        "name": "亀有警察署 青戸北部駐在所",
        "tags": {
          "@id": "node/1420766598",
          "amenity": "police",
          "name": "亀有警察署 青戸北部駐在所",
          "note": "National-Land Numerical Information (Public Facility) 2006, MLIT Japan",
          "note:ja": "国土数値情報（公共施設データ）平成19年　国土交通省",
          "source": "KSJ2",
          "source_ref": "http://nlftp.mlit.go.jp/ksj/jpgis/datalist/KsjTmplt-P02-v2_0.html"
        }
      }
    },
    {
      "type": "Feature",
      "geometry": {
        "type": "Point",
        "coordinates": [
          139.8590588,
          35.7480992
        ]
      },
      "properties": {
        "id": "node/1420766599",
        "ward": "katsushika",
        "category": "police",
        "name": "亀有警察署 青戸南部駐在所",
        "tags": {
          "@id": "node/1420766599",
          "amenity": "police",
          "name": "亀有警察署 青戸南部駐在所",
          "note": "National-Land Numerical Information (Public Facility) 2006, MLIT Japan",
          "note:ja": "国土数値情報（公共施設データ）平成19年　国土交通省",
          "source": "KSJ2",
          "source_ref": "http://nlftp.mlit.go.jp/ksj/jpgis/datalist/KsjTmplt-P02-v2_0.html"
        }
      }
    },
    {
      "type": "Feature",
      "geometry": {
        "type": "Point",
        "coordinates": [
          139.8442372,
          35.73618
        ]
      },
      "properties": {
        "id": "node/1420781776",
        "ward": "katsushika",
        "category": "fire_station",
        "name": "本田消防署",
        "tags": {
          "@id": "node/1420781776",
          "KSJ2:ADS": "東立石3-12-7",
          "KSJ2:AdminArea": "東京都葛飾区",
          "KSJ2:PubFacAdmin": "市区町村",
          "addr:postcode": "124-0013",
          "amenity": "fire_station",
          "fax": "+81-3-36911199",
          "name": "本田消防署",
          "name:en": "Honden Fire Station",
          "name:ja": "本田消防署",
          "note": "National-Land Numerical Information (Public Facility) 2006, MLIT Japan",
          "note:ja": "国土数値情報（公共施設データ）平成19年　国土交通省",
          "operator": "東京消防庁第七消防方面本部",
          "phone": "+81-3-36940119",
          "source": "KSJ2; (URL)",
          "source_ref": "http://nlftp.mlit.go.jp/ksj/jpgis/datalist/KsjTmplt-P02-v2_0.html",
          "website": "http://www.tfd.metro.tokyo.jp/hp-honden/",
          "wikidata": "Q48764992",
          "wikipedia": "ja:本田消防署"
        }
      }
    },
    {
      "type": "Feature",
      "geometry": {
        "type": "Point",
        "coordinates": [
          139.8530206,
          35.7233961
        ]
      },
      "properties": {
        "id": "node/1420781777",
        "ward": "katsushika",
        "category": "fire_station",
        "name": "本田消防署上平井出張所",
        "tags": {
          "@id": "node/1420781777",
          "amenity": "fire_station",
          "name": "本田消防署上平井出張所",
          "note": "National-Land Numerical Information (Public Facility) 2006, MLIT Japan",
          "note:ja": "国土数値情報（公共施設データ）平成19年　国土交通省",
          "source": "KSJ2",
          "source_ref": "http://nlftp.mlit.go.jp/ksj/jpgis/datalist/KsjTmplt-P02-v2_0.html"
        }
      }
    },
    {
      "type": "Feature",
      "geometry": {
        "type": "Point",
        "coordinates": [
          139.8372995,
          35.7505653
        ]
      },
      "properties": {
        "id": "node/1420781778",
        "ward": "katsushika",
        "category": "fire_station",
        "name": "本田消防署南綾瀬出張所",
        "tags": {
          "@id": "node/1420781778",
          "amenity": "fire_station",
          "name": "本田消防署南綾瀬出張所",
          "name:en": "Honda Fire Station Minami-Ayase Branch",
          "note": "National-Land Numerical Information (Public Facility) 2006, MLIT Japan",
          "note:ja": "国土数値情報（公共施設データ）平成19年　国土交通省",
          "source": "KSJ2",
          "source_ref": "http://nlftp.mlit.go.jp/ksj/jpgis/datalist/KsjTmplt-P02-v2_0.html"
        }
      }
    },
    {
      "type": "Feature",
      "geometry": {
        "type": "Point",
        "coordinates": [
          139.8522693,
          35.7519811
        ]
      },
      "properties": {
        "id": "node/1420781780",
        "ward": "katsushika",
        "category": "fire_station",
        "name": "本田消防署青戸出張所",
        "tags": {
          "@id": "node/1420781780",
          "amenity": "fire_station",
          "name": "本田消防署青戸出張所",
          "note": "National-Land Numerical Information (Public Facility) 2006, MLIT Japan",
          "note:ja": "国土数値情報（公共施設データ）平成19年　国土交通省",
          "source": "KSJ2",
          "source_ref": "http://nlftp.mlit.go.jp/ksj/jpgis/datalist/KsjTmplt-P02-v2_0.html"
        }
      }
    },
    {
      "type": "Feature",
      "geometry": {
        "type": "Point",
        "coordinates": [
          139.8389172,
          35.7380321
        ]
      },
      "properties": {
        "id": "node/1420797223",
        "ward": "katsushika",
        "category": "police",
        "name": "葛飾警察署",
        "tags": {
          "@id": "node/1420797223",
          "amenity": "police",
          "name": "葛飾警察署",
          "note": "National-Land Numerical Information (Public Facility) 2006, MLIT Japan",
          "note:ja": "国土数値情報（公共施設データ）平成19年　国土交通省",
          "source": "KSJ2",
          "source_ref": "http://nlftp.mlit.go.jp/ksj/jpgis/datalist/KsjTmplt-P02-v2_0.html",
          "wikidata": "Q11621086"
        }
      }
    },
    {
      "type": "Feature",
      "geometry": {
        "type": "Point",
        "coordinates": [
          139.856424,
          35.719513
        ]
      },
      "properties": {
        "id": "node/1420797224",
        "ward": "katsushika",
        "category": "police",
        "name": "葛飾警察署たつみ橋交番",
        "tags": {
          "@id": "node/1420797224",
          "amenity": "police",
          "name": "葛飾警察署たつみ橋交番",
          "name:en": "Koban",
          "note": "National-Land Numerical Information (Public Facility) 2006, MLIT Japan",
          "note:ja": "国土数値情報（公共施設データ）平成19年　国土交通省",
          "source": "KSJ2",
          "source_ref": "http://nlftp.mlit.go.jp/ksj/jpgis/datalist/KsjTmplt-P02-v2_0.html"
        }
      }
    },
    {
      "type": "Feature",
      "geometry": {
        "type": "Point",
        "coordinates": [
          139.8528816,
          35.723433
        ]
      },
      "properties": {
        "id": "node/1420797225",
        "ward": "katsushika",
        "category": "police",
        "name": "葛飾警察署上平井交番",
        "tags": {
          "@id": "node/1420797225",
          "amenity": "police",
          "name": "葛飾警察署上平井交番",
          "note": "National-Land Numerical Information (Public Facility) 2006, MLIT Japan",
          "note:ja": "国土数値情報（公共施設データ）平成19年　国土交通省",
          "source": "KSJ2",
          "source_ref": "http://nlftp.mlit.go.jp/ksj/jpgis/datalist/KsjTmplt-P02-v2_0.html"
        }
      }
    },
    {
      "type": "Feature",
      "geometry": {
        "type": "Point",
        "coordinates": [
          139.8334653,
          35.7354203
        ]
      },
      "properties": {
        "id": "node/1420797226",
        "ward": "katsushika",
        "category": "police",
        "name": "葛飾警察署 四ツ木交番",
        "tags": {
          "@id": "node/1420797226",
          "amenity": "police",
          "name": "葛飾警察署 四ツ木交番",
          "note": "National-Land Numerical Information (Public Facility) 2006, MLIT Japan",
          "note:ja": "国土数値情報（公共施設データ）平成19年　国土交通省",
          "source": "KSJ2",
          "source_ref": "http://nlftp.mlit.go.jp/ksj/jpgis/datalist/KsjTmplt-P02-v2_0.html"
        }
      }
    },
    {
      "type": "Feature",
      "geometry": {
        "type": "Point",
        "coordinates": [
          139.8339393,
          35.7318342
        ]
      },
      "properties": {
        "id": "node/1420797227",
        "ward": "katsushika",
        "category": "police",
        "name": "葛飾警察署四ツ木駅前交番",
        "tags": {
          "@id": "node/1420797227",
          "amenity": "police",
          "name": "葛飾警察署四ツ木駅前交番",
          "name:en": "Koban",
          "note": "National-Land Numerical Information (Public Facility) 2006, MLIT Japan",
          "note:ja": "国土数値情報（公共施設データ）平成19年　国土交通省",
          "source": "KSJ2",
          "source_ref": "http://nlftp.mlit.go.jp/ksj/jpgis/datalist/KsjTmplt-P02-v2_0.html"
        }
      }
    },
    {
      "type": "Feature",
      "geometry": {
        "type": "Point",
        "coordinates": [
          139.830481,
          35.7407525
        ]
      },
      "properties": {
        "id": "node/1420797228",
        "ward": "katsushika",
        "category": "police",
        "name": "葛飾警察署 堀切交番",
        "tags": {
          "@id": "node/1420797228",
          "amenity": "police",
          "name": "葛飾警察署 堀切交番",
          "note": "National-Land Numerical Information (Public Facility) 2006, MLIT Japan",
          "note:ja": "国土数値情報（公共施設データ）平成19年　国土交通省",
          "source": "KSJ2",
          "source_ref": "http://nlftp.mlit.go.jp/ksj/jpgis/datalist/KsjTmplt-P02-v2_0.html"
        }
      }
    },
    {
      "type": "Feature",
      "geometry": {
        "type": "Point",
        "coordinates": [
          139.865247,
          35.7343238
        ]
      },
      "properties": {
        "id": "node/1420797230",
        "ward": "katsushika",
        "category": "police",
        "name": "葛飾警察署奥戸交番",
        "tags": {
          "@id": "node/1420797230",
          "amenity": "police",
          "name": "葛飾警察署奥戸交番",
          "note": "National-Land Numerical Information (Public Facility) 2006, MLIT Japan",
          "note:ja": "国土数値情報（公共施設データ）平成19年　国土交通省",
          "source": "KSJ2",
          "source_ref": "http://nlftp.mlit.go.jp/ksj/jpgis/datalist/KsjTmplt-P02-v2_0.html"
        }
      }
    },
    {
      "type": "Feature",
      "geometry": {
        "type": "Point",
        "coordinates": [
          139.8366557,
          35.7468194
        ]
      },
      "properties": {
        "id": "node/1420797231",
        "ward": "katsushika",
        "category": "police",
        "name": "葛飾警察署 宝町交番",
        "tags": {
          "@id": "node/1420797231",
          "amenity": "police",
          "name": "葛飾警察署 宝町交番",
          "name:en": "Koban",
          "note": "National-Land Numerical Information (Public Facility) 2006, MLIT Japan",
          "note:ja": "国土数値情報（公共施設データ）平成19年　国土交通省",
          "source": "KSJ2",
          "source_ref": "http://nlftp.mlit.go.jp/ksj/jpgis/datalist/KsjTmplt-P02-v2_0.html"
        }
      }
    },
    {
      "type": "Feature",
      "geometry": {
        "type": "Point",
        "coordinates": [
          139.8666376,
          35.7200947
        ]
      },
      "properties": {
        "id": "node/1420797232",
        "ward": "katsushika",
        "category": "police",
        "name": "葛飾警察署 小松橋交番",
        "tags": {
          "@id": "node/1420797232",
          "amenity": "police",
          "name": "葛飾警察署 小松橋交番",
          "name:en": "Koban",
          "note": "National-Land Numerical Information (Public Facility) 2006, MLIT Japan",
          "note:ja": "国土数値情報（公共施設データ）平成19年　国土交通省",
          "source": "KSJ2",
          "source_ref": "http://nlftp.mlit.go.jp/ksj/jpgis/datalist/KsjTmplt-P02-v2_0.html"
        }
      }
    },
    {
      "type": "Feature",
      "geometry": {
        "type": "Point",
        "coordinates": [
          139.8479926,
          35.7284048
        ]
      },
      "properties": {
        "id": "node/1420797233",
        "ward": "katsushika",
        "category": "police",
        "name": "葛飾警察署 平和橋交番",
        "tags": {
          "@id": "node/1420797233",
          "amenity": "police",
          "name": "葛飾警察署 平和橋交番",
          "note": "National-Land Numerical Information (Public Facility) 2006, MLIT Japan",
          "note:ja": "国土数値情報（公共施設データ）平成19年　国土交通省",
          "source": "KSJ2",
          "source_ref": "http://nlftp.mlit.go.jp/ksj/jpgis/datalist/KsjTmplt-P02-v2_0.html"
        }
      }
    },
    {
      "type": "Feature",
      "geometry": {
        "type": "Point",
        "coordinates": [
          139.8454716,
          35.7366242
        ]
      },
      "properties": {
        "id": "node/1420797235",
        "ward": "katsushika",
        "category": "police",
        "name": "葛飾警察署立石交番",
        "tags": {
          "@id": "node/1420797235",
          "amenity": "police",
          "name": "葛飾警察署立石交番",
          "note": "National-Land Numerical Information (Public Facility) 2006, MLIT Japan",
          "note:ja": "国土数値情報（公共施設データ）平成19年　国土交通省",
          "source": "KSJ2",
          "source_ref": "http://nlftp.mlit.go.jp/ksj/jpgis/datalist/KsjTmplt-P02-v2_0.html"
        }
      }
    },
    {
      "type": "Feature",
      "geometry": {
        "type": "Point",
        "coordinates": [
          139.8490674,
          35.7388475
        ]
      },
      "properties": {
        "id": "node/1420797236",
        "ward": "katsushika",
        "category": "police",
        "name": "葛飾警察署立石駅前交番",
        "tags": {
          "@id": "node/1420797236",
          "amenity": "police",
          "name": "葛飾警察署立石駅前交番",
          "note": "National-Land Numerical Information (Public Facility) 2006, MLIT Japan",
          "note:ja": "国土数値情報（公共施設データ）平成19年　国土交通省",
          "source": "KSJ2",
          "source_ref": "http://nlftp.mlit.go.jp/ksj/jpgis/datalist/KsjTmplt-P02-v2_0.html"
        }
      }
    },
    {
      "type": "Feature",
      "geometry": {
        "type": "Point",
        "coordinates": [
          139.8695527,
          35.740142
        ]
      },
      "properties": {
        "id": "node/1420797237",
        "ward": "katsushika",
        "category": "police",
        "name": "葛飾警察署細田交番",
        "tags": {
          "@id": "node/1420797237",
          "amenity": "police",
          "name": "葛飾警察署細田交番",
          "note": "National-Land Numerical Information (Public Facility) 2006, MLIT Japan",
          "note:ja": "国土数値情報（公共施設データ）平成19年　国土交通省",
          "source": "KSJ2",
          "source_ref": "http://nlftp.mlit.go.jp/ksj/jpgis/datalist/KsjTmplt-P02-v2_0.html"
        }
      }
    },
    {
      "type": "Feature",
      "geometry": {
        "type": "Point",
        "coordinates": [
          139.8802143,
          35.7473684
        ]
      },
      "properties": {
        "id": "node/1420797238",
        "ward": "katsushika",
        "category": "police",
        "name": "葛飾警察署 鎌倉交番",
        "tags": {
          "@id": "node/1420797238",
          "amenity": "police",
          "name": "葛飾警察署 鎌倉交番",
          "name:en": "Koban",
          "note": "National-Land Numerical Information (Public Facility) 2006, MLIT Japan",
          "note:ja": "国土数値情報（公共施設データ）平成19年　国土交通省",
          "source": "KSJ2",
          "source_ref": "http://nlftp.mlit.go.jp/ksj/jpgis/datalist/KsjTmplt-P02-v2_0.html"
        }
      }
    },
    {
      "type": "Feature",
      "geometry": {
        "type": "Point",
        "coordinates": [
          139.8566192,
          35.7462131
        ]
      },
      "properties": {
        "id": "node/1420797239",
        "ward": "katsushika",
        "category": "police",
        "name": "葛飾警察署 青砥駅前交番",
        "tags": {
          "@id": "node/1420797239",
          "amenity": "police",
          "name": "葛飾警察署 青砥駅前交番",
          "name:en": "Aoto Station Koban",
          "note": "National-Land Numerical Information (Public Facility) 2006, MLIT Japan",
          "note:ja": "国土数値情報（公共施設データ）平成19年　国土交通省",
          "opening_hours": "24/7",
          "source": "KSJ2",
          "source_ref": "http://nlftp.mlit.go.jp/ksj/jpgis/datalist/KsjTmplt-P02-v2_0.html"
        }
      }
    },
    {
      "type": "Feature",
      "geometry": {
        "type": "Point",
        "coordinates": [
          139.8719102,
          35.7469704
        ]
      },
      "properties": {
        "id": "node/1420797240",
        "ward": "katsushika",
        "category": "police",
        "name": "葛飾警察署 高砂地域安全センター",
        "tags": {
          "@id": "node/1420797240",
          "amenity": "police",
          "name": "葛飾警察署 高砂地域安全センター",
          "note": "National-Land Numerical Information (Public Facility) 2006, MLIT Japan",
          "note:ja": "国土数値情報（公共施設データ）平成19年　国土交通省",
          "source": "KSJ2",
          "source_ref": "http://nlftp.mlit.go.jp/ksj/jpgis/datalist/KsjTmplt-P02-v2_0.html"
        }
      }
    },
    {
      "type": "Feature",
      "geometry": {
        "type": "Point",
        "coordinates": [
          139.868019,
          35.7511165
        ]
      },
      "properties": {
        "id": "node/1420797241",
        "ward": "katsushika",
        "category": "police",
        "name": "葛飾警察署 高砂駅前交番",
        "tags": {
          "@id": "node/1420797241",
          "amenity": "police",
          "name": "葛飾警察署 高砂駅前交番",
          "name:en": "Koban",
          "note": "National-Land Numerical Information (Public Facility) 2006, MLIT Japan",
          "note:ja": "国土数値情報（公共施設データ）平成19年　国土交通省",
          "source": "KSJ2",
          "source_ref": "http://nlftp.mlit.go.jp/ksj/jpgis/datalist/KsjTmplt-P02-v2_0.html"
        }
      }
    },
    {
      "type": "Feature",
      "geometry": {
        "type": "Point",
        "coordinates": [
          139.865116,
          35.763897
        ]
      },
      "properties": {
        "id": "node/1420799345",
        "ward": "katsushika",
        "category": "fire_station",
        "name": "金町消防署",
        "tags": {
          "@id": "node/1420799345",
          "amenity": "fire_station",
          "name": "金町消防署",
          "name:en": "Kanamachi Fire Station",
          "name:es": "Estación de bomberos Kanamachi",
          "name:ja": "金町消防署",
          "note": "National-Land Numerical Information (Public Facility) 2006, MLIT Japan",
          "note:ja": "国土数値情報（公共施設データ）平成19年　国土交通省",
          "operator": "東京消防庁第七消防方面本部",
          "source": "KSJ2;(URL)",
          "source_ref": "http://nlftp.mlit.go.jp/ksj/jpgis/datalist/KsjTmplt-P02-v2_0.html",
          "website": "http://www.tfd.metro.tokyo.jp/hp-kanamati/"
        }
      }
    },
    {
      "type": "Feature",
      "geometry": {
        "type": "Point",
        "coordinates": [
          139.8462601,
          35.7619898
        ]
      },
      "properties": {
        "id": "node/1420799346",
        "ward": "katsushika",
        "category": "fire_station",
        "name": "金町消防署亀有出張所",
        "tags": {
          "@id": "node/1420799346",
          "amenity": "fire_station",
          "name": "金町消防署亀有出張所",
          "note": "National-Land Numerical Information (Public Facility) 2006, MLIT Japan",
          "note:ja": "国土数値情報（公共施設データ）平成19年　国土交通省",
          "source": "KSJ2",
          "source_ref": "http://nlftp.mlit.go.jp/ksj/jpgis/datalist/KsjTmplt-P02-v2_0.html"
        }
      }
    },
    {
      "type": "Feature",
      "geometry": {
        "type": "Point",
        "coordinates": [
          139.8786795,
          35.7518256
        ]
      },
      "properties": {
        "id": "node/1420799349",
        "ward": "katsushika",
        "category": "fire_station",
        "name": "金町消防署柴又出張所",
        "tags": {
          "@id": "node/1420799349",
          "amenity": "fire_station",
          "check_date": "2023-06-24",
          "name": "金町消防署柴又出張所",
          "name:en": "Kanamachi Fire Station, Shibamata Branch",
          "name:ja": "金町消防署柴又出張所",
          "note": "National-Land Numerical Information (Public Facility) 2006, MLIT Japan",
          "note:ja": "国土数値情報（公共施設データ）平成19年　国土交通省",
          "source": "KSJ2",
          "source_ref": "http://nlftp.mlit.go.jp/ksj/jpgis/datalist/KsjTmplt-P02-v2_0.html"
        }
      }
    },
    {
      "type": "Feature",
      "geometry": {
        "type": "Point",
        "coordinates": [
          139.863643,
          35.780811
        ]
      },
      "properties": {
        "id": "node/1420799351",
        "ward": "katsushika",
        "category": "fire_station",
        "name": "金町消防署水元出張所",
        "tags": {
          "@id": "node/1420799351",
          "KSJ2:ADS": "水元3-11-1",
          "KSJ2:AdminArea": "東京都葛飾区",
          "KSJ2:PubFacAdmin": "市区町村",
          "amenity": "fire_station",
          "name": "金町消防署水元出張所",
          "note": "National-Land Numerical Information (Public Facility) 2006, MLIT Japan",
          "note:ja": "国土数値情報（公共施設データ）平成19年　国土交通省",
          "source": "KSJ2",
          "source_ref": "http://nlftp.mlit.go.jp/ksj/jpgis/datalist/KsjTmplt-P02-v2_0.html"
        }
      }
    },
    {
      "type": "Feature",
      "geometry": {
        "type": "Point",
        "coordinates": [
          139.8266212,
          35.7470393
        ]
      },
      "properties": {
        "id": "node/2314532479",
        "ward": "katsushika",
        "category": "police",
        "name": "堀切駅前交番",
        "tags": {
          "@id": "node/2314532479",
          "amenity": "police",
          "name": "堀切駅前交番"
        }
      }
    },
    {
      "type": "Feature",
      "geometry": {
        "type": "Point",
        "coordinates": [
          139.8670583,
          35.7358087
        ]
      },
      "properties": {
        "id": "node/7083693095",
        "ward": "katsushika",
        "category": "fire_station",
        "name": "本田消防署奥戸出張所",
        "tags": {
          "@id": "node/7083693095",
          "amenity": "fire_station",
          "name": "本田消防署奥戸出張所",
          "name:en": "Okudo Branch Honden Fire Station"
        }
      }
    },
    {
      "type": "Feature",
      "geometry": {
        "type": "Point",
        "coordinates": [
          139.8264142,
          35.7467836
        ]
      },
      "properties": {
        "id": "node/9211662902",
        "ward": "katsushika",
        "category": "police",
        "name": "堀切駅前交番",
        "tags": {
          "@id": "node/9211662902",
          "amenity": "police",
          "name": "堀切駅前交番"
        }
      }
    },
    {
      "type": "Feature",
      "geometry": {
        "type": "Point",
        "coordinates": [
          139.8572198,
          35.7462167
        ]
      },
      "properties": {
        "id": "node/9220123452",
        "ward": "katsushika",
        "category": "fire_station",
        "name": "本田消防団第四分団 防災資機材格納庫",
        "tags": {
          "@id": "node/9220123452",
          "amenity": "fire_station",
          "name": "本田消防団第四分団 防災資機材格納庫"
        }
      }
    },
    {
      "type": "Feature",
      "geometry": {
        "type": "Point",
        "coordinates": [
          139.8579775,
          35.7529535
        ]
      },
      "properties": {
        "id": "node/9268969107",
        "ward": "katsushika",
        "category": "fire_station",
        "name": "本田消防団第十二分団本部",
        "tags": {
          "@id": "node/9268969107",
          "amenity": "fire_station",
          "name": "本田消防団第十二分団本部"
        }
      }
    },
    {
      "type": "Feature",
      "geometry": {
        "type": "Point",
        "coordinates": [
          139.8852852,
          35.7829053
        ]
      },
      "properties": {
        "id": "node/10132689690",
        "ward": "katsushika",
        "category": "aed",
        "name": "",
        "tags": {
          "@id": "node/10132689690",
          "emergency": "defibrillator"
        }
      }
    }
  ]
}