{
  "type": "FeatureCollection",
  "features": [
    {
      "type": "Feature",
      "geometry": {
        "type": "Point",
        "coordinates": [
          139.8147953,
          35.6960018
        ]
      },
      "properties": {
        "id": "way/155046155",
        "ward": "sumida",
        "category": "police",
        "name": "本所警察署錦糸町駅南口交番",
        "tags": {
          "@id": "way/155046155",
          "addr:block_number": "14",
          "addr:neighbourhood": "江東橋三丁目",
          "amenity": "police",
          "building": "yes",
          "check_date": "2025-12-07",
          "name": "本所警察署錦糸町駅南口交番",
          "name:en": "Kinshicho-eki Minami-guchi Koban",
          "name:ja-Hira": "ほんじょけいさつしょきんしちょうみなみぐちこうばん",
          "source": "bing",
          "website": "https://www.keishicho.metro.tokyo.lg.jp/about_mpd/shokai/ichiran/kankatsu/honjo/koban/02.html",
          "@geometry": "center"
        }
      }
    },
    {
      "type": "Feature",
      "geometry": {
        "type": "Point",
        "coordinates": [
          139.8133428,
          35.6976219
        ]
      },
      "properties": {
        "id": "way/155046175",
        "ward": "sumida",
        "category": "police",
        "name": "本所警察署 錦糸町駅北口交番",
        "tags": {
          "@id": "way/155046175",
          "addr:block_number": "2",
          "addr:city": "墨田区",
          "addr:country": "JP",
          "addr:housenumber": "3",
          "addr:neighbourhood": "錦糸二丁目",
          "addr:postcode": "130-0013",
          "addr:province": "東京都",
          "amenity": "police",
          "building": "yes",
          "building:levels": "2",
          "name": "本所警察署 錦糸町駅北口交番",
          "name:en": "Kinshicho North Exit Koban",
          "name:ja-Hira": "ほんじょけいさつしょきんしちょうえききたぐちこうばん",
          "source": "KSJ2",
          "@geometry": "center"
        }
      }
    },
    {
      "type": "Feature",
      "geometry": {
        "type": "Point",
        "coordinates": [
          139.796953,
          35.7000902
        ]
      },
      "properties": {
        "id": "way/157050749",
        "ward": "sumida",
        "category": "police",
        "name": "横綱交番",
        "tags": {
          "@id": "way/157050749",
          "amenity": "police",
          "building": "yes",
          "description": "本所警察署",
          "name": "横綱交番",
          "name:en": "Koban",
          "name:ja": "横網町交番",
          "source": "bing",
          "wheelchair": "no",
          "@geometry": "center"
        }
      }
    },
    {
      "type": "Feature",
      "geometry": {
        "type": "Point",
        "coordinates": [
          139.8131363,
          35.7108134
        ]
      },
      "properties": {
        "id": "way/158806761",
        "ward": "sumida",
        "category": "police",
        "name": "押上駅前交番",
        "tags": {
          "@id": "way/158806761",
          "amenity": "police",
          "building": "yes",
          "layer": "1",
          "name": "押上駅前交番",
          "name:en": "Oshiage Police",
          "name:es": "Policía de Oshiage",
          "name:ja": "押上駅前交番",
          "name:ja-Hira": "おしあげ えきまえ こうばん",
          "name:ja_rm": "oshiage ekimae kōban",
          "source": "GSImaps/std;Bing 2014",
          "@geometry": "center"
        }
      }
    },
    {
      "type": "Feature",
      "geometry": {
        "type": "Point",
        "coordinates": [
          139.8151683,
          35.7048994
        ]
      },
      "properties": {
        "id": "way/444856070",
        "ward": "sumida",
        "category": "police",
        "name": "本所警察署",
        "tags": {
          "@id": "way/444856070",
          "addr:block_number": "8",
          "addr:housenumber": "9",
          "addr:neighbourhood": "4丁目",
          "addr:postcode": "130-0003",
          "addr:quarter": "横川",
          "amenity": "police",
          "building": "yes",
          "name": "本所警察署",
          "name:en": "Honjo Police Station",
          "name:es": "Estación de policía Honjo",
          "name:ja": "本所警察署",
          "wikidata": "Q11520369",
          "wikipedia": "ja:本所警察署",
          "@geometry": "center"
        }
      }
    },
    {
      "type": "Feature",
      "geometry": {
        "type": "Point",
        "coordinates": [
          139.803921,
          35.7004332
        ]
      },
      "properties": {
        "id": "way/527512114",
        "ward": "sumida",
        "category": "police",
        "name": "",
        "tags": {
          "@id": "way/527512114",
          "amenity": "police",
          "building": "yes",
          "@geometry": "center"
        }
      }
    },
    {
      "type": "Feature",
      "geometry": {
        "type": "Point",
        "coordinates": [
          139.8153189,
          35.721438
        ]
      },
      "properties": {
        "id": "node/556167030",
        "ward": "sumida",
        "category": "fire_station",
        "name": "向島消防団 第三分団本部",
        "tags": {
          "@id": "node/556167030",
          "amenity": "fire_station",
          "ele": "59.0000000",
          "name": "向島消防団 第三分団本部",
          "wpt_description": "&#xD;&#xA;"
        }
      }
    },
    {
      "type": "Feature",
      "geometry": {
        "type": "Point",
        "coordinates": [
          139.8153999,
          35.7039591
        ]
      },
      "properties": {
        "id": "way/721985640",
        "ward": "sumida",
        "category": "fire_station",
        "name": "本所消防署",
        "tags": {
          "@id": "way/721985640",
          "addr:block_number": "6",
          "addr:neighbourhood": "4丁目",
          "addr:quarter": "横川",
          "amenity": "fire_station",
          "building": "yes",
          "name": "本所消防署",
          "@geometry": "center"
        }
      }
    },
    {
      "type": "Feature",
      "geometry": {
        "type": "Point",
        "coordinates": [
          139.8273693,
          35.7117912
        ]
      },
      "properties": {
        "id": "node/733188956",
        "ward": "sumida",
        "category": "police",
        "name": "向島警察署",
        "tags": {
          "@id": "node/733188956",
          "amenity": "police",
          "name": "向島警察署",
          "name:en": "Mukojima Police Station",
          "wikidata": "Q11415962"
        }
      }
    },
    {
      "type": "Feature",
      "geometry": {
        "type": "Point",
        "coordinates": [
          139.8060747,
          35.7128923
        ]
      },
      "properties": {
        "id": "way/813386527",
        "ward": "sumida",
        "category": "police",
        "name": "言問交番",
        "tags": {
          "@id": "way/813386527",
          "amenity": "police",
          "building": "yes",
          "building:levels": "2",
          "name": "言問交番",
          "source": "survey",
          "@geometry": "center"
        }
      }
    },
    {
      "type": "Feature",
      "geometry": {
        "type": "Point",
        "coordinates": [
          139.8199672,
          35.7235611
        ]
      },
      "properties": {
        "id": "node/1420771252",
        "ward": "sumida",
        "category": "fire_station",
        "name": "向島消防署",
        "tags": {
          "@id": "node/1420771252",
          "addr:postcode": "131-0032",
          "amenity": "fire_station",
          "check_date": "2023-05-02",
          "fax": "+81-3-36161791",
          "name": "向島消防署",
          "name:en": "Mukoujima Fire Station",
          "name:ja": "向島消防署",
          "note": "National-Land Numerical Information (Public Facility) 2006, MLIT Japan",
          "note:ja": "国土数値情報（公共施設データ）平成19年　国土交通省",
          "operator": "東京消防庁第七消防方面本部",
          "phone": "+81-3-36190119",
          "source": "KSJ2; (URL)",
          "source_ref": "http://nlftp.mlit.go.jp/ksj/jpgis/datalist/KsjTmplt-P02-v2_0.html",
          "website": "http://www.tfd.metro.tokyo.jp/hp-mukoujima/",
          "wikidata": "Q11415961",
          "wikipedia": "ja:向島消防署"
        }
      }
    },
    {
      "type": "Feature",
      "geometry": {
        "type": "Point",
        "coordinates": [
          139.8181591,
          35.7371488
        ]
      },
      "properties": {
        "id": "node/1420771253",
        "ward": "sumida",
        "category": "fire_station",
        "name": "向島消防署墨田出張所",
        "tags": {
          "@id": "node/1420771253",
          "KSJ2:ADS": "墨田5-16-2",
          "KSJ2:AdminArea": "東京都墨田区",
          "KSJ2:PubFacAdmin": "市区町村",
          "amenity": "fire_station",
          "name": "向島消防署墨田出張所",
          "note": "National-Land Numerical Information (Public Facility) 2006, MLIT Japan",
          "note:ja": "国土数値情報（公共施設データ）平成19年　国土交通省",
          "source": "KSJ2",
          "source_ref": "http://nlftp.mlit.go.jp/ksj/jpgis/datalist/KsjTmplt-P02-v2_0.html"
        }
      }
    },
    {
      "type": "Feature",
      "geometry": {
        "type": "Point",
        "coordinates": [
          139.828788,
          35.715013
        ]
      },
      "properties": {
        "id": "node/1420771254",
        "ward": "sumida",
        "category": "fire_station",
        "name": "向島消防署立花出張所",
        "tags": {
          "@id": "node/1420771254",
          "KSJ2:ADS": "立花5-9-3",
          "KSJ2:AdminArea": "東京都墨田区",
          "KSJ2:PubFacAdmin": "市区町村",
          "amenity": "fire_station",
          "name": "向島消防署立花出張所",
          "note": "National-Land Numerical Information (Public Facility) 2006, MLIT Japan",
          "note:ja": "国土数値情報（公共施設データ）平成19年　国土交通省",
          "source": "KSJ2",
          "source_ref": "http://nlftp.mlit.go.jp/ksj/jpgis/datalist/KsjTmplt-P02-v2_0.html"
        }
      }
    },
    {
      "type": "Feature",
      "geometry": {
        "type": "Point",
        "coordinates": [
          139.819983,
          35.715097
        ]
      },
      "properties": {
        "id": "node/1420771258",
        "ward": "sumida",
        "category": "police",
        "name": "向島警察署京島二丁目交番",
        "tags": {
          "@id": "node/1420771258",
          "amenity": "police",
          "name": "向島警察署京島二丁目交番",
          "name:en": "Koban",
          "note": "National-Land Numerical Information (Public Facility) 2006, MLIT Japan",
          "note:ja": "国土数値情報（公共施設データ）平成19年　国土交通省",
          "source": "KSJ2",
          "source_ref": "http://nlftp.mlit.go.jp/ksj/jpgis/datalist/KsjTmplt-P02-v2_0.html"
        }
      }
    },
    {
      "type": "Feature",
      "geometry": {
        "type": "Point",
        "coordinates": [
          139.8265568,
          35.7226022
        ]
      },
      "properties": {
        "id": "node/1420771260",
        "ward": "sumida",
        "category": "police",
        "name": "向島警察署 八広四丁目交番",
        "tags": {
          "@id": "node/1420771260",
          "amenity": "police",
          "check_date": "2023-05-04",
          "name": "向島警察署 八広四丁目交番",
          "note": "National-Land Numerical Information (Public Facility) 2006, MLIT Japan",
          "note:ja": "国土数値情報（公共施設データ）平成19年　国土交通省",
          "source": "KSJ2",
          "source_ref": "http://nlftp.mlit.go.jp/ksj/jpgis/datalist/KsjTmplt-P02-v2_0.html"
        }
      }
    },
    {
      "type": "Feature",
      "geometry": {
        "type": "Point",
        "coordinates": [
          139.8253921,
          35.7287531
        ]
      },
      "properties": {
        "id": "node/1420771261",
        "ward": "sumida",
        "category": "police",
        "name": "向島警察署 四ツ木橋交番",
        "tags": {
          "@id": "node/1420771261",
          "amenity": "police",
          "name": "向島警察署 四ツ木橋交番",
          "note": "National-Land Numerical Information (Public Facility) 2006, MLIT Japan",
          "note:ja": "国土数値情報（公共施設データ）平成19年　国土交通省",
          "source": "KSJ2",
          "source_ref": "http://nlftp.mlit.go.jp/ksj/jpgis/datalist/KsjTmplt-P02-v2_0.html"
        }
      }
    },
    {
      "type": "Feature",
      "geometry": {
        "type": "Point",
        "coordinates": [
          139.8181591,
          35.7369969
        ]
      },
      "properties": {
        "id": "node/1420771263",
        "ward": "sumida",
        "category": "police",
        "name": "向島警察署堤通駐在所",
        "tags": {
          "@id": "node/1420771263",
          "KSJ2:ADS": "墨田5-16-1",
          "KSJ2:AdminArea": "東京都墨田区",
          "KSJ2:PubFacAdmin": "都道府県",
          "amenity": "police",
          "name": "向島警察署堤通駐在所",
          "note": "National-Land Numerical Information (Public Facility) 2006, MLIT Japan",
          "note:ja": "国土数値情報（公共施設データ）平成19年　国土交通省",
          "source": "KSJ2",
          "source_ref": "http://nlftp.mlit.go.jp/ksj/jpgis/datalist/KsjTmplt-P02-v2_0.html"
        }
      }
    },
    {
      "type": "Feature",
      "geometry": {
        "type": "Point",
        "coordinates": [
          139.820647,
          35.7279334
        ]
      },
      "properties": {
        "id": "node/1420771264",
        "ward": "sumida",
        "category": "police",
        "name": "向島警察署 墨田三丁目交番",
        "tags": {
          "@id": "node/1420771264",
          "amenity": "police",
          "name": "向島警察署 墨田三丁目交番",
          "note": "National-Land Numerical Information (Public Facility) 2006, MLIT Japan",
          "note:ja": "国土数値情報（公共施設データ）平成19年　国土交通省",
          "source": "KSJ2",
          "source_ref": "http://nlftp.mlit.go.jp/ksj/jpgis/datalist/KsjTmplt-P02-v2_0.html"
        }
      }
    },
    {
      "type": "Feature",
      "geometry": {
        "type": "Point",
        "coordinates": [
          139.823333,
          35.732104
        ]
      },
      "properties": {
        "id": "node/1420771265",
        "ward": "sumida",
        "category": "police",
        "name": "向島警察署 墨田交番",
        "tags": {
          "@id": "node/1420771265",
          "amenity": "police",
          "name": "向島警察署 墨田交番",
          "note": "National-Land Numerical Information (Public Facility) 2006, MLIT Japan",
          "note:ja": "国土数値情報（公共施設データ）平成19年　国土交通省",
          "source": "KSJ2",
          "source_ref": "http://nlftp.mlit.go.jp/ksj/jpgis/datalist/KsjTmplt-P02-v2_0.html"
        }
      }
    },
    {
      "type": "Feature",
      "geometry": {
        "type": "Point",
        "coordinates": [
          139.8285341,
          35.7102901
        ]
      },
      "properties": {
        "id": "node/1420771266",
        "ward": "sumida",
        "category": "police",
        "name": "向島警察署小村井交番",
        "tags": {
          "@id": "node/1420771266",
          "amenity": "police",
          "name": "向島警察署小村井交番",
          "name:en": "Koban",
          "note": "National-Land Numerical Information (Public Facility) 2006, MLIT Japan",
          "note:ja": "国土数値情報（公共施設データ）平成19年　国土交通省",
          "source": "KSJ2",
          "source_ref": "http://nlftp.mlit.go.jp/ksj/jpgis/datalist/KsjTmplt-P02-v2_0.html"
        }
      }
    },
    {
      "type": "Feature",
      "geometry": {
        "type": "Point",
        "coordinates": [
          139.837261,
          35.7085293
        ]
      },
      "properties": {
        "id": "node/1420771267",
        "ward": "sumida",
        "category": "police",
        "name": "向島警察署 平井橋交番",
        "tags": {
          "@id": "node/1420771267",
          "amenity": "police",
          "name": "向島警察署 平井橋交番",
          "note": "National-Land Numerical Information (Public Facility) 2006, MLIT Japan",
          "note:ja": "国土数値情報（公共施設データ）平成19年　国土交通省",
          "source": "KSJ2",
          "source_ref": "http://nlftp.mlit.go.jp/ksj/jpgis/datalist/KsjTmplt-P02-v2_0.html"
        }
      }
    },
    {
      "type": "Feature",
      "geometry": {
        "type": "Point",
        "coordinates": [
          139.8164465,
          35.7177296
        ]
      },
      "properties": {
        "id": "node/1420771268",
        "ward": "sumida",
        "category": "police",
        "name": "向島警察署曳舟交番",
        "tags": {
          "@id": "node/1420771268",
          "amenity": "police",
          "name": "向島警察署曳舟交番",
          "note": "National-Land Numerical Information (Public Facility) 2006, MLIT Japan",
          "note:ja": "国土数値情報（公共施設データ）平成19年　国土交通省",
          "source": "KSJ2",
          "source_ref": "http://nlftp.mlit.go.jp/ksj/jpgis/datalist/KsjTmplt-P02-v2_0.html"
        }
      }
    },
    {
      "type": "Feature",
      "geometry": {
        "type": "Point",
        "coordinates": [
          139.8184075,
          35.7226977
        ]
      },
      "properties": {
        "id": "node/1420771269",
        "ward": "sumida",
        "category": "police",
        "name": "向島警察署東向島交番",
        "tags": {
          "@id": "node/1420771269",
          "amenity": "police",
          "name": "向島警察署東向島交番",
          "name:en": "Koban",
          "note": "National-Land Numerical Information (Public Facility) 2006, MLIT Japan",
          "note:ja": "国土数値情報（公共施設データ）平成19年　国土交通省",
          "source": "KSJ2",
          "source_ref": "http://nlftp.mlit.go.jp/ksj/jpgis/datalist/KsjTmplt-P02-v2_0.html"
        }
      }
    },
    {
      "type": "Feature",
      "geometry": {
        "type": "Point",
        "coordinates": [
          139.813624,
          35.728513
        ]
      },
      "properties": {
        "id": "node/1420771270",
        "ward": "sumida",
        "category": "police",
        "name": "向島警察署白鬚橋交番",
        "tags": {
          "@id": "node/1420771270",
          "amenity": "police",
          "name": "向島警察署白鬚橋交番",
          "name:en": "Koban",
          "note": "National-Land Numerical Information (Public Facility) 2006, MLIT Japan",
          "note:ja": "国土数値情報（公共施設データ）平成19年　国土交通省",
          "source": "KSJ2",
          "source_ref": "http://nlftp.mlit.go.jp/ksj/jpgis/datalist/KsjTmplt-P02-v2_0.html"
        }
      }
    },
    {
      "type": "Feature",
      "geometry": {
        "type": "Point",
        "coordinates": [
          139.819667,
          35.7331825
        ]
      },
      "properties": {
        "id": "node/1420771271",
        "ward": "sumida",
        "category": "police",
        "name": "向島警察署鐘ヶ淵駅前交番",
        "tags": {
          "@id": "node/1420771271",
          "amenity": "police",
          "name": "向島警察署鐘ヶ淵駅前交番",
          "note": "National-Land Numerical Information (Public Facility) 2006, MLIT Japan",
          "note:ja": "国土数値情報（公共施設データ）平成19年　国土交通省",
          "source": "KSJ2",
          "source_ref": "http://nlftp.mlit.go.jp/ksj/jpgis/datalist/KsjTmplt-P02-v2_0.html"
        }
      }
    },
    {
      "type": "Feature",
      "geometry": {
        "type": "Point",
        "coordinates": [
          139.8151821,
          35.7038683
        ]
      },
      "properties": {
        "id": "node/1420781745",
        "ward": "sumida",
        "category": "fire_station",
        "name": "本所消防署",
        "tags": {
          "@id": "node/1420781745",
          "addr:postcode": "130-0003",
          "amenity": "fire_station",
          "fax": "+81-3-36238093",
          "name": "本所消防署",
          "name:en": "Honjo Fire Station",
          "name:ja": "本所消防署",
          "note": "National-Land Numerical Information (Public Facility) 2006, MLIT Japan",
          "note:ja": "国土数値情報（公共施設データ）平成19年　国土交通省",
          "operator": "東京消防庁第七消防方面本部",
          "phone": "+81-3-36220119",
          "source": "KSJ2;(URL)",
          "source_ref": "http://nlftp.mlit.go.jp/ksj/jpgis/datalist/KsjTmplt-P02-v2_0.html",
          "website": "http://www.tfd.metro.tokyo.jp/hp-honjyo/",
          "wikidata": "Q11520367",
          "wikipedia": "ja:本所消防署"
        }
      }
    },
    {
      "type": "Feature",
      "geometry": {
        "type": "Point",
        "coordinates": [
          139.804318,
          35.706402
        ]
      },
      "properties": {
        "id": "node/1420781747",
        "ward": "sumida",
        "category": "fire_station",
        "name": "本所消防署東駒形出張所",
        "tags": {
          "@id": "node/1420781747",
          "addr:block_number": "5",
          "addr:city": "墨田区",
          "addr:housenumber": "8",
          "addr:neighbourhood": "東駒形三丁目",
          "addr:province": "東京都",
          "amenity": "fire_station",
          "name": "本所消防署東駒形出張所",
          "note": "National-Land Numerical Information (Public Facility) 2006, MLIT Japan",
          "note:ja": "国土数値情報（公共施設データ）平成19年　国土交通省",
          "source": "KSJ2",
          "source_ref": "http://nlftp.mlit.go.jp/ksj/jpgis/datalist/KsjTmplt-P02-v2_0.html"
        }
      }
    },
    {
      "type": "Feature",
      "geometry": {
        "type": "Point",
        "coordinates": [
          139.806709,
          35.692931
        ]
      },
      "properties": {
        "id": "node/1420781748",
        "ward": "sumida",
        "category": "fire_station",
        "name": "本所消防署緑出張所",
        "tags": {
          "@id": "node/1420781748",
          "amenity": "fire_station",
          "name": "本所消防署緑出張所",
          "source": "KSJ2"
        }
      }
    },
    {
      "type": "Feature",
      "geometry": {
        "type": "Point",
        "coordinates": [
          139.7959907,
          35.6943156
        ]
      },
      "properties": {
        "id": "node/1420781750",
        "ward": "sumida",
        "category": "police",
        "name": "両国交番",
        "tags": {
          "@id": "node/1420781750",
          "amenity": "police",
          "name": "両国交番",
          "name:en": "Ryogoku Police Box",
          "source": "KSJ2"
        }
      }
    },
    {
      "type": "Feature",
      "geometry": {
        "type": "Point",
        "coordinates": [
          139.80454,
          35.708846
        ]
      },
      "properties": {
        "id": "node/1420781753",
        "ward": "sumida",
        "category": "police",
        "name": "本所警察署吾妻橋交番",
        "tags": {
          "@id": "node/1420781753",
          "amenity": "police",
          "name": "本所警察署吾妻橋交番",
          "name:en": "Koban",
          "note": "National-Land Numerical Information (Public Facility) 2006, MLIT Japan",
          "note:ja": "国土数値情報（公共施設データ）平成19年　国土交通省",
          "source": "KSJ2",
          "source_ref": "http://nlftp.mlit.go.jp/ksj/jpgis/datalist/KsjTmplt-P02-v2_0.html"
        }
      }
    },
    {
      "type": "Feature",
      "geometry": {
        "type": "Point",
        "coordinates": [
          139.7997735,
          35.7038496
        ]
      },
      "properties": {
        "id": "node/1420781754",
        "ward": "sumida",
        "category": "police",
        "name": "本所警察署 廐橋地域安全センター",
        "tags": {
          "@id": "node/1420781754",
          "amenity": "police",
          "name": "本所警察署 廐橋地域安全センター",
          "note": "National-Land Numerical Information (Public Facility) 2006, MLIT Japan",
          "note:ja": "国土数値情報（公共施設データ）平成19年　国土交通省",
          "source": "KSJ2",
          "source_ref": "http://nlftp.mlit.go.jp/ksj/jpgis/datalist/KsjTmplt-P02-v2_0.html"
        }
      }
    },
    {
      "type": "Feature",
      "geometry": {
        "type": "Point",
        "coordinates": [
          139.814568,
          35.704346
        ]
      },
      "properties": {
        "id": "node/1420781756",
        "ward": "sumida",
        "category": "police",
        "name": "本所警察署横川交番",
        "tags": {
          "@id": "node/1420781756",
          "KSJ2:ADS": "横川4-7-2",
          "KSJ2:AdminArea": "東京都墨田区",
          "KSJ2:PubFacAdmin": "都道府県",
          "amenity": "police",
          "name": "本所警察署横川交番",
          "note": "National-Land Numerical Information (Public Facility) 2006, MLIT Japan",
          "note:ja": "国土数値情報（公共施設データ）平成19年　国土交通省",
          "source": "KSJ2",
          "source_ref": "http://nlftp.mlit.go.jp/ksj/jpgis/datalist/KsjTmplt-P02-v2_0.html"
        }
      }
    },
    {
      "type": "Feature",
      "geometry": {
        "type": "Point",
        "coordinates": [
          139.8085755,
          35.6949499
        ]
      },
      "properties": {
        "id": "node/1420781758",
        "ward": "sumida",
        "category": "police",
        "name": "本所警察署江東橋交番",
        "tags": {
          "@id": "node/1420781758",
          "amenity": "police",
          "name": "本所警察署江東橋交番",
          "source": "KSJ2"
        }
      }
    },
    {
      "type": "Feature",
      "geometry": {
        "type": "Point",
        "coordinates": [
          139.8039496,
          35.7004354
        ]
      },
      "properties": {
        "id": "node/1420781759",
        "ward": "sumida",
        "category": "police",
        "name": "本所警察署石原三丁目交番",
        "tags": {
          "@id": "node/1420781759",
          "amenity": "police",
          "name": "本所警察署石原三丁目交番",
          "name:en": "Koban",
          "note": "National-Land Numerical Information (Public Facility) 2006, MLIT Japan",
          "note:ja": "国土数値情報（公共施設データ）平成19年　国土交通省",
          "source": "KSJ2",
          "source_ref": "http://nlftp.mlit.go.jp/ksj/jpgis/datalist/KsjTmplt-P02-v2_0.html"
        }
      }
    },
    {
      "type": "Feature",
      "geometry": {
        "type": "Point",
        "coordinates": [
          139.8056603,
          35.6899872
        ]
      },
      "properties": {
        "id": "node/1420781760",
        "ward": "sumida",
        "category": "police",
        "name": "本所警察署菊川二丁目交番",
        "tags": {
          "@id": "node/1420781760",
          "amenity": "police",
          "name": "本所警察署菊川二丁目交番",
          "source": "KSJ2"
        }
      }
    },
    {
      "type": "Feature",
      "geometry": {
        "type": "Point",
        "coordinates": [
          139.799763,
          35.709902
        ]
      },
      "properties": {
        "id": "node/1420781764",
        "ward": "sumida",
        "category": "police",
        "name": "本所警察署駒形橋交番",
        "tags": {
          "@id": "node/1420781764",
          "amenity": "police",
          "name": "本所警察署駒形橋交番",
          "name:en": "Koban",
          "note": "National-Land Numerical Information (Public Facility) 2006, MLIT Japan",
          "note:ja": "国土数値情報（公共施設データ）平成19年　国土交通省",
          "source": "KSJ2",
          "source_ref": "http://nlftp.mlit.go.jp/ksj/jpgis/datalist/KsjTmplt-P02-v2_0.html"
        }
      }
    },
    {
      "type": "Feature",
      "geometry": {
        "type": "Point",
        "coordinates": [
          139.8150432,
          35.7242468
        ]
      },
      "properties": {
        "id": "node/5817935851",
        "ward": "sumida",
        "category": "aed",
        "name": "",
        "tags": {
          "@id": "node/5817935851",
          "emergency": "defibrillator",
          "indoor": "yes"
        }
      }
    },
    {
      "type": "Feature",
      "geometry": {
        "type": "Point",
        "coordinates": [
          139.8133261,
          35.697597
        ]
      },
      "properties": {
        "id": "node/6108958004",
        "ward": "sumida",
        "category": "aed",
        "name": "",
        "tags": {
          "@id": "node/6108958004",
          "emergency": "defibrillator"
        }
      }
    },
    {
      "type": "Feature",
      "geometry": {
        "type": "Point",
        "coordinates": [
          139.8107975,
          35.7130579
        ]
      },
      "properties": {
        "id": "node/6634641376",
        "ward": "sumida",
        "category": "fire_station",
        "name": "本所消防署 小梅出張所",
        "tags": {
          "@id": "node/6634641376",
          "amenity": "fire_station",
          "name": "本所消防署 小梅出張所",
          "name:en": "Main Office Fire Department Koume Branch Office"
        }
      }
    },
    {
      "type": "Feature",
      "geometry": {
        "type": "Point",
        "coordinates": [
          139.8060739,
          35.7128929
        ]
      },
      "properties": {
        "id": "node/7597801053",
        "ward": "sumida",
        "category": "aed",
        "name": "",
        "tags": {
          "@id": "node/7597801053",
          "emergency": "defibrillator"
        }
      }
    },
    {
      "type": "Feature",
      "geometry": {
        "type": "Point",
        "coordinates": [
          139.7939216,
          35.6956986
        ]
      },
      "properties": {
        "id": "node/9388082342",
        "ward": "sumida",
        "category": "aed",
        "name": "",
        "tags": {
          "@id": "node/9388082342",
          "emergency": "defibrillator",
          "indoor": "yes"
        }
      }
    },
    {
      "type": "Feature",
      "geometry": {
        "type": "Point",
        "coordinates": [
          139.8125993,
          35.706472
        ]
      },
      "properties": {
        "id": "node/10572028663",
        "ward": "sumida",
        "category": "assembly_point",
        "name": "",
        "tags": {
          "@id": "node/10572028663",
          "emergency": "assembly_point"
        }
      }
    },
    {
      "type": "Feature",
      "geometry": {
        "type": "Point",
        "coordinates": [
          139.8181402,
          35.6982211
        ]
      },
      "properties": {
        "id": "node/11758198597",
        "ward": "sumida",
        "category": "aed",
        "name": "",
        "tags": {
          "@id": "node/11758198597",
          "emergency": "defibrillator",
          "fixme": "場所を修正",
          "indoor": "yes"
        }
      }
    },
    {
      "type": "Feature",
      "geometry": {
        "type": "Point",
        "coordinates": [
          139.8108533,
          35.7161605
        ]
      },
      "properties": {
        "id": "node/13424089939",
        "ward": "sumida",
        "category": "police",
        "name": "向島交番",
        "tags": {
          "@id": "node/13424089939",
          "addr:block_number": "1",
          "addr:city": "墨田区",
          "addr:housenumber": "5",
          "addr:neighbourhood": "向島四丁目",
          "addr:province": "東京都",
          "addr:quarter": "向島",
          "amenity": "police",
          "name": "向島交番",
          "name:en": "Mukojima Police Box",
          "name:ja": "向島交番",
          "operator": "警視庁本所警察署"
        }
      }
    },
    {
      "type": "Feature",
      "geometry": {
        "type": "Point",
        "coordinates": [
          139.8104535,
          35.6982471
        ]
      },
      "properties": {
        "id": "node/13449444061",
        "ward": "sumida",
        "category": "aed",
        "name": "",
        "tags": {
          "@id": "node/13449444061",
          "emergency": "defibrillator"
        }
      }
    }
  ]
}