{
  "type": "FeatureCollection",
  "generator": "overpass-turbo",
  "copyright": "The data included in this document is from www.openstreetmap.org. The data is made available under ODbL.",
  "timestamp": "2026-01-29T07:29:58Z",
  "features": [
    {
      "type": "Feature",
      "properties": {
        "@id": "way/161968080",
        "amenity": "police",
        "building": "yes",
        "name": "本富士警察署",
        "name:en": "Hon Fuji Police Station",
        "name:es": "Estación de policía Hon Fuji",
        "note": "National-Land Numerical Information (Public Facility) 2006, MLIT Japan",
        "note:ja": "国土数値情報（公共施設データ）平成19年　国土交通省",
        "source": "KSJ2",
        "source_ref": "http://nlftp.mlit.go.jp/ksj/jpgis/datalist/KsjTmplt-P02-v2_0.html",
        "wikidata": "Q11520153",
        "@geometry": "center"
      },
      "geometry": {
        "type": "Point",
        "coordinates": [
          139.763401,
          35.7077353
        ]
      },
      "id": "way/161968080"
    },
    {
      "type": "Feature",
      "properties": {
        "@id": "way/161968228",
        "addr:postcode": "113-0033",
        "amenity": "fire_station",
        "building": "yes",
        "building:levels": "3",
        "fax": "+81-3-38134617",
        "name": "本郷消防署",
        "name:en": "Hongo Fire Station",
        "name:es": "Estación de bomberos Hongo",
        "name:ja": "本郷消防署",
        "note": "National-Land Numerical Information (Public Facility) 2006, MLIT Japan",
        "note:ja": "国土数値情報（公共施設データ）平成19年　国土交通省",
        "operator": "東京消防庁第五消防方面本部",
        "phone": "+81-3-38150119",
        "roof:shape": "flat",
        "source": "KSJ2;(URL)",
        "source_ref": "http://nlftp.mlit.go.jp/ksj/jpgis/datalist/KsjTmplt-P02-v2_0.html",
        "website": "http://www.tfd.metro.tokyo.jp/hp-hongou/",
        "@geometry": "center"
      },
      "geometry": {
        "type": "Point",
        "coordinates": [
          139.7629586,
          35.7078547
        ]
      },
      "id": "way/161968228"
    },
    {
      "type": "Feature",
      "properties": {
        "@id": "way/170603376",
        "amenity": "police",
        "building": "yes",
        "building:levels": "2",
        "name": "本富士警察署本郷交番",
        "name:en": "Koban",
        "note": "National-Land Numerical Information (Public Facility) 2006, MLIT Japan",
        "note:ja": "国土数値情報（公共施設データ）平成19年　国土交通省",
        "roof:shape": "flat",
        "source": "KSJ2",
        "source_ref": "http://nlftp.mlit.go.jp/ksj/jpgis/datalist/KsjTmplt-P02-v2_0.html",
        "@geometry": "center"
      },
      "geometry": {
        "type": "Point",
        "coordinates": [
          139.7604116,
          35.7076351
        ]
      },
      "id": "way/170603376"
    },
    {
      "type": "Feature",
      "properties": {
        "@id": "way/196086275",
        "amenity": "police",
        "building": "yes",
        "building:levels": "2",
        "check_date": "2025-06-22",
        "name": "本富士警察署根津交番",
        "note": "National-Land Numerical Information (Public Facility) 2006, MLIT Japan",
        "note:ja": "国土数値情報（公共施設データ）平成19年　国土交通省",
        "source": "KSJ2",
        "source_ref": "http://nlftp.mlit.go.jp/ksj/jpgis/datalist/KsjTmplt-P02-v2_0.html",
        "@geometry": "center"
      },
      "geometry": {
        "type": "Point",
        "coordinates": [
          139.7637491,
          35.719161
        ]
      },
      "id": "way/196086275"
    },
    {
      "type": "Feature",
      "properties": {
        "@id": "way/268532863",
        "amenity": "police",
        "building": "yes",
        "name": "大塚警察署護国寺前交番",
        "name:en": "Koban",
        "note": "National-Land Numerical Information (Public Facility) 2006, MLIT Japan",
        "note:ja": "国土数値情報（公共施設データ）平成19年　国土交通省",
        "source": "KSJ2",
        "source_ref": "http://nlftp.mlit.go.jp/ksj/jpgis/datalist/KsjTmplt-P02-v2_0.html",
        "@geometry": "center"
      },
      "geometry": {
        "type": "Point",
        "coordinates": [
          139.7270097,
          35.7202098
        ]
      },
      "id": "way/268532863"
    },
    {
      "type": "Feature",
      "properties": {
        "@id": "way/468349905",
        "amenity": "police",
        "building": "university",
        "building:levels": "1",
        "name": "守衛詰所",
        "name:en": "Gatehouse",
        "operator": "東京大学",
        "@geometry": "center"
      },
      "geometry": {
        "type": "Point",
        "coordinates": [
          139.7605631,
          35.7107433
        ]
      },
      "id": "way/468349905"
    },
    {
      "type": "Feature",
      "properties": {
        "@id": "way/501179306",
        "addr:block_number": "26",
        "addr:city": "文京区",
        "addr:neighbourhood": "3丁目",
        "addr:province": "東京都",
        "addr:quarter": "湯島",
        "amenity": "police",
        "building": "yes",
        "building:levels": "3",
        "name": "本富士警察署天神町交番",
        "name:en": "Koban Police",
        "name:es": "Policía de Koban",
        "note": "National-Land Numerical Information (Public Facility) 2006, MLIT Japan",
        "note:ja": "国土数値情報（公共施設データ）平成19年　国土交通省",
        "roof:shape": "gabled",
        "source": "KSJ2",
        "source_ref": "http://nlftp.mlit.go.jp/ksj/jpgis/datalist/KsjTmplt-P02-v2_0.html",
        "@geometry": "center"
      },
      "geometry": {
        "type": "Point",
        "coordinates": [
          139.7698007,
          35.7072201
        ]
      },
      "id": "way/501179306"
    },
    {
      "type": "Feature",
      "properties": {
        "@id": "way/620180917",
        "addr:block_number": "5",
        "addr:city": "文京区",
        "addr:housenumber": "7",
        "addr:neighbourhood": "小石川五丁目",
        "addr:postcode": "112-0002",
        "addr:province": "東京都",
        "amenity": "police",
        "building": "yes",
        "building:levels": "2",
        "name": "大塚警察署 茗荷谷駅前交番",
        "name:en": "Myogadani Police Substation (Koban)",
        "name:ja": "大塚警察署 茗荷谷駅前交番",
        "note": "National-Land Numerical Information (Public Facility) 2006, MLIT Japan",
        "note:ja": "国土数値情報（公共施設データ）平成19年　国土交通省",
        "operator": "大塚警察署",
        "source": "KSJ2",
        "source_ref": "http://nlftp.mlit.go.jp/ksj/jpgis/datalist/KsjTmplt-P02-v2_0.html",
        "@geometry": "center"
      },
      "geometry": {
        "type": "Point",
        "coordinates": [
          139.7366459,
          35.7180706
        ]
      },
      "id": "way/620180917"
    },
    {
      "type": "Feature",
      "properties": {
        "@id": "way/874543026",
        "amenity": "police",
        "building": "yes",
        "layer": "1",
        "@geometry": "center"
      },
      "geometry": {
        "type": "Point",
        "coordinates": [
          139.7280114,
          35.7171072
        ]
      },
      "id": "way/874543026"
    },
    {
      "type": "Feature",
      "properties": {
        "@id": "way/1347122871",
        "amenity": "police",
        "name": "駒込警察署",
        "name:en": "Komagome Police Station",
        "note": "National-Land Numerical Information (Public Facility) 2006, MLIT Japan",
        "note:ja": "国土数値情報（公共施設データ）平成19年　国土交通省",
        "source": "KSJ2",
        "source_ref": "http://nlftp.mlit.go.jp/ksj/jpgis/datalist/KsjTmplt-P02-v2_0.html",
        "wikidata": "Q11668445",
        "@geometry": "center"
      },
      "geometry": {
        "type": "Point",
        "coordinates": [
          139.748416,
          35.7310578
        ]
      },
      "id": "way/1347122871"
    },
    {
      "type": "Feature",
      "properties": {
        "@id": "way/1359319418",
        "amenity": "police",
        "defibrillator": "separate",
        "name": "駒込警察署 上富士前交番",
        "name:en": "Koban",
        "note": "National-Land Numerical Information (Public Facility) 2006, MLIT Japan",
        "note:ja": "国土数値情報（公共施設データ）平成19年 国土交通省",
        "source": "KSJ2",
        "source_ref": "http://nlftp.mlit.go.jp/ksj/jpgis/datalist/KsjTmplt-P02-v2_0.html",
        "@geometry": "center"
      },
      "geometry": {
        "type": "Point",
        "coordinates": [
          139.7496388,
          35.7322785
        ]
      },
      "id": "way/1359319418"
    },
    {
      "type": "Feature",
      "properties": {
        "@id": "node/1420773103",
        "amenity": "police",
        "name": "大塚警察署",
        "name:en": "Otsuka Police Station",
        "note": "National-Land Numerical Information (Public Facility) 2006, MLIT Japan",
        "note:ja": "国土数値情報（公共施設データ）平成19年　国土交通省",
        "source": "KSJ2",
        "source_ref": "http://nlftp.mlit.go.jp/ksj/jpgis/datalist/KsjTmplt-P02-v2_0.html",
        "wikidata": "Q11434101"
      },
      "geometry": {
        "type": "Point",
        "coordinates": [
          139.728101,
          35.717177
        ]
      },
      "id": "node/1420773103"
    },
    {
      "type": "Feature",
      "properties": {
        "@id": "node/1420773107",
        "amenity": "police",
        "name": "大塚警察署大塚六丁目交番",
        "name:en": "Koban",
        "note": "National-Land Numerical Information (Public Facility) 2006, MLIT Japan",
        "note:ja": "国土数値情報（公共施設データ）平成19年　国土交通省",
        "source": "KSJ2",
        "source_ref": "http://nlftp.mlit.go.jp/ksj/jpgis/datalist/KsjTmplt-P02-v2_0.html"
      },
      "geometry": {
        "type": "Point",
        "coordinates": [
          139.7284973,
          35.7252359
        ]
      },
      "id": "node/1420773107"
    },
    {
      "type": "Feature",
      "properties": {
        "@id": "node/1420773111",
        "amenity": "police",
        "name": "小日向地域安全センター",
        "name:en": "Kohinata Regional Safety Center",
        "note": "National-Land Numerical Information (Public Facility) 2006, MLIT Japan",
        "note:ja": "国土数値情報（公共施設データ）平成19年　国土交通省",
        "operator": "大塚警察署",
        "source": "KSJ2",
        "source_ref": "http://nlftp.mlit.go.jp/ksj/jpgis/datalist/KsjTmplt-P02-v2_0.html"
      },
      "geometry": {
        "type": "Point",
        "coordinates": [
          139.7404629,
          35.7109335
        ]
      },
      "id": "node/1420773111"
    },
    {
      "type": "Feature",
      "properties": {
        "@id": "node/1420773115",
        "amenity": "police",
        "name": "大塚警察署江戸川交番",
        "note": "National-Land Numerical Information (Public Facility) 2006, MLIT Japan",
        "note:ja": "国土数値情報（公共施設データ）平成19年　国土交通省",
        "source": "KSJ2",
        "source_ref": "http://nlftp.mlit.go.jp/ksj/jpgis/datalist/KsjTmplt-P02-v2_0.html"
      },
      "geometry": {
        "type": "Point",
        "coordinates": [
          139.7311612,
          35.7103423
        ]
      },
      "id": "node/1420773115"
    },
    {
      "type": "Feature",
      "properties": {
        "@id": "node/1420773119",
        "amenity": "police",
        "name": "大塚警察署 目白台交番",
        "name:en": "Koban",
        "note": "National-Land Numerical Information (Public Facility) 2006, MLIT Japan",
        "note:ja": "国土数値情報（公共施設データ）平成19年　国土交通省",
        "source": "KSJ2",
        "source_ref": "http://nlftp.mlit.go.jp/ksj/jpgis/datalist/KsjTmplt-P02-v2_0.html"
      },
      "geometry": {
        "type": "Point",
        "coordinates": [
          139.7195723,
          35.7161063
        ]
      },
      "id": "node/1420773119"
    },
    {
      "type": "Feature",
      "properties": {
        "@id": "node/1420775102",
        "addr:block_number": "14",
        "addr:city": "文京区",
        "addr:housenumber": "2",
        "addr:neighbourhood": "小石川二丁目",
        "addr:province": "東京都",
        "amenity": "police",
        "name": "富坂警察署",
        "note": "National-Land Numerical Information (Public Facility) 2006, MLIT Japan",
        "note:ja": "国土数値情報（公共施設データ）平成19年　国土交通省",
        "operator": "警視庁",
        "source": "KSJ2",
        "source_ref": "http://nlftp.mlit.go.jp/ksj/jpgis/datalist/KsjTmplt-P02-v2_0.html",
        "wheelchair": "no",
        "wikidata": "Q11455833"
      },
      "geometry": {
        "type": "Point",
        "coordinates": [
          139.747044,
          35.710539
        ]
      },
      "id": "node/1420775102"
    },
    {
      "type": "Feature",
      "properties": {
        "@id": "node/1420775109",
        "amenity": "police",
        "name": "富坂警察署千石一丁目交番",
        "name:en": "Koban",
        "note": "National-Land Numerical Information (Public Facility) 2006, MLIT Japan",
        "note:ja": "国土数値情報（公共施設データ）平成19年　国土交通省",
        "source": "KSJ2",
        "source_ref": "http://nlftp.mlit.go.jp/ksj/jpgis/datalist/KsjTmplt-P02-v2_0.html"
      },
      "geometry": {
        "type": "Point",
        "coordinates": [
          139.7451042,
          35.7274945
        ]
      },
      "id": "node/1420775109"
    },
    {
      "type": "Feature",
      "properties": {
        "@id": "node/1420775110",
        "amenity": "police",
        "name": "富坂警察署後楽交番",
        "note": "National-Land Numerical Information (Public Facility) 2006, MLIT Japan",
        "note:ja": "国土数値情報（公共施設データ）平成19年　国土交通省",
        "source": "KSJ2",
        "source_ref": "http://nlftp.mlit.go.jp/ksj/jpgis/datalist/KsjTmplt-P02-v2_0.html"
      },
      "geometry": {
        "type": "Point",
        "coordinates": [
          139.7453146,
          35.7031619
        ]
      },
      "id": "node/1420775110"
    },
    {
      "type": "Feature",
      "properties": {
        "@id": "node/1420775120",
        "amenity": "police",
        "emergency": "defibrillator",
        "indoor": "yes",
        "name": "富坂警察署春日交番;AED",
        "name:en": "Koban",
        "note": "National-Land Numerical Information (Public Facility) 2006, MLIT Japan",
        "note:ja": "国土数値情報（公共施設データ）平成19年　国土交通省",
        "source": "KSJ2",
        "source_ref": "http://nlftp.mlit.go.jp/ksj/jpgis/datalist/KsjTmplt-P02-v2_0.html"
      },
      "geometry": {
        "type": "Point",
        "coordinates": [
          139.7533473,
          35.7082168
        ]
      },
      "id": "node/1420775120"
    },
    {
      "type": "Feature",
      "properties": {
        "@id": "node/1420775124",
        "amenity": "police",
        "name": "富坂警察署東京ドーム警備派出所",
        "note": "National-Land Numerical Information (Public Facility) 2006, MLIT Japan",
        "note:ja": "国土数値情報（公共施設データ）平成19年　国土交通省",
        "source": "KSJ2",
        "source_ref": "http://nlftp.mlit.go.jp/ksj/jpgis/datalist/KsjTmplt-P02-v2_0.html"
      },
      "geometry": {
        "type": "Point",
        "coordinates": [
          139.7534943,
          35.7056311
        ]
      },
      "id": "node/1420775124"
    },
    {
      "type": "Feature",
      "properties": {
        "@id": "node/1420775134",
        "amenity": "police",
        "name": "富坂警察署白山交番",
        "name:en": "Koban",
        "note": "National-Land Numerical Information (Public Facility) 2006, MLIT Japan",
        "note:ja": "国土数値情報（公共施設データ）平成19年　国土交通省",
        "source": "KSJ2",
        "source_ref": "http://nlftp.mlit.go.jp/ksj/jpgis/datalist/KsjTmplt-P02-v2_0.html"
      },
      "geometry": {
        "type": "Point",
        "coordinates": [
          139.7514219,
          35.7194327
        ]
      },
      "id": "node/1420775134"
    },
    {
      "type": "Feature",
      "properties": {
        "@id": "node/1420775138",
        "amenity": "police",
        "name": "富坂警察署 竹早交番",
        "name:en": "Koban",
        "note": "National-Land Numerical Information (Public Facility) 2006, MLIT Japan",
        "note:ja": "国土数値情報（公共施設データ）平成19年　国土交通省",
        "source": "KSJ2",
        "source_ref": "http://nlftp.mlit.go.jp/ksj/jpgis/datalist/KsjTmplt-P02-v2_0.html"
      },
      "geometry": {
        "type": "Point",
        "coordinates": [
          139.7406881,
          35.7139619
        ]
      },
      "id": "node/1420775138"
    },
    {
      "type": "Feature",
      "properties": {
        "@id": "node/1420776274",
        "KSJ2:PubFacAdmin": "市区町村",
        "addr:block_number": "3",
        "addr:city": "文京区",
        "addr:housenumber": "1",
        "addr:neighbourhood": "白山三丁目",
        "addr:postcode": "112-0001",
        "addr:province": "東京都",
        "amenity": "fire_station",
        "name": "小石川消防署",
        "name:en": "Koisikawa Fire Station",
        "name:ja": "小石川消防署",
        "note": "National-Land Numerical Information (Public Facility) 2006, MLIT Japan",
        "note:ja": "国土数値情報（公共施設データ）平成19年　国土交通省",
        "operator": "東京消防庁第五消防方面本部",
        "phone": "+81-3-38120119",
        "source": "KSJ2; (URL)",
        "source_ref": "http://nlftp.mlit.go.jp/ksj/jpgis/datalist/KsjTmplt-P02-v2_0.html",
        "website": "http://www.tfd.metro.tokyo.jp/hp-koisikawa/"
      },
      "geometry": {
        "type": "Point",
        "coordinates": [
          139.7428135,
          35.7190961
        ]
      },
      "id": "node/1420776274"
    },
    {
      "type": "Feature",
      "properties": {
        "@id": "node/1420776278",
        "amenity": "fire_station",
        "name": "小石川消防署大塚出張所",
        "name:en": "Koishikawa Fire Station Otsuka Branch",
        "note": "National-Land Numerical Information (Public Facility) 2006, MLIT Japan",
        "note:ja": "国土数値情報（公共施設データ）平成19年　国土交通省",
        "source": "KSJ2",
        "source_ref": "http://nlftp.mlit.go.jp/ksj/jpgis/datalist/KsjTmplt-P02-v2_0.html"
      },
      "geometry": {
        "type": "Point",
        "coordinates": [
          139.7318355,
          35.7219047
        ]
      },
      "id": "node/1420776278"
    },
    {
      "type": "Feature",
      "properties": {
        "@id": "node/1420776284",
        "KSJ2:PubFacAdmin": "市区町村",
        "addr:block_number": "20",
        "addr:city": "文京区",
        "addr:housenumber": "14",
        "addr:neighbourhood": "目白台一丁目",
        "addr:province": "東京都",
        "amenity": "fire_station",
        "name": "小石川消防署老松出張所",
        "note": "National-Land Numerical Information (Public Facility) 2006, MLIT Japan",
        "note:ja": "国土数値情報（公共施設データ）平成19年　国土交通省",
        "source": "KSJ2",
        "source_ref": "http://nlftp.mlit.go.jp/ksj/jpgis/datalist/KsjTmplt-P02-v2_0.html"
      },
      "geometry": {
        "type": "Point",
        "coordinates": [
          139.723352,
          35.715177
        ]
      },
      "id": "node/1420776284"
    },
    {
      "type": "Feature",
      "properties": {
        "@id": "node/1420781737",
        "amenity": "police",
        "name": "本富士警察署壱岐坂交番",
        "note": "National-Land Numerical Information (Public Facility) 2006, MLIT Japan",
        "note:ja": "国土数値情報（公共施設データ）平成19年　国土交通省",
        "source": "KSJ2",
        "source_ref": "http://nlftp.mlit.go.jp/ksj/jpgis/datalist/KsjTmplt-P02-v2_0.html"
      },
      "geometry": {
        "type": "Point",
        "coordinates": [
          139.756468,
          35.7046397
        ]
      },
      "id": "node/1420781737"
    },
    {
      "type": "Feature",
      "properties": {
        "@id": "node/1420781739",
        "addr:block_number": "1",
        "addr:city": "文京区",
        "addr:housenumber": "1",
        "addr:neighbourhood": "弥生一丁目",
        "addr:province": "東京都",
        "amenity": "police",
        "name": "本富士警察署弥生町交番",
        "name:en": "Koban",
        "note": "National-Land Numerical Information (Public Facility) 2006, MLIT Japan",
        "note:ja": "国土数値情報（公共施設データ）平成19年　国土交通省",
        "source": "KSJ2",
        "source_ref": "http://nlftp.mlit.go.jp/ksj/jpgis/datalist/KsjTmplt-P02-v2_0.html",
        "wheelchair": "no"
      },
      "geometry": {
        "type": "Point",
        "coordinates": [
          139.758988,
          35.715539
        ]
      },
      "id": "node/1420781739"
    },
    {
      "type": "Feature",
      "properties": {
        "@id": "node/1420781742",
        "addr:block_number": "9",
        "addr:city": "文京区",
        "addr:housenumber": "16",
        "addr:neighbourhood": "湯島一丁目",
        "addr:province": "東京都",
        "amenity": "police",
        "name": "本富士警察署湯島交番",
        "note": "National-Land Numerical Information (Public Facility) 2006, MLIT Japan",
        "note:ja": "国土数値情報（公共施設データ）平成19年　国土交通省",
        "operator": "警視庁",
        "source": "KSJ2",
        "source_ref": "http://nlftp.mlit.go.jp/ksj/jpgis/datalist/KsjTmplt-P02-v2_0.html"
      },
      "geometry": {
        "type": "Point",
        "coordinates": [
          139.765988,
          35.701818
        ]
      },
      "id": "node/1420781742"
    },
    {
      "type": "Feature",
      "properties": {
        "@id": "node/1420781894",
        "amenity": "fire_station",
        "name": "本郷消防署根津出張所",
        "note": "National-Land Numerical Information (Public Facility) 2006, MLIT Japan",
        "note:ja": "国土数値情報（公共施設データ）平成19年　国土交通省",
        "source": "KSJ2",
        "source_ref": "http://nlftp.mlit.go.jp/ksj/jpgis/datalist/KsjTmplt-P02-v2_0.html"
      },
      "geometry": {
        "type": "Point",
        "coordinates": [
          139.7598891,
          35.7205371
        ]
      },
      "id": "node/1420781894"
    },
    {
      "type": "Feature",
      "properties": {
        "@id": "node/1420781899",
        "amenity": "fire_station",
        "name": "本郷消防署駒込出張所",
        "name:en": "Hongo Fire Station Komagome Branch",
        "note": "National-Land Numerical Information (Public Facility) 2006, MLIT Japan",
        "note:ja": "国土数値情報（公共施設データ）平成19年　国土交通省",
        "source": "KSJ2",
        "source_ref": "http://nlftp.mlit.go.jp/ksj/jpgis/datalist/KsjTmplt-P02-v2_0.html"
      },
      "geometry": {
        "type": "Point",
        "coordinates": [
          139.753794,
          35.725677
        ]
      },
      "id": "node/1420781899"
    },
    {
      "type": "Feature",
      "properties": {
        "@id": "node/1420795770",
        "addr:block_number": "5",
        "addr:city": "文京区",
        "addr:housenumber": "12",
        "addr:neighbourhood": "春日一丁目",
        "addr:province": "東京都",
        "amenity": "police",
        "name": "第五方面本部",
        "note": "National-Land Numerical Information (Public Facility) 2006, MLIT Japan",
        "note:ja": "国土数値情報（公共施設データ）平成19年　国土交通省",
        "source": "KSJ2",
        "source_ref": "http://nlftp.mlit.go.jp/ksj/jpgis/datalist/KsjTmplt-P02-v2_0.html"
      },
      "geometry": {
        "type": "Point",
        "coordinates": [
          139.747832,
          35.708215
        ]
      },
      "id": "node/1420795770"
    },
    {
      "type": "Feature",
      "properties": {
        "@id": "node/1420800130",
        "amenity": "police",
        "name": "駒込警察署 動坂交番",
        "name:en": "Koban",
        "note": "National-Land Numerical Information (Public Facility) 2006, MLIT Japan",
        "note:ja": "国土数値情報（公共施設データ）平成19年　国土交通省",
        "source": "KSJ2",
        "source_ref": "http://nlftp.mlit.go.jp/ksj/jpgis/datalist/KsjTmplt-P02-v2_0.html"
      },
      "geometry": {
        "type": "Point",
        "coordinates": [
          139.7575344,
          35.7307084
        ]
      },
      "id": "node/1420800130"
    },
    {
      "type": "Feature",
      "properties": {
        "@id": "node/1420800131",
        "amenity": "police",
        "name": "駒込警察署 団子坂交番",
        "name:en": "Koban",
        "note": "National-Land Numerical Information (Public Facility) 2006, MLIT Japan",
        "note:ja": "国土数値情報（公共施設データ）平成19年　国土交通省",
        "source": "KSJ2",
        "source_ref": "http://nlftp.mlit.go.jp/ksj/jpgis/datalist/KsjTmplt-P02-v2_0.html"
      },
      "geometry": {
        "type": "Point",
        "coordinates": [
          139.7635955,
          35.7271271
        ]
      },
      "id": "node/1420800131"
    },
    {
      "type": "Feature",
      "properties": {
        "@id": "node/1420800132",
        "amenity": "police",
        "name": "駒込警察署 浅嘉交番",
        "name:en": "Koban",
        "note": "National-Land Numerical Information (Public Facility) 2006, MLIT Japan",
        "note:ja": "国土数値情報（公共施設データ）平成19年　国土交通省",
        "source": "KSJ2",
        "source_ref": "http://nlftp.mlit.go.jp/ksj/jpgis/datalist/KsjTmplt-P02-v2_0.html"
      },
      "geometry": {
        "type": "Point",
        "coordinates": [
          139.7536409,
          35.7243358
        ]
      },
      "id": "node/1420800132"
    },
    {
      "type": "Feature",
      "properties": {
        "@id": "node/3464879766",
        "access": "no",
        "description": "源覚寺 小石川墓陵",
        "emergency": "defibrillator",
        "indoor": "yes",
        "opening_hours": "Mo-Su 10:00-20:00",
        "phone": "6670-1176"
      },
      "geometry": {
        "type": "Point",
        "coordinates": [
          139.7509861,
          35.7100846
        ]
      },
      "id": "node/3464879766"
    },
    {
      "type": "Feature",
      "properties": {
        "@id": "node/4691789768",
        "emergency": "defibrillator",
        "indoor": "yes"
      },
      "geometry": {
        "type": "Point",
        "coordinates": [
          139.7481631,
          35.7324417
        ]
      },
      "id": "node/4691789768"
    },
    {
      "type": "Feature",
      "properties": {
        "@id": "node/4794769556",
        "emergency": "defibrillator"
      },
      "geometry": {
        "type": "Point",
        "coordinates": [
          139.7481877,
          35.7049165
        ]
      },
      "id": "node/4794769556"
    },
    {
      "type": "Feature",
      "properties": {
        "@id": "node/4952076769",
        "emergency": "defibrillator",
        "indoor": "yes",
        "opening_hours": "Mo-Su 09:00-24:00",
        "source": "survey",
        "source_1": "bing"
      },
      "geometry": {
        "type": "Point",
        "coordinates": [
          139.7532496,
          35.708741
        ]
      },
      "id": "node/4952076769"
    },
    {
      "type": "Feature",
      "properties": {
        "@id": "node/4952078291",
        "defibrillator:location": "2F",
        "description": "２F 　インフォメーションセンター",
        "emergency": "defibrillator",
        "foot": "yes",
        "indoor": "yes",
        "level": "1",
        "opening_hours": "Mo-Sa 11:00-21:00",
        "phone": "03 3817 4163",
        "source": "survey"
      },
      "geometry": {
        "type": "Point",
        "coordinates": [
          139.7528684,
          35.7070608
        ]
      },
      "id": "node/4952078291"
    },
    {
      "type": "Feature",
      "properties": {
        "@id": "node/4952079781",
        "emergency": "defibrillator",
        "indoor": "yes",
        "source": "survey",
        "source_1": "bing"
      },
      "geometry": {
        "type": "Point",
        "coordinates": [
          139.7530019,
          35.7091986
        ]
      },
      "id": "node/4952079781"
    },
    {
      "type": "Feature",
      "properties": {
        "@id": "node/4952080296",
        "description": "１F 　マツモトキヨシの中",
        "emergency": "defibrillator",
        "indoor": "yes",
        "level": "0"
      },
      "geometry": {
        "type": "Point",
        "coordinates": [
          139.7530548,
          35.7071193
        ]
      },
      "id": "node/4952080296"
    },
    {
      "type": "Feature",
      "properties": {
        "@id": "node/4952081011",
        "access": "private",
        "emergency": "defibrillator",
        "indoor": "yes",
        "source": "survey",
        "source_1": "bing"
      },
      "geometry": {
        "type": "Point",
        "coordinates": [
          139.7527987,
          35.70921
        ]
      },
      "id": "node/4952081011"
    },
    {
      "type": "Feature",
      "properties": {
        "@id": "node/4952082887",
        "access": "private",
        "description": "７F　プール監視室",
        "emergency": "defibrillator",
        "foot": "yes",
        "indoor": "yes",
        "level": "6"
      },
      "geometry": {
        "type": "Point",
        "coordinates": [
          139.7531377,
          35.7072149
        ]
      },
      "id": "node/4952082887"
    },
    {
      "type": "Feature",
      "properties": {
        "@id": "node/4952082962",
        "description": "富坂警察署春日交番内",
        "emergency": "defibrillator"
      },
      "geometry": {
        "type": "Point",
        "coordinates": [
          139.7533332,
          35.7081529
        ]
      },
      "id": "node/4952082962"
    },
    {
      "type": "Feature",
      "properties": {
        "@id": "node/4952084093",
        "emergency": "defibrillator",
        "indoor": "yes",
        "opening_hours": "Mo-Fr 08:45-19:00; Sa 09:00-17:00",
        "source": "survey",
        "source_1": "bing"
      },
      "geometry": {
        "type": "Point",
        "coordinates": [
          139.7531884,
          35.7089179
        ]
      },
      "id": "node/4952084093"
    },
    {
      "type": "Feature",
      "properties": {
        "@id": "node/4952085996",
        "description": "3F マツモトキヨシ",
        "emergency": "defibrillator"
      },
      "geometry": {
        "type": "Point",
        "coordinates": [
          139.751547,
          35.7071435
        ]
      },
      "id": "node/4952085996"
    },
    {
      "type": "Feature",
      "properties": {
        "@id": "node/4952086492",
        "access": "private",
        "description": "６F スパラクーア",
        "emergency": "defibrillator",
        "level": "5"
      },
      "geometry": {
        "type": "Point",
        "coordinates": [
          139.7531949,
          35.7071212
        ]
      },
      "id": "node/4952086492"
    },
    {
      "type": "Feature",
      "properties": {
        "@id": "node/4952090311",
        "description": "１F　入口",
        "emergency": "defibrillator"
      },
      "geometry": {
        "type": "Point",
        "coordinates": [
          139.7534554,
          35.7079744
        ]
      },
      "id": "node/4952090311"
    },
    {
      "type": "Feature",
      "properties": {
        "@id": "node/4952091882",
        "description": "丸ノ内線　後楽園駅　改札内",
        "emergency": "defibrillator"
      },
      "geometry": {
        "type": "Point",
        "coordinates": [
          139.7514122,
          35.7072838
        ]
      },
      "id": "node/4952091882"
    },
    {
      "type": "Feature",
      "properties": {
        "@id": "node/4952092128",
        "access": "permissive",
        "description": "キッセイ小石川ビル",
        "emergency": "defibrillator",
        "indoor": "yes",
        "source": "survey"
      },
      "geometry": {
        "type": "Point",
        "coordinates": [
          139.7453302,
          35.7111369
        ]
      },
      "id": "node/4952092128"
    },
    {
      "type": "Feature",
      "properties": {
        "@id": "node/4952092137",
        "access": "private",
        "description": "淑徳SC中等部・高等部",
        "emergency": "defibrillator",
        "indoor": "yes",
        "phone": "03-3811-0237",
        "source": "survey"
      },
      "geometry": {
        "type": "Point",
        "coordinates": [
          139.7475704,
          35.711952
        ]
      },
      "id": "node/4952092137"
    },
    {
      "type": "Feature",
      "properties": {
        "@id": "node/4952093947",
        "access": "private",
        "description": "７F　歯科口腔外科",
        "emergency": "defibrillator"
      },
      "geometry": {
        "type": "Point",
        "coordinates": [
          139.7534785,
          35.7079316
        ]
      },
      "id": "node/4952093947"
    },
    {
      "type": "Feature",
      "properties": {
        "@id": "node/4952094988",
        "emergency": "defibrillator",
        "indoor": "yes",
        "opening_hours": "Mo-Fr 08:00-18:00",
        "source": "survey",
        "source_1": "bing"
      },
      "geometry": {
        "type": "Point",
        "coordinates": [
          139.7521981,
          35.7123411
        ]
      },
      "id": "node/4952094988"
    },
    {
      "type": "Feature",
      "properties": {
        "@id": "node/4952099203",
        "description": "南北線　後楽園駅",
        "emergency": "defibrillator"
      },
      "geometry": {
        "type": "Point",
        "coordinates": [
          139.7516538,
          35.7074448
        ]
      },
      "id": "node/4952099203"
    },
    {
      "type": "Feature",
      "properties": {
        "@id": "node/4952104217",
        "emergency": "defibrillator",
        "indoor": "yes",
        "opening_hours": "Mo-Sa 07:00-24:00; Su 07:00-21:00",
        "source": "survey",
        "source_1": "bing"
      },
      "geometry": {
        "type": "Point",
        "coordinates": [
          139.7520941,
          35.7131155
        ]
      },
      "id": "node/4952104217"
    },
    {
      "type": "Feature",
      "properties": {
        "@id": "node/4952107838",
        "emergency": "defibrillator",
        "indoor": "yes",
        "phone": "03-3811-0016",
        "source": "survey",
        "source_1": "bing"
      },
      "geometry": {
        "type": "Point",
        "coordinates": [
          139.749973,
          35.7140256
        ]
      },
      "id": "node/4952107838"
    },
    {
      "type": "Feature",
      "properties": {
        "@id": "node/4952110522",
        "access": "private",
        "emergency": "defibrillator",
        "indoor": "yes",
        "source": "survey",
        "source_1": "bing"
      },
      "geometry": {
        "type": "Point",
        "coordinates": [
          139.7504583,
          35.7136822
        ]
      },
      "id": "node/4952110522"
    },
    {
      "type": "Feature",
      "properties": {
        "@id": "node/4952112356",
        "access": "yes",
        "emergency": "defibrillator",
        "indoor": "yes",
        "source": "survey"
      },
      "geometry": {
        "type": "Point",
        "coordinates": [
          139.7508692,
          35.7129273
        ]
      },
      "id": "node/4952112356"
    },
    {
      "type": "Feature",
      "properties": {
        "@id": "node/4952112357",
        "emergency": "defibrillator",
        "indoor": "yes",
        "source": "survey"
      },
      "geometry": {
        "type": "Point",
        "coordinates": [
          139.7497874,
          35.7127982
        ]
      },
      "id": "node/4952112357"
    },
    {
      "type": "Feature",
      "properties": {
        "@id": "node/4952114747",
        "access": "yes",
        "description": "礫川小学校",
        "emergency": "defibrillator",
        "indoor": "yes",
        "phone": "03-3811-7276"
      },
      "geometry": {
        "type": "Point",
        "coordinates": [
          139.7473655,
          35.7108583
        ]
      },
      "id": "node/4952114747"
    },
    {
      "type": "Feature",
      "properties": {
        "@id": "node/4952116416",
        "emergency": "defibrillator",
        "indoor": "yes",
        "source": "survey",
        "source_1": "bing"
      },
      "geometry": {
        "type": "Point",
        "coordinates": [
          139.7526625,
          35.7086574
        ]
      },
      "id": "node/4952116416"
    },
    {
      "type": "Feature",
      "properties": {
        "@id": "node/4952116884",
        "access": "yes",
        "description": "日本指圧専門学校",
        "emergency": "defibrillator",
        "indoor": "yes",
        "opening_hours": "Mo-Fr 08:00-21:30",
        "phone": "03-3813-7354"
      },
      "geometry": {
        "type": "Point",
        "coordinates": [
          139.7469648,
          35.7112943
        ]
      },
      "id": "node/4952116884"
    },
    {
      "type": "Feature",
      "properties": {
        "@id": "node/4952119842",
        "access": "private",
        "description": "男女トイレ間",
        "emergency": "defibrillator",
        "foot": "yes",
        "indoor": "yes",
        "name": "東京ドーム",
        "opening_hours": "Mo-Su 10:00-17:00",
        "phone": "0338113600",
        "source": "survey"
      },
      "geometry": {
        "type": "Point",
        "coordinates": [
          139.7529011,
          35.7052297
        ]
      },
      "id": "node/4952119842"
    },
    {
      "type": "Feature",
      "properties": {
        "@id": "node/4952119843",
        "access": "yes",
        "description": "フロント",
        "emergency": "defibrillator",
        "foot": "yes",
        "indoor": "yes",
        "name": "東京ドームホテルAED",
        "opening_hours": "24/7",
        "phone": "03 5805 2111",
        "source": "survey"
      },
      "geometry": {
        "type": "Point",
        "coordinates": [
          139.7531791,
          35.7033529
        ]
      },
      "id": "node/4952119843"
    },
    {
      "type": "Feature",
      "properties": {
        "@id": "node/4952119844",
        "access": "no",
        "description": "受付",
        "emergency": "defibrillator",
        "foot": "yes",
        "indoor": "yes",
        "name": "後楽園ホール",
        "opening_hours": "Mo-Su 10:00-19:00",
        "phone": "03 5800 9999",
        "source": "survey"
      },
      "geometry": {
        "type": "Point",
        "coordinates": [
          139.7522351,
          35.7041753
        ]
      },
      "id": "node/4952119844"
    },
    {
      "type": "Feature",
      "properties": {
        "@id": "node/4952119845",
        "access": "no",
        "description": "4F　ローラースケート受付",
        "emergency": "defibrillator",
        "foot": "yes",
        "indoor": "yes",
        "name": "東京ドーム黄色いビルAED",
        "opening_hours": "Mo-Fr 11:00-22:00,Sa 10:00-22:00,Su 10:00-21:00",
        "phone": "03 3817 6196",
        "source": "survey"
      },
      "geometry": {
        "type": "Point",
        "coordinates": [
          139.7521099,
          35.7033694
        ]
      },
      "id": "node/4952119845"
    },
    {
      "type": "Feature",
      "properties": {
        "@id": "node/4952119846",
        "access": "private",
        "description": "事務所内",
        "emergency": "defibrillator",
        "foot": "private",
        "indoor": "yes",
        "name": "プリズムホール事務所",
        "phone": "03 3817 6222",
        "source": "survey"
      },
      "geometry": {
        "type": "Point",
        "coordinates": [
          139.7533886,
          35.7046769
        ]
      },
      "id": "node/4952119846"
    },
    {
      "type": "Feature",
      "properties": {
        "@id": "node/4952122179",
        "access": "private",
        "description": "健康流水館",
        "emergency": "defibrillator",
        "indoor": "yes",
        "source": "survey"
      },
      "geometry": {
        "type": "Point",
        "coordinates": [
          139.7466108,
          35.7101454
        ]
      },
      "id": "node/4952122179"
    },
    {
      "type": "Feature",
      "properties": {
        "@id": "node/4952122180",
        "access": "private",
        "description": "朝日信用金庫",
        "emergency": "defibrillator",
        "indoor": "yes",
        "source": "survey"
      },
      "geometry": {
        "type": "Point",
        "coordinates": [
          139.7463654,
          35.709953
        ]
      },
      "id": "node/4952122180"
    },
    {
      "type": "Feature",
      "properties": {
        "@id": "node/4952122182",
        "access": "private",
        "emergency": "defibrillator",
        "indoor": "yes",
        "source": "survey"
      },
      "geometry": {
        "type": "Point",
        "coordinates": [
          139.7461026,
          35.7080974
        ]
      },
      "id": "node/4952122182"
    },
    {
      "type": "Feature",
      "properties": {
        "@id": "node/4952122183",
        "access": "private",
        "description": "筑波大学",
        "emergency": "defibrillator",
        "indoor": "yes",
        "source": "survey"
      },
      "geometry": {
        "type": "Point",
        "coordinates": [
          139.7475134,
          35.707749
        ]
      },
      "id": "node/4952122183"
    },
    {
      "type": "Feature",
      "properties": {
        "@id": "node/4958325354",
        "bicycle": "no",
        "description": "1F入口（シアターGロッソの階）",
        "emergency": "defibrillator",
        "foot": "yes",
        "horse": "no",
        "indoor": "yes",
        "motor_vehicle": "private",
        "name": "ジオポリス",
        "opening_hours": "Mo-Su 10:00-21:00",
        "phone": "03-3817-6001",
        "source": "survey"
      },
      "geometry": {
        "type": "Point",
        "coordinates": [
          139.7543245,
          35.7039467
        ]
      },
      "id": "node/4958325354"
    },
    {
      "type": "Feature",
      "properties": {
        "@id": "node/4958325355",
        "access": "private",
        "bicycle": "private",
        "description": "ミーツポート事務所内",
        "emergency": "defibrillator",
        "horse": "no",
        "motor_vehicle": "private",
        "name": "ミーツポート事務所_AED",
        "opening_hours": "Mo-Su 11:00-23:00",
        "source": "survey"
      },
      "geometry": {
        "type": "Point",
        "coordinates": [
          139.7547625,
          35.7030699
        ]
      },
      "id": "node/4958325355"
    },
    {
      "type": "Feature",
      "properties": {
        "@id": "node/4958325356",
        "access": "permissive",
        "description": "受付内",
        "emergency": "defibrillator",
        "horse": "no",
        "indoor": "yes",
        "name": "TOKYO DOME CITY HALL_AED",
        "opening_hours": "unknown",
        "phone": "03-3817-6150",
        "source": "survey"
      },
      "geometry": {
        "type": "Point",
        "coordinates": [
          139.7546006,
          35.7032604
        ]
      },
      "id": "node/4958325356"
    },
    {
      "type": "Feature",
      "properties": {
        "@id": "node/4958325357",
        "bicycle": "no",
        "description": "受付内向かって右",
        "emergency": "defibrillator",
        "foot": "yes",
        "horse": "no",
        "indoor": "yes",
        "name": "東京ドーム総合案内所",
        "opening_hours": "Mo-Su 10:00-21:00",
        "phone": "03-3817-6086",
        "source": "survey"
      },
      "geometry": {
        "type": "Point",
        "coordinates": [
          139.7532622,
          35.7047859
        ]
      },
      "id": "node/4958325357"
    },
    {
      "type": "Feature",
      "properties": {
        "@id": "node/4958325358",
        "bicycle": "no",
        "description": "2階",
        "emergency": "defibrillator",
        "horse": "no",
        "indoor": "yes",
        "motor_vehicle": "no",
        "name": "ウィンズ後楽園",
        "opening_hours": "unknown",
        "phone": "03-3815-2725",
        "source": "survey"
      },
      "geometry": {
        "type": "Point",
        "coordinates": [
          139.7517303,
          35.7035847
        ]
      },
      "id": "node/4958325358"
    },
    {
      "type": "Feature",
      "properties": {
        "@id": "node/4958325359",
        "bicycle": "no",
        "description": "「JR水道橋駅方面改札」改札外\n切符売り場向かって右",
        "emergency": "defibrillator",
        "foot": "yes",
        "horse": "no",
        "indoor": "yes",
        "motor_vehicle": "no",
        "name": "都営三田線水道橋駅_AED",
        "opening_hours": "Mo-Su 07:00-23:00",
        "phone": "03-3815-7068",
        "source": "survey"
      },
      "geometry": {
        "type": "Point",
        "coordinates": [
          139.7553653,
          35.702996
        ]
      },
      "id": "node/4958325359"
    },
    {
      "type": "Feature",
      "properties": {
        "@id": "node/4961219826",
        "access": "private",
        "description": "メゾンシェルマ",
        "emergency": "defibrillator",
        "indoor": "yes",
        "phone": "03-3811-3221"
      },
      "geometry": {
        "type": "Point",
        "coordinates": [
          139.749479,
          35.7104618
        ]
      },
      "id": "node/4961219826"
    },
    {
      "type": "Feature",
      "properties": {
        "@id": "node/4961270070",
        "access": "yes",
        "description": "富阪警察署",
        "emergency": "defibrillator",
        "indoor": "yes",
        "opening_hours": "24/7",
        "phone": "03-3814-0110"
      },
      "geometry": {
        "type": "Point",
        "coordinates": [
          139.7470046,
          35.7104986
        ]
      },
      "id": "node/4961270070"
    },
    {
      "type": "Feature",
      "properties": {
        "@id": "node/4961356418",
        "access": "private",
        "bicycle": "no",
        "emergency": "defibrillator",
        "horse": "no",
        "indoor": "yes",
        "motor_vehicle": "no",
        "name": "都立文京盲学校AED",
        "opening_hours": "Mo-Su 09:00-17:00",
        "phone": "03-3811-5714"
      },
      "geometry": {
        "type": "Point",
        "coordinates": [
          139.7465697,
          35.7057855
        ]
      },
      "id": "node/4961356418"
    },
    {
      "type": "Feature",
      "properties": {
        "@id": "node/4961356419",
        "access": "destination",
        "bicycle": "no",
        "emergency": "defibrillator",
        "horse": "no",
        "indoor": "yes",
        "motor_vehicle": "no",
        "name": "小石川運動所AED",
        "opening_hours": "Mo-Su 06:30-21:00",
        "phone": "03-3811-4507"
      },
      "geometry": {
        "type": "Point",
        "coordinates": [
          139.7464938,
          35.7048346
        ]
      },
      "id": "node/4961356419"
    },
    {
      "type": "Feature",
      "properties": {
        "@id": "node/4961356420",
        "access": "permissive",
        "bicycle": "no",
        "emergency": "defibrillator",
        "horse": "no",
        "indoor": "yes",
        "motor_vehicle": "no",
        "name": "警視庁遺失物センターAED",
        "opening_hours": "Mo-Su 08:30-17:15"
      },
      "geometry": {
        "type": "Point",
        "coordinates": [
          139.746323,
          35.7037249
        ]
      },
      "id": "node/4961356420"
    },
    {
      "type": "Feature",
      "properties": {
        "@id": "node/4961357822",
        "access": "private",
        "bicycle": "no",
        "emergency": "defibrillator",
        "horse": "no",
        "indoor": "yes",
        "motor_vehicle": "no",
        "name": "住宅金融公庫"
      },
      "geometry": {
        "type": "Point",
        "coordinates": [
          139.7506742,
          35.7033717
        ]
      },
      "id": "node/4961357822"
    },
    {
      "type": "Feature",
      "properties": {
        "@id": "node/4961357823",
        "access": "permissive",
        "bicycle": "no",
        "emergency": "defibrillator",
        "horse": "no",
        "indoor": "yes",
        "motor_vehicle": "no",
        "name": "東京トヨタ本社ビルAED"
      },
      "geometry": {
        "type": "Point",
        "coordinates": [
          139.7487913,
          35.7037507
        ]
      },
      "id": "node/4961357823"
    },
    {
      "type": "Feature",
      "properties": {
        "@id": "node/4961357824",
        "access": "destination",
        "bicycle": "no",
        "emergency": "defibrillator",
        "horse": "no",
        "indoor": "yes",
        "motor_vehicle": "no",
        "name": "飯田橋公共職業安定所AED",
        "opening_hours": "Mo-Su 09:00-21:00",
        "phone": "03-5800-3420"
      },
      "geometry": {
        "type": "Point",
        "coordinates": [
          139.7472276,
          35.7035002
        ]
      },
      "id": "node/4961357824"
    },
    {
      "type": "Feature",
      "properties": {
        "@id": "node/4963204523",
        "access": "permissive",
        "description": "小石川歯科クリニック",
        "emergency": "defibrillator",
        "indoor": "yes",
        "opening_hours": "Mo-Su 10:00-20:00",
        "phone": "0338160004"
      },
      "geometry": {
        "type": "Point",
        "coordinates": [
          139.7458391,
          35.7108837
        ]
      },
      "id": "node/4963204523"
    },
    {
      "type": "Feature",
      "properties": {
        "@id": "node/4963212251",
        "access": "no",
        "description": "礫川地域活動センター",
        "emergency": "defibrillator",
        "indoor": "yes",
        "opening_hours": "Mo-Fr 08:30-20:15; Sa 09:00-21:00",
        "phone": "03-3818-1045"
      },
      "geometry": {
        "type": "Point",
        "coordinates": [
          139.7503592,
          35.7119436
        ]
      },
      "id": "node/4963212251"
    },
    {
      "type": "Feature",
      "properties": {
        "@id": "node/4963219808",
        "access": "no",
        "description": "中央大学後楽園キャンパス5号館",
        "emergency": "defibrillator",
        "indoor": "yes",
        "opening_hours": "8:00-22:00",
        "phone": "0338171715",
        "source": "survey"
      },
      "geometry": {
        "type": "Point",
        "coordinates": [
          139.7481685,
          35.7088402
        ]
      },
      "id": "node/4963219808"
    },
    {
      "type": "Feature",
      "properties": {
        "@id": "node/4963219811",
        "access": "private",
        "description": "文京区立第三中学校",
        "emergency": "defibrillator",
        "indoor": "yes",
        "phone": "0338142544",
        "source": "survey"
      },
      "geometry": {
        "type": "Point",
        "coordinates": [
          139.7465814,
          35.7092352
        ]
      },
      "id": "node/4963219811"
    },
    {
      "type": "Feature",
      "properties": {
        "@id": "node/4963219812",
        "access": "private",
        "description": "洛和ヴィラ文京春日",
        "emergency": "defibrillator",
        "indoor": "yes",
        "opening_hours": "9:00-19:00",
        "phone": "0358046511",
        "source": "survey"
      },
      "geometry": {
        "type": "Point",
        "coordinates": [
          139.7461085,
          35.7081258
        ]
      },
      "id": "node/4963219812"
    },
    {
      "type": "Feature",
      "properties": {
        "@id": "node/4963219813",
        "access": "private",
        "description": "筑波大学附属大塚特別支援学校",
        "emergency": "defibrillator",
        "indoor": "yes",
        "phone": "0338135569",
        "source": "survey"
      },
      "geometry": {
        "type": "Point",
        "coordinates": [
          139.7475641,
          35.7078317
        ]
      },
      "id": "node/4963219813"
    },
    {
      "type": "Feature",
      "properties": {
        "@id": "node/4963219814",
        "access": "no",
        "description": "中央大学後楽園キャンパス１号館",
        "emergency": "defibrillator",
        "indoor": "yes",
        "opening_hours": "8:00-22:00",
        "phone": "0338171715",
        "source": "survey"
      },
      "geometry": {
        "type": "Point",
        "coordinates": [
          139.748622,
          35.7081781
        ]
      },
      "id": "node/4963219814"
    },
    {
      "type": "Feature",
      "properties": {
        "@id": "node/4963219815",
        "access": "no",
        "description": "後楽園デンタルオフィス",
        "emergency": "defibrillator",
        "indoor": "yes",
        "opening_hours": "10:00-13:00,15:00-22:00",
        "phone": "0358409679",
        "source": "survey"
      },
      "geometry": {
        "type": "Point",
        "coordinates": [
          139.7464481,
          35.7068437
        ]
      },
      "id": "node/4963219815"
    },
    {
      "type": "Feature",
      "properties": {
        "@id": "node/4963219816",
        "access": "no",
        "description": "小石川税務署",
        "emergency": "defibrillator",
        "indoor": "yes",
        "opening_hours": "8:30-17:00",
        "phone": "0338111141",
        "source": "survey"
      },
      "geometry": {
        "type": "Point",
        "coordinates": [
          139.7473316,
          35.7070542
        ]
      },
      "id": "node/4963219816"
    },
    {
      "type": "Feature",
      "properties": {
        "@id": "node/4963220105",
        "access": "no",
        "contact:phone": "+81 80-9496-2169",
        "description": "和順ビル",
        "emergency": "defibrillator",
        "indoor": "yes",
        "opening_hours": "Mo-Su 09:00-18:00"
      },
      "geometry": {
        "type": "Point",
        "coordinates": [
          139.7515675,
          35.7102164
        ]
      },
      "id": "node/4963220105"
    },
    {
      "type": "Feature",
      "properties": {
        "@id": "node/4963233894",
        "access": "no",
        "contact:phone": "+81 3-3818-1045",
        "description": "東横イン　後楽園文京区役所前",
        "emergency": "defibrillator",
        "indoor": "yes",
        "opening_hours": "24/7"
      },
      "geometry": {
        "type": "Point",
        "coordinates": [
          139.7515403,
          35.7097361
        ]
      },
      "id": "node/4963233894"
    },
    {
      "type": "Feature",
      "properties": {
        "@id": "node/4963565445",
        "access": "yes",
        "description": "Honda Cars 東京　飯田橋店　受付前",
        "emergency": "defibrillator",
        "indoor": "yes",
        "opening_hours": "We-Mo 10:00-19:00; Tu off",
        "phone": "03-5840-6600",
        "source": "surbey, bing"
      },
      "geometry": {
        "type": "Point",
        "coordinates": [
          139.7442254,
          35.7070251
        ]
      },
      "id": "node/4963565445"
    },
    {
      "type": "Feature",
      "properties": {
        "@id": "node/4963567963",
        "access": "yes",
        "description": "住友不動産飯田橋ファーストタワー, B1F",
        "emergency": "defibrillator",
        "indoor": "yes",
        "phone": "03-5805-3102",
        "source": "survey,bing"
      },
      "geometry": {
        "type": "Point",
        "coordinates": [
          139.7454649,
          35.705222
        ]
      },
      "id": "node/4963567963"
    },
    {
      "type": "Feature",
      "properties": {
        "@id": "node/4963569568",
        "access": "yes",
        "contact:phone": "+81 3-3817-0110",
        "description": "後楽交番，入口付近",
        "emergency": "defibrillator",
        "indoor": "yes",
        "opening_hours": "24/7",
        "source": "survey,bing"
      },
      "geometry": {
        "type": "Point",
        "coordinates": [
          139.7453028,
          35.7031645
        ]
      },
      "id": "node/4963569568"
    },
    {
      "type": "Feature",
      "properties": {
        "@id": "node/4963575317",
        "access": "yes",
        "description": "ARCビル内　入口に表示あり",
        "emergency": "defibrillator",
        "indoor": "yes",
        "source": "survey, bing"
      },
      "geometry": {
        "type": "Point",
        "coordinates": [
          139.743932,
          35.7078131
        ]
      },
      "id": "node/4963575317"
    },
    {
      "type": "Feature",
      "properties": {
        "@id": "node/4963578149",
        "access": "yes",
        "contact:phone": "+81 3-3868-5766",
        "description": "リンテック株式会社,ロビー",
        "emergency": "defibrillator",
        "indoor": "yes",
        "source": "survey,bing"
      },
      "geometry": {
        "type": "Point",
        "coordinates": [
          139.745929,
          35.7033264
        ]
      },
      "id": "node/4963578149"
    },
    {
      "type": "Feature",
      "properties": {
        "@id": "node/4963580138",
        "access": "yes",
        "description": "住友不動産飯田橋ファーストビル,　入り口に表示あり",
        "emergency": "defibrillator",
        "indoor": "yes",
        "phone": "03-5689-8651",
        "source": "survey, bing"
      },
      "geometry": {
        "type": "Point",
        "coordinates": [
          139.7457696,
          35.7052993
        ]
      },
      "id": "node/4963580138"
    },
    {
      "type": "Feature",
      "properties": {
        "@id": "node/4963586219",
        "access": "yes",
        "description": "白王ビル内　入口に表示あり",
        "emergency": "defibrillator",
        "indoor": "yes"
      },
      "geometry": {
        "type": "Point",
        "coordinates": [
          139.7448085,
          35.7043119
        ]
      },
      "id": "node/4963586219"
    },
    {
      "type": "Feature",
      "properties": {
        "@id": "node/4963586259",
        "access": "yes",
        "description": "テラル（株） 営業部東京支店,入口",
        "emergency": "defibrillator",
        "indoor": "yes",
        "phone": "03-3818-7700",
        "source": "survey,bing"
      },
      "geometry": {
        "type": "Point",
        "coordinates": [
          139.7461738,
          35.7044075
        ]
      },
      "id": "node/4963586259"
    },
    {
      "type": "Feature",
      "properties": {
        "@id": "node/4963589847",
        "access": "yes",
        "description": "日本ビジネスドック株式会社, 入り口に表示あり",
        "emergency": "defibrillator",
        "indoor": "yes",
        "phone": "03-3812-9111",
        "source": "survey, bing"
      },
      "geometry": {
        "type": "Point",
        "coordinates": [
          139.7455802,
          35.7041033
        ]
      },
      "id": "node/4963589847"
    },
    {
      "type": "Feature",
      "properties": {
        "@id": "node/4963595747",
        "access": "yes",
        "description": "須田整形外科クリニック内　入口に表示あり",
        "emergency": "defibrillator",
        "indoor": "yes",
        "opening_hours": "Mo-Sa 09:00-18:30; Su off",
        "phone": "03-3811-0881",
        "source": "survey, bing"
      },
      "geometry": {
        "type": "Point",
        "coordinates": [
          139.7442882,
          35.7076857
        ]
      },
      "id": "node/4963595747"
    },
    {
      "type": "Feature",
      "properties": {
        "@id": "node/4965075446",
        "access": "yes",
        "emergency": "defibrillator",
        "indoor": "yes",
        "source": "survey"
      },
      "geometry": {
        "type": "Point",
        "coordinates": [
          139.7501051,
          35.7135105
        ]
      },
      "id": "node/4965075446"
    },
    {
      "type": "Feature",
      "properties": {
        "@id": "node/4965075447",
        "access": "yes",
        "emergency": "defibrillator",
        "indoor": "yes",
        "source": "survey"
      },
      "geometry": {
        "type": "Point",
        "coordinates": [
          139.748649,
          35.7141073
        ]
      },
      "id": "node/4965075447"
    },
    {
      "type": "Feature",
      "properties": {
        "@id": "node/4965075448",
        "access": "yes",
        "emergency": "defibrillator",
        "indoor": "yes",
        "source": "survey"
      },
      "geometry": {
        "type": "Point",
        "coordinates": [
          139.7476002,
          35.7142053
        ]
      },
      "id": "node/4965075448"
    },
    {
      "type": "Feature",
      "properties": {
        "@id": "node/4965075449",
        "access": "yes",
        "emergency": "defibrillator",
        "indoor": "yes",
        "source": "survey"
      },
      "geometry": {
        "type": "Point",
        "coordinates": [
          139.7466588,
          35.714507
        ]
      },
      "id": "node/4965075449"
    },
    {
      "type": "Feature",
      "properties": {
        "@id": "node/4965075450",
        "access": "yes",
        "emergency": "defibrillator",
        "indoor": "yes",
        "source": "survey"
      },
      "geometry": {
        "type": "Point",
        "coordinates": [
          139.7475772,
          35.7153073
        ]
      },
      "id": "node/4965075450"
    },
    {
      "type": "Feature",
      "properties": {
        "@id": "node/4965075451",
        "access": "yes",
        "emergency": "defibrillator",
        "indoor": "yes",
        "source": "survey"
      },
      "geometry": {
        "type": "Point",
        "coordinates": [
          139.7474144,
          35.7153346
        ]
      },
      "id": "node/4965075451"
    },
    {
      "type": "Feature",
      "properties": {
        "@id": "node/4965477402",
        "emergency": "defibrillator"
      },
      "geometry": {
        "type": "Point",
        "coordinates": [
          139.7520735,
          35.708251
        ]
      },
      "id": "node/4965477402"
    },
    {
      "type": "Feature",
      "properties": {
        "@id": "node/5076979266",
        "defibrillator:location": "湯島駅改札外・忘れ物窓口の脇",
        "emergency": "defibrillator",
        "indoor": "yes",
        "level": "-1"
      },
      "geometry": {
        "type": "Point",
        "coordinates": [
          139.7699477,
          35.7083207
        ]
      },
      "id": "node/5076979266"
    },
    {
      "type": "Feature",
      "properties": {
        "@id": "node/5076979267",
        "defibrillator:location": "交番1Fの壁に設置",
        "emergency": "defibrillator",
        "indoor": "yes"
      },
      "geometry": {
        "type": "Point",
        "coordinates": [
          139.7698695,
          35.7072252
        ]
      },
      "id": "node/5076979267"
    },
    {
      "type": "Feature",
      "properties": {
        "@id": "node/5551859144",
        "emergency": "defibrillator",
        "source": "survey"
      },
      "geometry": {
        "type": "Point",
        "coordinates": [
          139.7600054,
          35.7066075
        ]
      },
      "id": "node/5551859144"
    },
    {
      "type": "Feature",
      "properties": {
        "@id": "node/5638757037",
        "emergency": "defibrillator"
      },
      "geometry": {
        "type": "Point",
        "coordinates": [
          139.7683457,
          35.7047084
        ]
      },
      "id": "node/5638757037"
    },
    {
      "type": "Feature",
      "properties": {
        "@id": "node/5953005999",
        "emergency": "defibrillator",
        "indoor": "yes",
        "opening_hours": "24/7",
        "source": "survey"
      },
      "geometry": {
        "type": "Point",
        "coordinates": [
          139.7604023,
          35.7076308
        ]
      },
      "id": "node/5953005999"
    },
    {
      "type": "Feature",
      "properties": {
        "@id": "node/5956002416",
        "emergency": "defibrillator"
      },
      "geometry": {
        "type": "Point",
        "coordinates": [
          139.765965,
          35.7050568
        ]
      },
      "id": "node/5956002416"
    },
    {
      "type": "Feature",
      "properties": {
        "@id": "node/5956002417",
        "emergency": "defibrillator"
      },
      "geometry": {
        "type": "Point",
        "coordinates": [
          139.7646147,
          35.7053458
        ]
      },
      "id": "node/5956002417"
    },
    {
      "type": "Feature",
      "properties": {
        "@id": "node/6150850768",
        "emergency": "defibrillator"
      },
      "geometry": {
        "type": "Point",
        "coordinates": [
          139.7642077,
          35.701532
        ]
      },
      "id": "node/6150850768"
    },
    {
      "type": "Feature",
      "properties": {
        "@id": "node/6277671421",
        "emergency": "defibrillator",
        "indoor": "no",
        "opening_hours": "24/7"
      },
      "geometry": {
        "type": "Point",
        "coordinates": [
          139.7315619,
          35.7183012
        ]
      },
      "id": "node/6277671421"
    },
    {
      "type": "Feature",
      "properties": {
        "@id": "node/9296352390",
        "emergency": "defibrillator"
      },
      "geometry": {
        "type": "Point",
        "coordinates": [
          139.7366497,
          35.7180716
        ]
      },
      "id": "node/9296352390"
    },
    {
      "type": "Feature",
      "properties": {
        "@id": "node/12520142845",
        "amenity": "fire_station",
        "name": "本郷消防団第六分団本部"
      },
      "geometry": {
        "type": "Point",
        "coordinates": [
          139.7516596,
          35.7307381
        ]
      },
      "id": "node/12520142845"
    },
    {
      "type": "Feature",
      "properties": {
        "@id": "node/13036989581",
        "access": "yes",
        "defibrillator:location": "朝日信用金庫 ATMコーナー内 入口右側",
        "emergency": "defibrillator",
        "indoor": "yes",
        "level": "0",
        "operator": "朝日信用金庫",
        "wheelchair": "yes"
      },
      "geometry": {
        "type": "Point",
        "coordinates": [
          139.749441,
          35.7325652
        ]
      },
      "id": "node/13036989581"
    },
    {
      "type": "Feature",
      "properties": {
        "@id": "node/13037049821",
        "access": "yes",
        "defibrillator:location": "交番内 入口正面",
        "emergency": "defibrillator",
        "indoor": "yes",
        "level": "0",
        "wheelchair": "yes"
      },
      "geometry": {
        "type": "Point",
        "coordinates": [
          139.7496186,
          35.7322879
        ]
      },
      "id": "node/13037049821"
    },
    {
      "type": "Feature",
      "properties": {
        "@id": "node/13037049912",
        "access": "yes",
        "defibrillator:location": "みずほ銀行ATMコーナー内 入口右側",
        "emergency": "defibrillator",
        "indoor": "yes",
        "level": "0",
        "operator": "みずほ銀行"
      },
      "geometry": {
        "type": "Point",
        "coordinates": [
          139.7439521,
          35.728978
        ]
      },
      "id": "node/13037049912"
    }
  ]
}