{
  "type": "FeatureCollection",
  "generator": "overpass-turbo",
  "copyright": "The data included in this document is from www.openstreetmap.org. The data is made available under ODbL.",
  "timestamp": "2026-01-29T07:26:55Z",
  "features": [
    {
      "type": "Feature",
      "properties": {
        "@id": "relation/19788908",
        "amenity": "police",
        "name": "警視庁高速道路交通警察隊 本隊",
        "type": "multipolygon",
        "@geometry": "center"
      },
      "geometry": {
        "type": "Point",
        "coordinates": [
          139.7726603,
          35.6739521
        ]
      },
      "id": "relation/19788908"
    },
    {
      "type": "Feature",
      "properties": {
        "@id": "way/412905719",
        "amenity": "police",
        "building": "yes",
        "name": "中央警察署日本橋交番",
        "note": "National-Land Numerical Information (Public Facility) 2006, MLIT Japan",
        "note:ja": "国土数値情報（公共施設データ）平成19年　国土交通省",
        "source": "KSJ2; GSImaps/std; Bing",
        "source_ref": "http://nlftp.mlit.go.jp/ksj/jpgis/datalist/KsjTmplt-P02-v2_0.html",
        "@geometry": "center"
      },
      "geometry": {
        "type": "Point",
        "coordinates": [
          139.774799,
          35.6836446
        ]
      },
      "id": "way/412905719"
    },
    {
      "type": "Feature",
      "properties": {
        "@id": "way/513097038",
        "amenity": "police",
        "building": "yes",
        "name": "東京水上警察署隈田川水上派出所",
        "name:en": "Police Substation",
        "note": "National-Land Numerical Information (Public Facility) 2006, MLIT Japan",
        "note:ja": "国土数値情報（公共施設データ）平成19年　国土交通省",
        "source": "KSJ2",
        "source_ref": "http://nlftp.mlit.go.jp/ksj/jpgis/datalist/KsjTmplt-P02-v2_0.html",
        "@geometry": "center"
      },
      "geometry": {
        "type": "Point",
        "coordinates": [
          139.7879069,
          35.6948042
        ]
      },
      "id": "way/513097038"
    },
    {
      "type": "Feature",
      "properties": {
        "@id": "way/515185675",
        "amenity": "police",
        "building": "yes",
        "name": "久松警察署東日本橋交番",
        "name:en": "Koban",
        "note": "National-Land Numerical Information (Public Facility) 2006, MLIT Japan",
        "note:ja": "国土数値情報（公共施設データ）平成19年　国土交通省",
        "source": "KSJ2",
        "source_ref": "http://nlftp.mlit.go.jp/ksj/jpgis/datalist/KsjTmplt-P02-v2_0.html",
        "@geometry": "center"
      },
      "geometry": {
        "type": "Point",
        "coordinates": [
          139.7849812,
          35.6956846
        ]
      },
      "id": "way/515185675"
    },
    {
      "type": "Feature",
      "properties": {
        "@id": "node/951246991",
        "amenity": "police"
      },
      "geometry": {
        "type": "Point",
        "coordinates": [
          139.7669064,
          35.6701741
        ]
      },
      "id": "node/951246991"
    },
    {
      "type": "Feature",
      "properties": {
        "@id": "way/1081113159",
        "amenity": "fire_station",
        "building": "fire_station",
        "name": "日本橋消防署浜町出張所",
        "name:en": "Nihombashi Fire Station Hamacho Branch",
        "note": "National-Land Numerical Information (Public Facility) 2006, MLIT Japan",
        "note:ja": "国土数値情報（公共施設データ）平成19年 国土交通省",
        "source": "KSJ2",
        "source_ref": "http://nlftp.mlit.go.jp/ksj/jpgis/datalist/KsjTmplt-P02-v2_0.html",
        "@geometry": "center"
      },
      "geometry": {
        "type": "Point",
        "coordinates": [
          139.7917519,
          35.685291
        ]
      },
      "id": "way/1081113159"
    },
    {
      "type": "Feature",
      "properties": {
        "@id": "way/1082502737",
        "amenity": "police",
        "building": "yes",
        "building:levels": "2",
        "check_date": "2024-09-02",
        "name": "浜町交番",
        "name:en": "Hamacho Police Box",
        "name:ja": "浜町交番",
        "name:ja-Hira": "はまちょうこうばん",
        "name:ja-Latn": "Hamachō Kōban",
        "opening_hours": "24/7",
        "roof:shape": "flat",
        "website": "https://www.keishicho.metro.tokyo.lg.jp/about_mpd/shokai/ichiran/kankatsu/hisamatsu/koban/02.html",
        "@geometry": "center"
      },
      "geometry": {
        "type": "Point",
        "coordinates": [
          139.7883461,
          35.6852326
        ]
      },
      "id": "way/1082502737"
    },
    {
      "type": "Feature",
      "properties": {
        "@id": "way/1383267789",
        "amenity": "police",
        "building": "yes",
        "name": "久松警察署 水天宮前交番",
        "name:en": "Koban",
        "wheelchair": "yes",
        "@geometry": "center"
      },
      "geometry": {
        "type": "Point",
        "coordinates": [
          139.7848432,
          35.6837502
        ]
      },
      "id": "way/1383267789"
    },
    {
      "type": "Feature",
      "properties": {
        "@id": "way/1417457072",
        "addr:block_number": "16",
        "addr:city": "中央区",
        "addr:housenumber": "14",
        "addr:neighbourhood": "晴海三丁目",
        "addr:postcode": "104-0053",
        "addr:province": "東京都",
        "amenity": "police",
        "building": "yes",
        "name": "月島警察署",
        "name:en": "Tsukishima Police Station",
        "operator": "警視庁",
        "@geometry": "center"
      },
      "geometry": {
        "type": "Point",
        "coordinates": [
          139.7783032,
          35.6536004
        ]
      },
      "id": "way/1417457072"
    },
    {
      "type": "Feature",
      "properties": {
        "@id": "node/1420766271",
        "amenity": "police",
        "name": "中央警察署",
        "name:en": "Chuo Police Station",
        "name:es": "Estación de policía Chuo",
        "note": "National-Land Numerical Information (Public Facility) 2006, MLIT Japan",
        "note:ja": "国土数値情報（公共施設データ）平成19年　国土交通省",
        "source": "KSJ2",
        "source_ref": "http://nlftp.mlit.go.jp/ksj/jpgis/datalist/KsjTmplt-P02-v2_0.html",
        "wikidata": "Q11272249",
        "wikipedia": "ja:中央警察署 (東京都)"
      },
      "geometry": {
        "type": "Point",
        "coordinates": [
          139.777071,
          35.680321
        ]
      },
      "id": "node/1420766271"
    },
    {
      "type": "Feature",
      "properties": {
        "@id": "node/1420766272",
        "amenity": "police",
        "name": "中央警察署八丁堀交番",
        "name:en": "Koban",
        "note": "National-Land Numerical Information (Public Facility) 2006, MLIT Japan",
        "note:ja": "国土数値情報（公共施設データ）平成19年　国土交通省",
        "source": "KSJ2",
        "source_ref": "http://nlftp.mlit.go.jp/ksj/jpgis/datalist/KsjTmplt-P02-v2_0.html"
      },
      "geometry": {
        "type": "Point",
        "coordinates": [
          139.7750332,
          35.6760963
        ]
      },
      "id": "node/1420766272"
    },
    {
      "type": "Feature",
      "properties": {
        "@id": "node/1420766273",
        "addr:block_number": "4",
        "addr:city": "中央区",
        "addr:housenumber": "15",
        "addr:neighbourhood": "3",
        "addr:postcode": "103-0027",
        "addr:province": "東京都",
        "addr:quarter": "日本橋",
        "amenity": "police",
        "name": "中央警察署八重洲通交番",
        "name:en": "Koban",
        "note": "National-Land Numerical Information (Public Facility) 2006, MLIT Japan",
        "note:ja": "国土数値情報（公共施設データ）平成19年　国土交通省",
        "source": "KSJ2",
        "source_ref": "http://nlftp.mlit.go.jp/ksj/jpgis/datalist/KsjTmplt-P02-v2_0.html",
        "wheelchair": "limited"
      },
      "geometry": {
        "type": "Point",
        "coordinates": [
          139.7706973,
          35.6798771
        ]
      },
      "id": "node/1420766273"
    },
    {
      "type": "Feature",
      "properties": {
        "@id": "node/1420766275",
        "amenity": "police",
        "name": "中央警察署日本銀行警備派出所",
        "name:es": "Policía",
        "note": "National-Land Numerical Information (Public Facility) 2006, MLIT Japan",
        "note:ja": "国土数値情報（公共施設データ）平成19年　国土交通省",
        "source": "KSJ2",
        "source_ref": "http://nlftp.mlit.go.jp/ksj/jpgis/datalist/KsjTmplt-P02-v2_0.html"
      },
      "geometry": {
        "type": "Point",
        "coordinates": [
          139.7715329,
          35.6867461
        ]
      },
      "id": "node/1420766275"
    },
    {
      "type": "Feature",
      "properties": {
        "@id": "node/1420766276",
        "amenity": "police",
        "name": "中央警察署本町交番",
        "name:en": "Koban",
        "note": "National-Land Numerical Information (Public Facility) 2006, MLIT Japan",
        "note:ja": "国土数値情報（公共施設データ）平成19年　国土交通省",
        "source": "KSJ2",
        "source_ref": "http://nlftp.mlit.go.jp/ksj/jpgis/datalist/KsjTmplt-P02-v2_0.html"
      },
      "geometry": {
        "type": "Point",
        "coordinates": [
          139.774905,
          35.690625
        ]
      },
      "id": "node/1420766276"
    },
    {
      "type": "Feature",
      "properties": {
        "@id": "node/1420766277",
        "amenity": "police",
        "name": "中央警察署東京証券取引所警備派出所",
        "note": "National-Land Numerical Information (Public Facility) 2006, MLIT Japan",
        "note:ja": "国土数値情報（公共施設データ）平成19年　国土交通省",
        "source": "KSJ2",
        "source_ref": "http://nlftp.mlit.go.jp/ksj/jpgis/datalist/KsjTmplt-P02-v2_0.html"
      },
      "geometry": {
        "type": "Point",
        "coordinates": [
          139.779473,
          35.682625
        ]
      },
      "id": "node/1420766277"
    },
    {
      "type": "Feature",
      "properties": {
        "@id": "node/1420766278",
        "amenity": "police",
        "name": "中央警察署 茅場町交番",
        "name:en": "Koban",
        "note": "National-Land Numerical Information (Public Facility) 2006, MLIT Japan",
        "note:ja": "国土数値情報（公共施設データ）平成19年　国土交通省",
        "source": "KSJ2",
        "source_ref": "http://nlftp.mlit.go.jp/ksj/jpgis/datalist/KsjTmplt-P02-v2_0.html"
      },
      "geometry": {
        "type": "Point",
        "coordinates": [
          139.7773199,
          35.6795333
        ]
      },
      "id": "node/1420766278"
    },
    {
      "type": "Feature",
      "properties": {
        "@id": "node/1420766279",
        "amenity": "police",
        "name": "中央警察署高橋交番",
        "name:en": "Koban",
        "note": "National-Land Numerical Information (Public Facility) 2006, MLIT Japan",
        "note:ja": "国土数値情報（公共施設データ）平成19年　国土交通省",
        "source": "KSJ2",
        "source_ref": "http://nlftp.mlit.go.jp/ksj/jpgis/datalist/KsjTmplt-P02-v2_0.html"
      },
      "geometry": {
        "type": "Point",
        "coordinates": [
          139.7806749,
          35.6745846
        ]
      },
      "id": "node/1420766279"
    },
    {
      "type": "Feature",
      "properties": {
        "@id": "node/1420766539",
        "amenity": "police",
        "name": "久松警察署",
        "name:en": "Hisamatsu Police Station",
        "note": "National-Land Numerical Information (Public Facility) 2006, MLIT Japan",
        "note:ja": "国土数値情報（公共施設データ）平成19年　国土交通省",
        "source": "KSJ2",
        "source_ref": "http://nlftp.mlit.go.jp/ksj/jpgis/datalist/KsjTmplt-P02-v2_0.html",
        "wikidata": "Q11369446"
      },
      "geometry": {
        "type": "Point",
        "coordinates": [
          139.7847529,
          35.6883469
        ]
      },
      "id": "node/1420766539"
    },
    {
      "type": "Feature",
      "properties": {
        "@id": "node/1420766540",
        "amenity": "police",
        "name": "久松警察署問屋橋交番",
        "note": "National-Land Numerical Information (Public Facility) 2006, MLIT Japan",
        "note:ja": "国土数値情報（公共施設データ）平成19年　国土交通省",
        "source": "KSJ2",
        "source_ref": "http://nlftp.mlit.go.jp/ksj/jpgis/datalist/KsjTmplt-P02-v2_0.html",
        "wheelchair": "yes"
      },
      "geometry": {
        "type": "Point",
        "coordinates": [
          139.7831509,
          35.6898154
        ]
      },
      "id": "node/1420766540"
    },
    {
      "type": "Feature",
      "properties": {
        "@id": "node/1420766543",
        "amenity": "police",
        "name": "久松警察署浜町交番",
        "name:en": "Koban",
        "note": "National-Land Numerical Information (Public Facility) 2006, MLIT Japan",
        "note:ja": "国土数値情報（公共施設データ）平成19年　国土交通省",
        "source": "KSJ2",
        "source_ref": "http://nlftp.mlit.go.jp/ksj/jpgis/datalist/KsjTmplt-P02-v2_0.html"
      },
      "geometry": {
        "type": "Point",
        "coordinates": [
          139.790822,
          35.687154
        ]
      },
      "id": "node/1420766543"
    },
    {
      "type": "Feature",
      "properties": {
        "@id": "node/1420766544",
        "amenity": "police",
        "name": "久松警察署箱崎交番",
        "name:en": "Koban",
        "note": "National-Land Numerical Information (Public Facility) 2006, MLIT Japan",
        "note:ja": "国土数値情報（公共施設データ）平成19年　国土交通省",
        "source": "KSJ2",
        "source_ref": "http://nlftp.mlit.go.jp/ksj/jpgis/datalist/KsjTmplt-P02-v2_0.html"
      },
      "geometry": {
        "type": "Point",
        "coordinates": [
          139.7869701,
          35.6811783
        ]
      },
      "id": "node/1420766544"
    },
    {
      "type": "Feature",
      "properties": {
        "@id": "node/1420766798",
        "amenity": "fire_station",
        "name": "京橋消防署築地出張所",
        "name:en": "Kyobashi Fire Station Tsukiji Branch",
        "name:es": "Estación de bomberos Kyobashi, sucursal Tsukiji",
        "note": "National-Land Numerical Information (Public Facility) 2006, MLIT Japan",
        "note:ja": "国土数値情報（公共施設データ）平成19年　国土交通省",
        "source": "KSJ2",
        "source_ref": "http://nlftp.mlit.go.jp/ksj/jpgis/datalist/KsjTmplt-P02-v2_0.html"
      },
      "geometry": {
        "type": "Point",
        "coordinates": [
          139.775544,
          35.668544
        ]
      },
      "id": "node/1420766798"
    },
    {
      "type": "Feature",
      "properties": {
        "@id": "node/1420766799",
        "amenity": "fire_station",
        "name": "京橋消防署銀座出張所",
        "name:en": "Kyobashi Fire Station Ginza Branch",
        "note": "National-Land Numerical Information (Public Facility) 2006, MLIT Japan",
        "note:ja": "国土数値情報（公共施設データ）平成19年　国土交通省",
        "source": "KSJ2",
        "source_ref": "http://nlftp.mlit.go.jp/ksj/jpgis/datalist/KsjTmplt-P02-v2_0.html"
      },
      "geometry": {
        "type": "Point",
        "coordinates": [
          139.763961,
          35.668655
        ]
      },
      "id": "node/1420766799"
    },
    {
      "type": "Feature",
      "properties": {
        "@id": "node/1420781081",
        "addr:postcode": "103-0026",
        "amenity": "fire_station",
        "fax": "+81-3-36611667",
        "name": "日本橋消防署",
        "name:en": "Nihonbashi Fire Station",
        "name:es": "Estación de bomberos Nihonbashi",
        "name:ja": "日本橋消防署",
        "name:ja_rm": "Nihonbashi Shōbōsho",
        "note": "National-Land Numerical Information (Public Facility) 2006, MLIT Japan",
        "note:ja": "国土数値情報（公共施設データ）平成19年　国土交通省",
        "operator": "東京消防庁第一消防方面本部",
        "phone": "+81-3-36660119",
        "source": "KSJ2;(URL)",
        "source_ref": "http://nlftp.mlit.go.jp/ksj/jpgis/datalist/KsjTmplt-P02-v2_0.html",
        "website": "http://www.tfd.metro.tokyo.jp/"
      },
      "geometry": {
        "type": "Point",
        "coordinates": [
          139.777543,
          35.680099
        ]
      },
      "id": "node/1420781081"
    },
    {
      "type": "Feature",
      "properties": {
        "@id": "node/1420781082",
        "amenity": "fire_station",
        "name": "日本橋消防署人形町出張所",
        "name:es": "Estación de bomberos",
        "note": "National-Land Numerical Information (Public Facility) 2006, MLIT Japan",
        "note:ja": "国土数値情報（公共施設データ）平成19年　国土交通省",
        "source": "KSJ2",
        "source_ref": "http://nlftp.mlit.go.jp/ksj/jpgis/datalist/KsjTmplt-P02-v2_0.html"
      },
      "geometry": {
        "type": "Point",
        "coordinates": [
          139.7849603,
          35.6875845
        ]
      },
      "id": "node/1420781082"
    },
    {
      "type": "Feature",
      "properties": {
        "@id": "node/1420781083",
        "addr:block_number": "2",
        "addr:city": "中央区",
        "addr:housenumber": "6",
        "addr:neighbourhood": "日本橋堀留町一丁目",
        "addr:province": "東京都",
        "amenity": "fire_station",
        "name": "日本橋消防署堀留出張所",
        "note": "National-Land Numerical Information (Public Facility) 2006, MLIT Japan",
        "note:ja": "国土数値情報（公共施設データ）平成19年　国土交通省",
        "operator": "東京都中央区",
        "source": "KSJ2",
        "source_ref": "http://nlftp.mlit.go.jp/ksj/jpgis/datalist/KsjTmplt-P02-v2_0.html"
      },
      "geometry": {
        "type": "Point",
        "coordinates": [
          139.778599,
          35.688515
        ]
      },
      "id": "node/1420781083"
    },
    {
      "type": "Feature",
      "properties": {
        "@id": "node/1420781695",
        "amenity": "police",
        "name": "月島警察署リバーシティ駐在所",
        "note": "National-Land Numerical Information (Public Facility) 2006, MLIT Japan",
        "note:ja": "国土数値情報（公共施設データ）平成19年　国土交通省",
        "source": "KSJ2",
        "source_ref": "http://nlftp.mlit.go.jp/ksj/jpgis/datalist/KsjTmplt-P02-v2_0.html"
      },
      "geometry": {
        "type": "Point",
        "coordinates": [
          139.7851059,
          35.6702264
        ]
      },
      "id": "node/1420781695"
    },
    {
      "type": "Feature",
      "properties": {
        "@id": "node/1420781696",
        "amenity": "police",
        "name": "月島警察署佃交番",
        "note": "National-Land Numerical Information (Public Facility) 2006, MLIT Japan",
        "note:ja": "国土数値情報（公共施設データ）平成19年　国土交通省",
        "source": "KSJ2",
        "source_ref": "http://nlftp.mlit.go.jp/ksj/jpgis/datalist/KsjTmplt-P02-v2_0.html",
        "wheelchair": "yes"
      },
      "geometry": {
        "type": "Point",
        "coordinates": [
          139.7848658,
          35.6647209
        ]
      },
      "id": "node/1420781696"
    },
    {
      "type": "Feature",
      "properties": {
        "@id": "node/1420781697",
        "amenity": "police",
        "name": "月島警察署勝どき橋交番",
        "name:en": "Koban",
        "note": "National-Land Numerical Information (Public Facility) 2006, MLIT Japan",
        "note:ja": "国土数値情報（公共施設データ）平成19年　国土交通省",
        "source": "KSJ2",
        "source_ref": "http://nlftp.mlit.go.jp/ksj/jpgis/datalist/KsjTmplt-P02-v2_0.html",
        "wheelchair": "yes"
      },
      "geometry": {
        "type": "Point",
        "coordinates": [
          139.7768646,
          35.6604606
        ]
      },
      "id": "node/1420781697"
    },
    {
      "type": "Feature",
      "properties": {
        "@id": "node/1420781698",
        "amenity": "police",
        "name": "月島警察署晴海三丁目交番",
        "note": "National-Land Numerical Information (Public Facility) 2006, MLIT Japan",
        "note:ja": "国土数値情報（公共施設データ）平成19年　国土交通省",
        "source": "KSJ2",
        "source_ref": "http://nlftp.mlit.go.jp/ksj/jpgis/datalist/KsjTmplt-P02-v2_0.html",
        "wheelchair": "yes"
      },
      "geometry": {
        "type": "Point",
        "coordinates": [
          139.7818254,
          35.6557004
        ]
      },
      "id": "node/1420781698"
    },
    {
      "type": "Feature",
      "properties": {
        "@id": "node/1420781700",
        "amenity": "police",
        "name": "月島警察署西仲通交番",
        "name:en": "West Nakatoru Koban",
        "name:es": "Koban del Oeste de Nakatoru",
        "note": "National-Land Numerical Information (Public Facility) 2006, MLIT Japan",
        "note:ja": "国土数値情報（公共施設データ）平成19年　国土交通省",
        "source": "KSJ2",
        "source_ref": "http://nlftp.mlit.go.jp/ksj/jpgis/datalist/KsjTmplt-P02-v2_0.html"
      },
      "geometry": {
        "type": "Point",
        "coordinates": [
          139.7813618,
          35.6636115
        ]
      },
      "id": "node/1420781700"
    },
    {
      "type": "Feature",
      "properties": {
        "@id": "node/1420795861",
        "amenity": "police",
        "name": "築地警察署",
        "name:en": "Tsukiji Police Station",
        "name:es": "Estación de policía Tsukiji",
        "note": "National-Land Numerical Information (Public Facility) 2006, MLIT Japan",
        "note:ja": "国土数値情報（公共施設データ）平成19年　国土交通省",
        "source": "KSJ2",
        "source_ref": "http://nlftp.mlit.go.jp/ksj/jpgis/datalist/KsjTmplt-P02-v2_0.html",
        "wheelchair": "yes",
        "wikidata": "Q11603488",
        "wikipedia": "ja:築地警察署"
      },
      "geometry": {
        "type": "Point",
        "coordinates": [
          139.771377,
          35.670155
        ]
      },
      "id": "node/1420795861"
    },
    {
      "type": "Feature",
      "properties": {
        "@id": "node/1420795862",
        "amenity": "police",
        "name": "築地警察署三原橋交番",
        "note": "National-Land Numerical Information (Public Facility) 2006, MLIT Japan",
        "note:ja": "国土数値情報（公共施設データ）平成19年　国土交通省",
        "source": "KSJ2",
        "source_ref": "http://nlftp.mlit.go.jp/ksj/jpgis/datalist/KsjTmplt-P02-v2_0.html"
      },
      "geometry": {
        "type": "Point",
        "coordinates": [
          139.7667544,
          35.6702813
        ]
      },
      "id": "node/1420795862"
    },
    {
      "type": "Feature",
      "properties": {
        "@id": "node/1420795864",
        "amenity": "police",
        "name": "築地警察署土橋交番",
        "name:en": "Koban",
        "note": "National-Land Numerical Information (Public Facility) 2006, MLIT Japan",
        "note:ja": "国土数値情報（公共施設データ）平成19年　国土交通省",
        "source": "KSJ2",
        "source_ref": "http://nlftp.mlit.go.jp/ksj/jpgis/datalist/KsjTmplt-P02-v2_0.html",
        "wheelchair": "yes"
      },
      "geometry": {
        "type": "Point",
        "coordinates": [
          139.7587295,
          35.6684862
        ]
      },
      "id": "node/1420795864"
    },
    {
      "type": "Feature",
      "properties": {
        "@id": "node/1420795865",
        "amenity": "police",
        "name": "築地警察署小田原町交番",
        "name:en": "Koban",
        "note": "National-Land Numerical Information (Public Facility) 2006, MLIT Japan",
        "note:ja": "国土数値情報（公共施設データ）平成19年　国土交通省",
        "source": "KSJ2",
        "source_ref": "http://nlftp.mlit.go.jp/ksj/jpgis/datalist/KsjTmplt-P02-v2_0.html",
        "wheelchair": "no"
      },
      "geometry": {
        "type": "Point",
        "coordinates": [
          139.7721715,
          35.6652883
        ]
      },
      "id": "node/1420795865"
    },
    {
      "type": "Feature",
      "properties": {
        "@id": "node/1420795866",
        "amenity": "police",
        "name": "築地警察署数寄屋橋交番",
        "name:en": "Koban",
        "note": "National-Land Numerical Information (Public Facility) 2006, MLIT Japan",
        "note:ja": "国土数値情報（公共施設データ）平成19年　国土交通省",
        "source": "KSJ2",
        "source_ref": "http://nlftp.mlit.go.jp/ksj/jpgis/datalist/KsjTmplt-P02-v2_0.html",
        "wheelchair": "no"
      },
      "geometry": {
        "type": "Point",
        "coordinates": [
          139.7632935,
          35.6728435
        ]
      },
      "id": "node/1420795866"
    },
    {
      "type": "Feature",
      "properties": {
        "@id": "node/1420795867",
        "amenity": "police",
        "name": "築地警察署新富町交番",
        "name:en": "Koban",
        "note": "National-Land Numerical Information (Public Facility) 2006, MLIT Japan",
        "note:ja": "国土数値情報（公共施設データ）平成19年　国土交通省",
        "source": "KSJ2",
        "source_ref": "http://nlftp.mlit.go.jp/ksj/jpgis/datalist/KsjTmplt-P02-v2_0.html"
      },
      "geometry": {
        "type": "Point",
        "coordinates": [
          139.774877,
          35.670424
        ]
      },
      "id": "node/1420795867"
    },
    {
      "type": "Feature",
      "properties": {
        "@id": "node/1420795868",
        "amenity": "police",
        "name": "築地警察署湊交番",
        "name:en": "Koban",
        "note": "National-Land Numerical Information (Public Facility) 2006, MLIT Japan",
        "note:ja": "国土数値情報（公共施設データ）平成19年　国土交通省",
        "source": "KSJ2",
        "source_ref": "http://nlftp.mlit.go.jp/ksj/jpgis/datalist/KsjTmplt-P02-v2_0.html"
      },
      "geometry": {
        "type": "Point",
        "coordinates": [
          139.780015,
          35.672655
        ]
      },
      "id": "node/1420795868"
    },
    {
      "type": "Feature",
      "properties": {
        "@id": "node/1420795869",
        "amenity": "police",
        "name": "築地警察署銀座一丁目交番",
        "note": "National-Land Numerical Information (Public Facility) 2006, MLIT Japan",
        "note:ja": "国土数値情報（公共施設データ）平成19年　国土交通省",
        "source": "KSJ2",
        "source_ref": "http://nlftp.mlit.go.jp/ksj/jpgis/datalist/KsjTmplt-P02-v2_0.html",
        "wheelchair": "no"
      },
      "geometry": {
        "type": "Point",
        "coordinates": [
          139.7686817,
          35.6749591
        ]
      },
      "id": "node/1420795869"
    },
    {
      "type": "Feature",
      "properties": {
        "@id": "node/1420795870",
        "amenity": "police",
        "name": "築地警察署銀座八丁目交番",
        "name:en": "Koban",
        "note": "National-Land Numerical Information (Public Facility) 2006, MLIT Japan",
        "note:ja": "国土数値情報（公共施設データ）平成19年　国土交通省",
        "source": "KSJ2",
        "source_ref": "http://nlftp.mlit.go.jp/ksj/jpgis/datalist/KsjTmplt-P02-v2_0.html"
      },
      "geometry": {
        "type": "Point",
        "coordinates": [
          139.76289,
          35.66788
        ]
      },
      "id": "node/1420795870"
    },
    {
      "type": "Feature",
      "properties": {
        "@id": "node/1420795871",
        "amenity": "police",
        "name": "築地警察署銀座四丁目交番",
        "name:en": "Koban",
        "note": "National-Land Numerical Information (Public Facility) 2006, MLIT Japan",
        "note:ja": "国土数値情報（公共施設データ）平成19年　国土交通省",
        "source": "KSJ2",
        "source_ref": "http://nlftp.mlit.go.jp/ksj/jpgis/datalist/KsjTmplt-P02-v2_0.html",
        "wheelchair": "no"
      },
      "geometry": {
        "type": "Point",
        "coordinates": [
          139.76475,
          35.6712885
        ]
      },
      "id": "node/1420795871"
    },
    {
      "type": "Feature",
      "properties": {
        "@id": "node/1420796415",
        "amenity": "fire_station",
        "name": "臨港消防署月島出張所",
        "note": "National-Land Numerical Information (Public Facility) 2006, MLIT Japan",
        "note:ja": "国土数値情報（公共施設データ）平成19年　国土交通省",
        "source": "KSJ2",
        "source_ref": "http://nlftp.mlit.go.jp/ksj/jpgis/datalist/KsjTmplt-P02-v2_0.html"
      },
      "geometry": {
        "type": "Point",
        "coordinates": [
          139.776713,
          35.6569004
        ]
      },
      "id": "node/1420796415"
    },
    {
      "type": "Feature",
      "properties": {
        "@id": "way/1447149798",
        "addr:postcode": "104-0031",
        "amenity": "fire_station",
        "contact:phone": "+81-3-35640119",
        "contact:website": "http://www.tfd.metro.tokyo.jp/",
        "fax": "+81-3-35640606",
        "name": "京橋消防署",
        "name:en": "Kyobashi Fire Station",
        "name:es": "Estación de bomberos Kyobashi",
        "name:ja": "京橋消防署",
        "note": "National-Land Numerical Information (Public Facility) 2006, MLIT Japan",
        "note:ja": "国土数値情報（公共施設データ）平成19年 国土交通省",
        "operator": "東京消防庁第一消防方面本部",
        "wheelchair": "limited",
        "@geometry": "center"
      },
      "geometry": {
        "type": "Point",
        "coordinates": [
          139.7722359,
          35.6743399
        ]
      },
      "id": "way/1447149798"
    },
    {
      "type": "Feature",
      "properties": {
        "@id": "way/1448346304",
        "addr:postcode": "104-0053",
        "amenity": "fire_station",
        "fax": "+81-3-35310120",
        "name": "臨港消防署",
        "name:en": "Rinkou Fire Station",
        "name:ja": "臨港消防署",
        "operator": "東京消防庁第一消防方面本部",
        "phone": "+81-3-35340119",
        "website": "http://www.tfd.metro.tokyo.jp",
        "@geometry": "center"
      },
      "geometry": {
        "type": "Point",
        "coordinates": [
          139.7705909,
          35.6493518
        ]
      },
      "id": "way/1448346304"
    },
    {
      "type": "Feature",
      "properties": {
        "@id": "node/9194827596",
        "amenity": "fire_station",
        "name": "日本橋消防団地域活動センター"
      },
      "geometry": {
        "type": "Point",
        "coordinates": [
          139.7797634,
          35.6776858
        ]
      },
      "id": "node/9194827596"
    },
    {
      "type": "Feature",
      "properties": {
        "@id": "node/9194839759",
        "amenity": "fire_station",
        "name": "京橋消防団第一分団本部"
      },
      "geometry": {
        "type": "Point",
        "coordinates": [
          139.7787212,
          35.6762878
        ]
      },
      "id": "node/9194839759"
    },
    {
      "type": "Feature",
      "properties": {
        "@id": "node/11930424523",
        "emergency": "defibrillator",
        "indoor": "yes"
      },
      "geometry": {
        "type": "Point",
        "coordinates": [
          139.7655131,
          35.6745032
        ]
      },
      "id": "node/11930424523"
    },
    {
      "type": "Feature",
      "properties": {
        "@id": "node/12133447360",
        "emergency": "defibrillator",
        "indoor": "yes"
      },
      "geometry": {
        "type": "Point",
        "coordinates": [
          139.7750604,
          35.6903064
        ]
      },
      "id": "node/12133447360"
    },
    {
      "type": "Feature",
      "properties": {
        "@id": "node/12860208957",
        "check_date": "2025-05-24",
        "description": "エレベーター横",
        "emergency": "defibrillator",
        "indoor": "yes",
        "level": "6"
      },
      "geometry": {
        "type": "Point",
        "coordinates": [
          139.774159,
          35.6851803
        ]
      },
      "id": "node/12860208957"
    },
    {
      "type": "Feature",
      "properties": {
        "@id": "node/13042475623",
        "access": "customers",
        "defibrillator:location": "建物内",
        "emergency": "defibrillator",
        "indoor": "yes"
      },
      "geometry": {
        "type": "Point",
        "coordinates": [
          139.7687602,
          35.6695475
        ]
      },
      "id": "node/13042475623"
    },
    {
      "type": "Feature",
      "properties": {
        "@id": "node/13350933638",
        "defibrillator:location": "In the corner by the window",
        "emergency": "defibrillator",
        "indoor": "yes",
        "level": "5"
      },
      "geometry": {
        "type": "Point",
        "coordinates": [
          139.77284,
          35.6876984
        ]
      },
      "id": "node/13350933638"
    }
  ]
}