{
  "type": "FeatureCollection",
  "generator": "overpass-turbo",
  "copyright": "The data included in this document is from www.openstreetmap.org. The data is made available under ODbL.",
  "timestamp": "2026-01-29T07:31:57Z",
  "features": [
    {
      "type": "Feature",
      "properties": {
        "@id": "relation/17689406",
        "amenity": "police",
        "level": "0",
        "name": "浅草警察署 吉原交番",
        "name:en": "Yoshiwara Police Station",
        "name:ja-Hira": "あさくさけいさつしょよしわらこうばん",
        "operator": "浅草警察署",
        "phone": "+81-3-3871-0110",
        "polling_station": "no",
        "type": "multipolygon",
        "website": "https://www.keishicho.metro.tokyo.lg.jp/about_mpd/shokai/ichiran/kankatsu/asakusa/koban/02.html",
        "@geometry": "center"
      },
      "geometry": {
        "type": "Point",
        "coordinates": [
          139.7959822,
          35.7243118
        ]
      },
      "id": "relation/17689406"
    },
    {
      "type": "Feature",
      "properties": {
        "@id": "way/72463705",
        "addr:block_number": "16",
        "addr:housenumber": "20",
        "addr:neighbourhood": "1丁目",
        "addr:quarter": "上野",
        "amenity": "school",
        "education": "school",
        "emergency": "assembly_point",
        "name": "台東区立 黒門小学校",
        "name:en": "Kuromon Elementary School",
        "name:es": "Escuela de primaria de Kuromon",
        "note": "National-Land Numerical Information (Public Facility) 2006, MLIT Japan",
        "note:ja": "国土数値情報（公共施設データ）平成19年　国土交通省",
        "source": "KSJ2",
        "source_ref": "http://nlftp.mlit.go.jp/ksj/jpgis/datalist/KsjTmplt-P02-v2_0.html",
        "website": "https://www.taitocity.net/kuromon-es/",
        "wheelchair": "yes",
        "wikidata": "Q11411963",
        "wikimedia_commons": "Category:Taito Municipal Kuromon Elementary School",
        "wikipedia": "ja:台東区立黒門小学校",
        "@geometry": "center"
      },
      "geometry": {
        "type": "Point",
        "coordinates": [
          139.7710493,
          35.7068962
        ]
      },
      "id": "way/72463705"
    },
    {
      "type": "Feature",
      "properties": {
        "@id": "way/98468920",
        "amenity": "police",
        "building": "yes",
        "building:levels": "2",
        "check_date": "2025-10-25",
        "name": "花川戸交番",
        "name:en": "Koban",
        "source": "Bing, 2007-04",
        "@geometry": "center"
      },
      "geometry": {
        "type": "Point",
        "coordinates": [
          139.7980297,
          35.7107556
        ]
      },
      "id": "way/98468920"
    },
    {
      "type": "Feature",
      "properties": {
        "@id": "way/144791580",
        "amenity": "police",
        "building": "yes",
        "building:levels": "3",
        "name": "上野警察署稲荷町交番",
        "note": "National-Land Numerical Information (Public Facility) 2006, MLIT Japan",
        "note:ja": "国土数値情報（公共施設データ）平成19年　国土交通省",
        "source": "KSJ2",
        "source_ref": "http://nlftp.mlit.go.jp/ksj/jpgis/datalist/KsjTmplt-P02-v2_0.html",
        "storeys": "3",
        "@geometry": "center"
      },
      "geometry": {
        "type": "Point",
        "coordinates": [
          139.7826375,
          35.7115077
        ]
      },
      "id": "way/144791580"
    },
    {
      "type": "Feature",
      "properties": {
        "@id": "way/145647124",
        "amenity": "police",
        "building": "yes",
        "name": "蔵前警察署",
        "name:en": "Kuramae Police Station",
        "source": "Bing",
        "wikidata": "Q11621891",
        "@geometry": "center"
      },
      "geometry": {
        "type": "Point",
        "coordinates": [
          139.7898985,
          35.7012223
        ]
      },
      "id": "way/145647124"
    },
    {
      "type": "Feature",
      "properties": {
        "@id": "way/145667033",
        "amenity": "police",
        "building": "yes",
        "name": "第六方面本部",
        "name:en": "The 6th District Headquarters",
        "note": "National-Land Numerical Information (Public Facility) 2006, MLIT Japan",
        "note:ja": "国土数値情報（公共施設データ）平成19年　国土交通省",
        "official_name": "警視庁第六方面本部",
        "source": "KSJ2",
        "source_ref": "http://nlftp.mlit.go.jp/ksj/jpgis/datalist/KsjTmplt-P02-v2_0.html",
        "@geometry": "center"
      },
      "geometry": {
        "type": "Point",
        "coordinates": [
          139.7978835,
          35.7245028
        ]
      },
      "id": "way/145667033"
    },
    {
      "type": "Feature",
      "properties": {
        "@id": "way/146352410",
        "addr:block_number": "2",
        "addr:neighbourhood": "5丁目",
        "addr:postcode": "110-0015",
        "addr:quarter": "東上野",
        "amenity": "fire_station",
        "building": "yes",
        "building:levels": "4",
        "name": "上野消防署",
        "name:en": "Ueno Fire Station",
        "name:ja": "上野消防署",
        "note": "National-Land Numerical Information (Public Facility) 2006, MLIT Japan",
        "note:ja": "国土数値情報（公共施設データ）平成19年　国土交通省",
        "operator": "東京消防庁第六消防方面本部",
        "phone": "+81-3-38410119",
        "source": "KSJ2; (URL)",
        "source_ref": "http://nlftp.mlit.go.jp/ksj/jpgis/datalist/KsjTmplt-P02-v2_0.html",
        "website": "http://www.tfd.metro.tokyo.jp/hp-ueno/",
        "@geometry": "center"
      },
      "geometry": {
        "type": "Point",
        "coordinates": [
          139.7810316,
          35.7121001
        ]
      },
      "id": "way/146352410"
    },
    {
      "type": "Feature",
      "properties": {
        "@id": "way/158817747",
        "amenity": "police",
        "building": "yes",
        "source": "bing",
        "@geometry": "center"
      },
      "geometry": {
        "type": "Point",
        "coordinates": [
          139.7941836,
          35.7046239
        ]
      },
      "id": "way/158817747"
    },
    {
      "type": "Feature",
      "properties": {
        "@id": "way/166180125",
        "addr:block_number": "9",
        "addr:neighbourhood": "2丁目",
        "addr:quarter": "小島",
        "amenity": "fire_station",
        "building": "yes",
        "name": "浅草消防団第二分団本部",
        "source": "survey",
        "@geometry": "center"
      },
      "geometry": {
        "type": "Point",
        "coordinates": [
          139.7840601,
          35.7054885
        ]
      },
      "id": "way/166180125"
    },
    {
      "type": "Feature",
      "properties": {
        "@id": "way/173154794",
        "amenity": "police",
        "building": "yes",
        "name": "浅草警察署雷門交番",
        "name:en": "Koban",
        "name:ja": "浅草警察署雷門交番",
        "note": "National-Land Numerical Information (Public Facility) 2006, MLIT Japan",
        "note:ja": "国土数値情報（公共施設データ）平成19年　国土交通省",
        "source": "KSJ2",
        "source_ref": "http://nlftp.mlit.go.jp/ksj/jpgis/datalist/KsjTmplt-P02-v2_0.html",
        "@geometry": "center"
      },
      "geometry": {
        "type": "Point",
        "coordinates": [
          139.7964387,
          35.7110225
        ]
      },
      "id": "way/173154794"
    },
    {
      "type": "Feature",
      "properties": {
        "@id": "way/196306507",
        "amenity": "police",
        "building": "yes",
        "building:levels": "2",
        "name": "上野警察署台東交番",
        "roof:shape": "flat",
        "source": "Bing",
        "@geometry": "center"
      },
      "geometry": {
        "type": "Point",
        "coordinates": [
          139.7762066,
          35.7024444
        ]
      },
      "id": "way/196306507"
    },
    {
      "type": "Feature",
      "properties": {
        "@id": "way/198109381",
        "addr:block_number": "18",
        "addr:housenumber": "19",
        "addr:neighbourhood": "2丁目",
        "addr:quarter": "小島",
        "amenity": "police",
        "building": "yes",
        "building:levels": "2",
        "name": "蔵前警察署小島二丁目交番",
        "note": "National-Land Numerical Information (Public Facility) 2006, MLIT Japan",
        "note:ja": "国土数値情報（公共施設データ）平成19年　国土交通省",
        "source": "KSJ2",
        "source_ref": "http://nlftp.mlit.go.jp/ksj/jpgis/datalist/KsjTmplt-P02-v2_0.html",
        "wheelchair": "no",
        "@geometry": "center"
      },
      "geometry": {
        "type": "Point",
        "coordinates": [
          139.7848753,
          35.7065997
        ]
      },
      "id": "way/198109381"
    },
    {
      "type": "Feature",
      "properties": {
        "@id": "way/200681420",
        "addr:block_number": "10",
        "addr:city": "台東区",
        "addr:housenumber": "9",
        "addr:neighbourhood": "2丁目",
        "addr:postcode": "111-0051",
        "addr:province": "東京都",
        "addr:quarter": "蔵前",
        "amenity": "fire_station",
        "building": "yes",
        "name": "東京消防庁第六消防方面本部",
        "operator": "東京消防庁",
        "source": "Bing, 2013-01",
        "@geometry": "center"
      },
      "geometry": {
        "type": "Point",
        "coordinates": [
          139.7935645,
          35.7036218
        ]
      },
      "id": "way/200681420"
    },
    {
      "type": "Feature",
      "properties": {
        "@id": "way/208679264",
        "access": "yes",
        "bicycle": "no",
        "emergency": "assembly_point",
        "leisure": "playground",
        "name": "黒門児童遊園",
        "name:en": "Kuromon childrens' park",
        "name:ja-Hira": "くろもんじどうゆうえん",
        "shelter_type:en": "Temporary natural disaster evacuation area",
        "shelter_type:ja": "一時避難場所",
        "smoking": "no",
        "source": "survey",
        "surface": "paving_stones",
        "@geometry": "center"
      },
      "geometry": {
        "type": "Point",
        "coordinates": [
          139.7722344,
          35.7065658
        ]
      },
      "id": "way/208679264"
    },
    {
      "type": "Feature",
      "properties": {
        "@id": "way/217420934",
        "amenity": "police",
        "building": "yes",
        "building:levels": "2",
        "name": "上野警察署池之端交番",
        "note": "National-Land Numerical Information (Public Facility) 2006, MLIT Japan",
        "note:ja": "国土数値情報（公共施設データ）平成19年　国土交通省",
        "source": "KSJ2",
        "source_ref": "http://nlftp.mlit.go.jp/ksj/jpgis/datalist/KsjTmplt-P02-v2_0.html",
        "@geometry": "center"
      },
      "geometry": {
        "type": "Point",
        "coordinates": [
          139.7687065,
          35.7124573
        ]
      },
      "id": "way/217420934"
    },
    {
      "type": "Feature",
      "properties": {
        "@id": "way/229969774",
        "addr:block_number": "8",
        "addr:housenumber": "8",
        "addr:neighbourhood": "3丁目",
        "addr:quarter": "浅草橋",
        "amenity": "fire_station",
        "building": "yes",
        "name": "浅草橋消防団第一分団本部",
        "source": "GSI/KIBAN 25000; NARO",
        "source_ref": "http://wiki.osm.org/wiki/GSI_KIBAN",
        "@geometry": "center"
      },
      "geometry": {
        "type": "Point",
        "coordinates": [
          139.7842328,
          35.7009945
        ]
      },
      "id": "way/229969774"
    },
    {
      "type": "Feature",
      "properties": {
        "@id": "way/231169802",
        "addr:block_number": "26",
        "addr:housenumber": "12",
        "addr:neighbourhood": "4丁目",
        "addr:quarter": "松が谷",
        "amenity": "police",
        "building": "yes",
        "name": "下谷警察署 入谷東交番",
        "name:en": "Shitaya Police Station Iriyaazuma Police Box",
        "note": "National-Land Numerical Information (Public Facility) 2006, MLIT Japan",
        "note:ja": "国土数値情報（公共施設データ）平成19年　国土交通省",
        "source": "KSJ2",
        "source_ref": "http://nlftp.mlit.go.jp/ksj/jpgis/datalist/KsjTmplt-P02-v2_0.html",
        "@geometry": "center"
      },
      "geometry": {
        "type": "Point",
        "coordinates": [
          139.7883996,
          35.7182545
        ]
      },
      "id": "way/231169802"
    },
    {
      "type": "Feature",
      "properties": {
        "@id": "way/231439651",
        "addr:block_number": "8",
        "addr:housenumber": "3",
        "addr:neighbourhood": "4丁目",
        "addr:quarter": "台東",
        "amenity": "police",
        "building": "yes",
        "building:levels": "3",
        "name": "上野警察署御徒町交番",
        "name:en": "Koban",
        "note": "National-Land Numerical Information (Public Facility) 2006, MLIT Japan",
        "note:ja": "国土数値情報（公共施設データ）平成19年　国土交通省",
        "source": "KSJ2",
        "source_ref": "http://nlftp.mlit.go.jp/ksj/jpgis/datalist/KsjTmplt-P02-v2_0.html",
        "@geometry": "center"
      },
      "geometry": {
        "type": "Point",
        "coordinates": [
          139.7764133,
          35.7059325
        ]
      },
      "id": "way/231439651"
    },
    {
      "type": "Feature",
      "properties": {
        "@id": "way/332624615",
        "addr:block_number": "1",
        "addr:housenumber": "65",
        "amenity": "police",
        "building": "yes",
        "building:levels": "2",
        "check_date": "2025-12-12",
        "name": "上野警察署公園前交番",
        "name:en": "Koban",
        "note": "National-Land Numerical Information (Public Facility) 2006, MLIT Japan",
        "note:ja": "国土数値情報（公共施設データ）平成19年　国土交通省",
        "source": "KSJ2",
        "source_ref": "http://nlftp.mlit.go.jp/ksj/jpgis/datalist/KsjTmplt-P02-v2_0.html",
        "@geometry": "center"
      },
      "geometry": {
        "type": "Point",
        "coordinates": [
          139.7737853,
          35.71087
        ]
      },
      "id": "way/332624615"
    },
    {
      "type": "Feature",
      "properties": {
        "@id": "way/402875409",
        "amenity": "police",
        "building": "yes",
        "building:colour": "grey",
        "building:levels": "2",
        "building:material": "metal",
        "building:use": "government",
        "height": "10m",
        "layer": "-1",
        "name": "上野警察署動物園前交番",
        "name:en": "Ueno police station zoo front police box",
        "name:ja-Latn": "Ueno Keisatsusho Dōbutsuen mae Kōban",
        "note": "National-Land Numerical Information (Public Facility) 2006, MLIT Japan",
        "note:ja": "国土数値情報（公共施設データ）平成19年　国土交通省",
        "roof:material": "metal",
        "source": "KSJ2",
        "source_ref": "http://nlftp.mlit.go.jp/ksj/jpgis/datalist/KsjTmplt-P02-v2_0.html",
        "wheelchair": "limited",
        "@geometry": "center"
      },
      "geometry": {
        "type": "Point",
        "coordinates": [
          139.7745843,
          35.7153795
        ]
      },
      "id": "way/402875409"
    },
    {
      "type": "Feature",
      "properties": {
        "@id": "way/518703123",
        "amenity": "police",
        "building": "yes",
        "@geometry": "center"
      },
      "geometry": {
        "type": "Point",
        "coordinates": [
          139.7706255,
          35.7251599
        ]
      },
      "id": "way/518703123"
    },
    {
      "type": "Feature",
      "properties": {
        "@id": "node/1148821018",
        "amenity": "police",
        "name": "田原町交番",
        "name:en": "Taharacho Koban"
      },
      "geometry": {
        "type": "Point",
        "coordinates": [
          139.7918201,
          35.7116111
        ]
      },
      "id": "node/1148821018"
    },
    {
      "type": "Feature",
      "properties": {
        "@id": "node/1420765907",
        "amenity": "fire_station",
        "name": "上野消防署下谷出張所",
        "name:en": "Shitaya Fire Substation",
        "note": "National-Land Numerical Information (Public Facility) 2006, MLIT Japan",
        "note:ja": "国土数値情報（公共施設データ）平成19年　国土交通省",
        "source": "KSJ2",
        "source_ref": "http://nlftp.mlit.go.jp/ksj/jpgis/datalist/KsjTmplt-P02-v2_0.html"
      },
      "geometry": {
        "type": "Point",
        "coordinates": [
          139.783819,
          35.721845
        ]
      },
      "id": "node/1420765907"
    },
    {
      "type": "Feature",
      "properties": {
        "@id": "node/1420765908",
        "amenity": "fire_station",
        "name": "上野消防署谷中出張所",
        "name:en": "Ueno Fire Station Yanaka Branch",
        "note": "National-Land Numerical Information (Public Facility) 2006, MLIT Japan",
        "note:ja": "国土数値情報（公共施設データ）平成19年　国土交通省",
        "source": "KSJ2",
        "source_ref": "http://nlftp.mlit.go.jp/ksj/jpgis/datalist/KsjTmplt-P02-v2_0.html"
      },
      "geometry": {
        "type": "Point",
        "coordinates": [
          139.7685906,
          35.7200032
        ]
      },
      "id": "node/1420765908"
    },
    {
      "type": "Feature",
      "properties": {
        "@id": "node/1420765910",
        "amenity": "police",
        "name": "上野警察署",
        "name:en": "Ueno Police Station",
        "name:es": "Estación de policía Ueno",
        "note": "National-Land Numerical Information (Public Facility) 2006, MLIT Japan",
        "note:ja": "国土数値情報（公共施設データ）平成19年　国土交通省",
        "source": "KSJ2",
        "source_ref": "http://nlftp.mlit.go.jp/ksj/jpgis/datalist/KsjTmplt-P02-v2_0.html",
        "wikidata": "Q11360456"
      },
      "geometry": {
        "type": "Point",
        "coordinates": [
          139.779459,
          35.712346
        ]
      },
      "id": "node/1420765910"
    },
    {
      "type": "Feature",
      "properties": {
        "@id": "node/1420765911",
        "amenity": "police",
        "name": "上野警察署上野駅交番",
        "name:en": "Koban",
        "name:es": "Policía",
        "note": "National-Land Numerical Information (Public Facility) 2006, MLIT Japan",
        "note:ja": "国土数値情報（公共施設データ）平成19年　国土交通省",
        "source": "KSJ2",
        "source_ref": "http://nlftp.mlit.go.jp/ksj/jpgis/datalist/KsjTmplt-P02-v2_0.html"
      },
      "geometry": {
        "type": "Point",
        "coordinates": [
          139.776626,
          35.712318
        ]
      },
      "id": "node/1420765911"
    },
    {
      "type": "Feature",
      "properties": {
        "@id": "node/1420765918",
        "addr:housenumber": "13",
        "amenity": "police",
        "name": "上野警察署黒門交番",
        "name:en": "Koban",
        "note": "National-Land Numerical Information (Public Facility) 2006, MLIT Japan",
        "note:ja": "国土数値情報（公共施設データ）平成19年　国土交通省",
        "source": "KSJ2",
        "source_ref": "http://nlftp.mlit.go.jp/ksj/jpgis/datalist/KsjTmplt-P02-v2_0.html",
        "wheelchair": "limited"
      },
      "geometry": {
        "type": "Point",
        "coordinates": [
          139.772291,
          35.7066715
        ]
      },
      "id": "node/1420765918"
    },
    {
      "type": "Feature",
      "properties": {
        "@id": "node/1420765959",
        "amenity": "police",
        "name": "下谷警察署",
        "note": "National-Land Numerical Information (Public Facility) 2006, MLIT Japan",
        "note:ja": "国土数値情報（公共施設データ）平成19年　国土交通省",
        "source": "KSJ2",
        "source_ref": "http://nlftp.mlit.go.jp/ksj/jpgis/datalist/KsjTmplt-P02-v2_0.html",
        "wikidata": "Q11361340"
      },
      "geometry": {
        "type": "Point",
        "coordinates": [
          139.7879508,
          35.7259025
        ]
      },
      "id": "node/1420765959"
    },
    {
      "type": "Feature",
      "properties": {
        "@id": "node/1420765960",
        "amenity": "police",
        "name": "下谷警察署三ノ輪交番",
        "name:en": "Koban",
        "name:ja": "下谷警察署三ノ輪交番",
        "note": "National-Land Numerical Information (Public Facility) 2006, MLIT Japan",
        "note:ja": "国土数値情報（公共施設データ）平成19年　国土交通省",
        "source": "KSJ2",
        "source_ref": "http://nlftp.mlit.go.jp/ksj/jpgis/datalist/KsjTmplt-P02-v2_0.html"
      },
      "geometry": {
        "type": "Point",
        "coordinates": [
          139.7905373,
          35.7284229
        ]
      },
      "id": "node/1420765960"
    },
    {
      "type": "Feature",
      "properties": {
        "@id": "node/1420765963",
        "amenity": "police",
        "name": "下谷警察署 初音交番",
        "name:en": "Koban",
        "note": "National-Land Numerical Information (Public Facility) 2006, MLIT Japan",
        "note:ja": "国土数値情報（公共施設データ）平成19年　国土交通省",
        "source": "KSJ2",
        "source_ref": "http://nlftp.mlit.go.jp/ksj/jpgis/datalist/KsjTmplt-P02-v2_0.html"
      },
      "geometry": {
        "type": "Point",
        "coordinates": [
          139.7647883,
          35.7243282
        ]
      },
      "id": "node/1420765963"
    },
    {
      "type": "Feature",
      "properties": {
        "@id": "node/1420765964",
        "amenity": "police",
        "name": "天王寺駐在所",
        "name:en": "Tennoji Chuzaisho (Police Box)",
        "name:fr": "Bureau de police de Tennō-ji",
        "name:ja-Hira": "てんのうじ ちゅうざいしょ",
        "name:ja-Latn": "Tennō-ji chūzaijo",
        "note": "National-Land Numerical Information (Public Facility) 2006, MLIT Japan",
        "note:ja": "国土数値情報（公共施設データ）平成19年　国土交通省",
        "source": "KSJ2",
        "source_ref": "http://nlftp.mlit.go.jp/ksj/jpgis/datalist/KsjTmplt-P02-v2_0.html"
      },
      "geometry": {
        "type": "Point",
        "coordinates": [
          139.7706233,
          35.7251579
        ]
      },
      "id": "node/1420765964"
    },
    {
      "type": "Feature",
      "properties": {
        "@id": "node/1420765965",
        "amenity": "police",
        "name": "下谷警察署 清水坂 地域安全センター",
        "name:ja_rm": "Koban",
        "note": "National-Land Numerical Information (Public Facility) 2006, MLIT Japan",
        "note:ja": "国土数値情報（公共施設データ）平成19年　国土交通省",
        "source": "KSJ2",
        "source_ref": "http://nlftp.mlit.go.jp/ksj/jpgis/datalist/KsjTmplt-P02-v2_0.html"
      },
      "geometry": {
        "type": "Point",
        "coordinates": [
          139.7698964,
          35.7171354
        ]
      },
      "id": "node/1420765965"
    },
    {
      "type": "Feature",
      "properties": {
        "@id": "node/1420765966",
        "amenity": "police",
        "name": "下谷警察署 谷中交番",
        "name:en": "Shitaya Police Station Yanaka Koban",
        "name:ja-Latn": "Shitaya Police Station Yanaka Koban",
        "note": "National-Land Numerical Information (Public Facility) 2006, MLIT Japan",
        "note:ja": "国土数値情報（公共施設データ）平成19年　国土交通省",
        "source": "KSJ2",
        "source_ref": "http://nlftp.mlit.go.jp/ksj/jpgis/datalist/KsjTmplt-P02-v2_0.html"
      },
      "geometry": {
        "type": "Point",
        "coordinates": [
          139.7706448,
          35.7218719
        ]
      },
      "id": "node/1420765966"
    },
    {
      "type": "Feature",
      "properties": {
        "@id": "node/1420765967",
        "amenity": "police",
        "name": "下谷警察署鶯谷駅前交番",
        "name:en": "Koban",
        "note": "National-Land Numerical Information (Public Facility) 2006, MLIT Japan",
        "note:ja": "国土数値情報（公共施設データ）平成19年　国土交通省",
        "source": "KSJ2",
        "source_ref": "http://nlftp.mlit.go.jp/ksj/jpgis/datalist/KsjTmplt-P02-v2_0.html"
      },
      "geometry": {
        "type": "Point",
        "coordinates": [
          139.7778544,
          35.7228986
        ]
      },
      "id": "node/1420765967"
    },
    {
      "type": "Feature",
      "properties": {
        "@id": "node/1420781022",
        "addr:block_number": "1",
        "addr:city": "台東区",
        "addr:neighbourhood": "千束四丁目",
        "addr:postcode": "111-0031",
        "addr:province": "東京都",
        "addr:quarter": "東浅草",
        "amenity": "fire_station",
        "fax": "+81-3-38720499",
        "name": "日本堤消防署",
        "name:en": "Nihonzutsumi Fire Station",
        "name:ja": "日本堤消防署",
        "note": "National-Land Numerical Information (Public Facility) 2006, MLIT Japan",
        "note:ja": "国土数値情報（公共施設データ）平成19年　国土交通省",
        "operator": "東京消防庁第六消防方面本部",
        "phone": "+81-3-38750119",
        "source": "KSJ2;(URL)",
        "source_ref": "http://nlftp.mlit.go.jp/ksj/jpgis/datalist/KsjTmplt-P02-v2_0.html",
        "website": "http://www.tfd.metro.tokyo.jp/hp-nihondutumi/"
      },
      "geometry": {
        "type": "Point",
        "coordinates": [
          139.7980469,
          35.7233907
        ]
      },
      "id": "node/1420781022"
    },
    {
      "type": "Feature",
      "properties": {
        "@id": "node/1420781028",
        "amenity": "fire_station",
        "check_date": "2023-01-08",
        "name": "日本堤消防署二天門出張所",
        "name:en": "Nitemmon Fire Substation",
        "note": "National-Land Numerical Information (Public Facility) 2006, MLIT Japan",
        "note:ja": "国土数値情報（公共施設データ）平成19年　国土交通省",
        "source": "KSJ2",
        "source_ref": "http://nlftp.mlit.go.jp/ksj/jpgis/datalist/KsjTmplt-P02-v2_0.html"
      },
      "geometry": {
        "type": "Point",
        "coordinates": [
          139.797707,
          35.714262
        ]
      },
      "id": "node/1420781028"
    },
    {
      "type": "Feature",
      "properties": {
        "@id": "node/1420781029",
        "amenity": "fire_station",
        "name": "日本堤消防署今戸出張所",
        "name:en": "Nihonzutsumi Fire Station Imado Branch",
        "note": "National-Land Numerical Information (Public Facility) 2006, MLIT Japan",
        "note:ja": "国土数値情報（公共施設データ）平成19年　国土交通省",
        "source": "KSJ2",
        "source_ref": "http://nlftp.mlit.go.jp/ksj/jpgis/datalist/KsjTmplt-P02-v2_0.html"
      },
      "geometry": {
        "type": "Point",
        "coordinates": [
          139.804707,
          35.722346
        ]
      },
      "id": "node/1420781029"
    },
    {
      "type": "Feature",
      "properties": {
        "@id": "node/1420788005",
        "addr:postcode": "111-0043",
        "amenity": "fire_station",
        "fax": "+81-3-38470146",
        "name": "浅草消防署",
        "name:en": "Asakusa Fire Station",
        "name:es": "Estación de bomberos Asakusa",
        "name:ja": "浅草消防署",
        "note": "National-Land Numerical Information (Public Facility) 2006, MLIT Japan",
        "note:ja": "国土数値情報（公共施設データ）平成19年　国土交通省",
        "operator": "東京消防庁第六消防方面本部",
        "phone": "+81-3-38470119",
        "source": "KSJ2;(URL)",
        "source_ref": "http://nlftp.mlit.go.jp/ksj/jpgis/datalist/KsjTmplt-P02-v2_0.html",
        "website": "http://www.tfd.metro.tokyo.jp/hp-asakusa/"
      },
      "geometry": {
        "type": "Point",
        "coordinates": [
          139.7940495,
          35.7074022
        ]
      },
      "id": "node/1420788005"
    },
    {
      "type": "Feature",
      "properties": {
        "@id": "node/1420788014",
        "amenity": "fire_station",
        "name": "浅草消防署浅草橋出張所",
        "note": "National-Land Numerical Information (Public Facility) 2006, MLIT Japan",
        "note:ja": "国土数値情報（公共施設データ）平成19年　国土交通省",
        "source": "KSJ2",
        "source_ref": "http://nlftp.mlit.go.jp/ksj/jpgis/datalist/KsjTmplt-P02-v2_0.html"
      },
      "geometry": {
        "type": "Point",
        "coordinates": [
          139.78407,
          35.7013922
        ]
      },
      "id": "node/1420788014"
    },
    {
      "type": "Feature",
      "properties": {
        "@id": "node/1420788015",
        "amenity": "police",
        "name": "浅草警察署",
        "name:en": "Asakusa Police Station",
        "note": "National-Land Numerical Information (Public Facility) 2006, MLIT Japan",
        "note:ja": "国土数値情報（公共施設データ）平成19年　国土交通省",
        "source": "KSJ2",
        "source_ref": "http://nlftp.mlit.go.jp/ksj/jpgis/datalist/KsjTmplt-P02-v2_0.html",
        "wikidata": "Q11557240"
      },
      "geometry": {
        "type": "Point",
        "coordinates": [
          139.797846,
          35.718984
        ]
      },
      "id": "node/1420788015"
    },
    {
      "type": "Feature",
      "properties": {
        "@id": "node/1420788020",
        "addr:block_number": "6",
        "addr:city": "台東区",
        "addr:housenumber": "6",
        "addr:neighbourhood": "浅草二丁目",
        "addr:postcode": "111-0032",
        "addr:province": "東京都",
        "amenity": "police",
        "name": "浅草警察署公園六区交番",
        "note": "National-Land Numerical Information (Public Facility) 2006, MLIT Japan",
        "note:ja": "国土数値情報（公共施設データ）平成19年　国土交通省",
        "source": "KSJ2",
        "source_ref": "http://nlftp.mlit.go.jp/ksj/jpgis/datalist/KsjTmplt-P02-v2_0.html",
        "website": "https://www.keishicho.metro.tokyo.lg.jp/about_mpd/shokai/ichiran/kankatsu/asakusa/koban/05.html"
      },
      "geometry": {
        "type": "Point",
        "coordinates": [
          139.7934642,
          35.7137827
        ]
      },
      "id": "node/1420788020"
    },
    {
      "type": "Feature",
      "properties": {
        "@id": "node/1420788033",
        "amenity": "police",
        "name": "浅草警察署 東浅草交番",
        "name:en": "Koban",
        "note": "National-Land Numerical Information (Public Facility) 2006, MLIT Japan",
        "note:ja": "国土数値情報（公共施設データ）平成19年　国土交通省",
        "source": "KSJ2",
        "source_ref": "http://nlftp.mlit.go.jp/ksj/jpgis/datalist/KsjTmplt-P02-v2_0.html"
      },
      "geometry": {
        "type": "Point",
        "coordinates": [
          139.8013729,
          35.7229992
        ]
      },
      "id": "node/1420788033"
    },
    {
      "type": "Feature",
      "properties": {
        "@id": "node/1420788042",
        "amenity": "police",
        "name": "浅草警察署 橋場交番",
        "note": "National-Land Numerical Information (Public Facility) 2006, MLIT Japan",
        "note:ja": "国土数値情報（公共施設データ）平成19年　国土交通省",
        "source": "KSJ2",
        "source_ref": "http://nlftp.mlit.go.jp/ksj/jpgis/datalist/KsjTmplt-P02-v2_0.html"
      },
      "geometry": {
        "type": "Point",
        "coordinates": [
          139.8045611,
          35.7264194
        ]
      },
      "id": "node/1420788042"
    },
    {
      "type": "Feature",
      "properties": {
        "@id": "node/1420788047",
        "amenity": "police",
        "name": "浅草警察署 聖天町交番",
        "name:en": "Koban",
        "note": "National-Land Numerical Information (Public Facility) 2006, MLIT Japan",
        "note:ja": "国土数値情報（公共施設データ）平成19年　国土交通省",
        "source": "KSJ2",
        "source_ref": "http://nlftp.mlit.go.jp/ksj/jpgis/datalist/KsjTmplt-P02-v2_0.html"
      },
      "geometry": {
        "type": "Point",
        "coordinates": [
          139.802013,
          35.715596
        ]
      },
      "id": "node/1420788047"
    },
    {
      "type": "Feature",
      "properties": {
        "@id": "node/1420788057",
        "amenity": "police",
        "name": "浅草警察署 西浅草三丁目交番",
        "name:en": "Koban",
        "note": "National-Land Numerical Information (Public Facility) 2006, MLIT Japan",
        "note:ja": "国土数値情報（公共施設データ）平成19年　国土交通省",
        "source": "KSJ2",
        "source_ref": "http://nlftp.mlit.go.jp/ksj/jpgis/datalist/KsjTmplt-P02-v2_0.html"
      },
      "geometry": {
        "type": "Point",
        "coordinates": [
          139.7924136,
          35.7171625
        ]
      },
      "id": "node/1420788057"
    },
    {
      "type": "Feature",
      "properties": {
        "@id": "node/1420788062",
        "amenity": "police",
        "name": "浅草警察署観音前交番",
        "name:en": "Koban",
        "note": "National-Land Numerical Information (Public Facility) 2006, MLIT Japan",
        "note:ja": "国土数値情報（公共施設データ）平成19年　国土交通省",
        "source": "KSJ2",
        "source_ref": "http://nlftp.mlit.go.jp/ksj/jpgis/datalist/KsjTmplt-P02-v2_0.html"
      },
      "geometry": {
        "type": "Point",
        "coordinates": [
          139.797313,
          35.7140387
        ]
      },
      "id": "node/1420788062"
    },
    {
      "type": "Feature",
      "properties": {
        "@id": "node/1420797314",
        "amenity": "police",
        "name": "蔵前警察署 田原町交番",
        "note": "National-Land Numerical Information (Public Facility) 2006, MLIT Japan",
        "note:ja": "国土数値情報（公共施設データ）平成19年　国土交通省",
        "source": "KSJ2",
        "source_ref": "http://nlftp.mlit.go.jp/ksj/jpgis/datalist/KsjTmplt-P02-v2_0.html"
      },
      "geometry": {
        "type": "Point",
        "coordinates": [
          139.7884119,
          35.7105111
        ]
      },
      "id": "node/1420797314"
    },
    {
      "type": "Feature",
      "properties": {
        "@id": "node/1420797315",
        "amenity": "police",
        "name": "蔵前警察署菊屋橋交番",
        "name:en": "Koban",
        "note": "National-Land Numerical Information (Public Facility) 2006, MLIT Japan",
        "note:ja": "国土数値情報（公共施設データ）平成19年　国土交通省",
        "source": "KSJ2",
        "source_ref": "http://nlftp.mlit.go.jp/ksj/jpgis/datalist/KsjTmplt-P02-v2_0.html"
      },
      "geometry": {
        "type": "Point",
        "coordinates": [
          139.791736,
          35.711679
        ]
      },
      "id": "node/1420797315"
    },
    {
      "type": "Feature",
      "properties": {
        "@id": "node/1420797326",
        "amenity": "police",
        "name": "蔵前警察署蔵前二丁目交番",
        "name:en": "Koban",
        "note": "National-Land Numerical Information (Public Facility) 2006, MLIT Japan",
        "note:ja": "国土数値情報（公共施設データ）平成19年　国土交通省",
        "source": "KSJ2",
        "source_ref": "http://nlftp.mlit.go.jp/ksj/jpgis/datalist/KsjTmplt-P02-v2_0.html"
      },
      "geometry": {
        "type": "Point",
        "coordinates": [
          139.794184,
          35.7046217
        ]
      },
      "id": "node/1420797326"
    },
    {
      "type": "Feature",
      "properties": {
        "@id": "node/1420797327",
        "amenity": "police",
        "name": "蔵前警察署須賀橋交番",
        "name:en": "Sugabashi Police Box, Kuramae Police",
        "note": "National-Land Numerical Information (Public Facility) 2006, MLIT Japan",
        "note:ja": "国土数値情報（公共施設データ）平成19年　国土交通省",
        "source": "KSJ2",
        "source_ref": "http://nlftp.mlit.go.jp/ksj/jpgis/datalist/KsjTmplt-P02-v2_0.html"
      },
      "geometry": {
        "type": "Point",
        "coordinates": [
          139.7883814,
          35.700147
        ]
      },
      "id": "node/1420797327"
    },
    {
      "type": "Feature",
      "properties": {
        "@id": "node/3937845866",
        "emergency": "defibrillator"
      },
      "geometry": {
        "type": "Point",
        "coordinates": [
          139.8045788,
          35.7264185
        ]
      },
      "id": "node/3937845866"
    },
    {
      "type": "Feature",
      "properties": {
        "@id": "node/4218454492",
        "emergency": "defibrillator"
      },
      "geometry": {
        "type": "Point",
        "coordinates": [
          139.7712096,
          35.7190121
        ]
      },
      "id": "node/4218454492"
    },
    {
      "type": "Feature",
      "properties": {
        "@id": "node/4978408687",
        "emergency": "defibrillator",
        "indoor": "no"
      },
      "geometry": {
        "type": "Point",
        "coordinates": [
          139.7777295,
          35.7016651
        ]
      },
      "id": "node/4978408687"
    },
    {
      "type": "Feature",
      "properties": {
        "@id": "node/4987634539",
        "emergency": "defibrillator"
      },
      "geometry": {
        "type": "Point",
        "coordinates": [
          139.772158,
          35.7126699
        ]
      },
      "id": "node/4987634539"
    },
    {
      "type": "Feature",
      "properties": {
        "@id": "node/4988082708",
        "emergency": "defibrillator",
        "level": "0"
      },
      "geometry": {
        "type": "Point",
        "coordinates": [
          139.7741627,
          35.7035081
        ]
      },
      "id": "node/4988082708"
    },
    {
      "type": "Feature",
      "properties": {
        "@id": "node/5002440882",
        "emergency": "defibrillator"
      },
      "geometry": {
        "type": "Point",
        "coordinates": [
          139.772738,
          35.7156957
        ]
      },
      "id": "node/5002440882"
    },
    {
      "type": "Feature",
      "properties": {
        "@id": "node/5003040584",
        "emergency": "defibrillator",
        "indoor": "yes"
      },
      "geometry": {
        "type": "Point",
        "coordinates": [
          139.7682442,
          35.7140017
        ]
      },
      "id": "node/5003040584"
    },
    {
      "type": "Feature",
      "properties": {
        "@id": "node/5003047240",
        "emergency": "defibrillator"
      },
      "geometry": {
        "type": "Point",
        "coordinates": [
          139.7689883,
          35.7145936
        ]
      },
      "id": "node/5003047240"
    },
    {
      "type": "Feature",
      "properties": {
        "@id": "node/5006985219",
        "emergency": "defibrillator",
        "indoor": "yes",
        "level": "0"
      },
      "geometry": {
        "type": "Point",
        "coordinates": [
          139.7723013,
          35.7066592
        ]
      },
      "id": "node/5006985219"
    },
    {
      "type": "Feature",
      "properties": {
        "@id": "node/5008659526",
        "emergency": "defibrillator",
        "indoor": "yes",
        "source": "survey"
      },
      "geometry": {
        "type": "Point",
        "coordinates": [
          139.7815532,
          35.7095676
        ]
      },
      "id": "node/5008659526"
    },
    {
      "type": "Feature",
      "properties": {
        "@id": "node/5008659527",
        "emergency": "defibrillator",
        "indoor": "yes",
        "source": "survey"
      },
      "geometry": {
        "type": "Point",
        "coordinates": [
          139.7816565,
          35.7095289
        ]
      },
      "id": "node/5008659527"
    },
    {
      "type": "Feature",
      "properties": {
        "@id": "node/5025610500",
        "emergency": "defibrillator",
        "indoor": "yes"
      },
      "geometry": {
        "type": "Point",
        "coordinates": [
          139.7686887,
          35.7124527
        ]
      },
      "id": "node/5025610500"
    },
    {
      "type": "Feature",
      "properties": {
        "@id": "node/5036630953",
        "emergency": "defibrillator",
        "indoor": "yes",
        "level": "-1"
      },
      "geometry": {
        "type": "Point",
        "coordinates": [
          139.7826482,
          35.7112843
        ]
      },
      "id": "node/5036630953"
    },
    {
      "type": "Feature",
      "properties": {
        "@id": "node/5055630509",
        "emergency": "defibrillator",
        "indoor": "yes"
      },
      "geometry": {
        "type": "Point",
        "coordinates": [
          139.7737849,
          35.7108585
        ]
      },
      "id": "node/5055630509"
    },
    {
      "type": "Feature",
      "properties": {
        "@id": "node/5117147537",
        "defibrillator:location": "改札入ってすぐ右の壁面",
        "emergency": "defibrillator",
        "indoor": "yes"
      },
      "geometry": {
        "type": "Point",
        "coordinates": [
          139.7790943,
          35.7203914
        ]
      },
      "id": "node/5117147537"
    },
    {
      "type": "Feature",
      "properties": {
        "@id": "node/5126290125",
        "emergency": "defibrillator",
        "indoor": "yes"
      },
      "geometry": {
        "type": "Point",
        "coordinates": [
          139.7720991,
          35.7161321
        ]
      },
      "id": "node/5126290125"
    },
    {
      "type": "Feature",
      "properties": {
        "@id": "node/5154790818",
        "defibrillator:location": "入って左の壁",
        "emergency": "defibrillator",
        "indoor": "yes"
      },
      "geometry": {
        "type": "Point",
        "coordinates": [
          139.7707825,
          35.7175269
        ]
      },
      "id": "node/5154790818"
    },
    {
      "type": "Feature",
      "properties": {
        "@id": "node/5185152675",
        "access": "yes",
        "defibrillator:location": "浅草橋駅構内",
        "emergency": "defibrillator",
        "indoor": "yes",
        "level": "0"
      },
      "geometry": {
        "type": "Point",
        "coordinates": [
          139.7838029,
          35.6974727
        ]
      },
      "id": "node/5185152675"
    },
    {
      "type": "Feature",
      "properties": {
        "@id": "node/5231956149",
        "defibrillator:location": "交番内1Fの壁に設置",
        "emergency": "defibrillator",
        "indoor": "yes",
        "source": "survey"
      },
      "geometry": {
        "type": "Point",
        "coordinates": [
          139.7764136,
          35.70594
        ]
      },
      "id": "node/5231956149"
    },
    {
      "type": "Feature",
      "properties": {
        "@id": "node/5259440532",
        "defibrillator:location": "御徒町駅改札脇柱、改札内・改札外どちらからでも届く場所",
        "emergency": "defibrillator",
        "indoor": "yes",
        "level": "0",
        "source": "survey"
      },
      "geometry": {
        "type": "Point",
        "coordinates": [
          139.7748147,
          35.7075466
        ]
      },
      "id": "node/5259440532"
    },
    {
      "type": "Feature",
      "properties": {
        "@id": "node/5259456380",
        "access": "permissive",
        "defibrillator:location": "交番建物内1F",
        "emergency": "defibrillator",
        "indoor": "yes",
        "level": "0"
      },
      "geometry": {
        "type": "Point",
        "coordinates": [
          139.7778415,
          35.7228904
        ]
      },
      "id": "node/5259456380"
    },
    {
      "type": "Feature",
      "properties": {
        "@id": "node/5303070186",
        "defibrillator:location": "駐車場の出入口を入って右の壁 (営業時間外は閉鎖)",
        "emergency": "defibrillator",
        "indoor": "yes"
      },
      "geometry": {
        "type": "Point",
        "coordinates": [
          139.7738653,
          35.7065985
        ]
      },
      "id": "node/5303070186"
    },
    {
      "type": "Feature",
      "properties": {
        "@id": "node/5456979879",
        "access": "customers",
        "defibrillator:location": "改札内・精算機の脇",
        "emergency": "defibrillator",
        "wheelchair": "yes"
      },
      "geometry": {
        "type": "Point",
        "coordinates": [
          139.7746871,
          35.7067423
        ]
      },
      "id": "node/5456979879"
    },
    {
      "type": "Feature",
      "properties": {
        "@id": "node/5525436410",
        "emergency": "assembly_point",
        "name": "柳北公園 一時集合場所"
      },
      "geometry": {
        "type": "Point",
        "coordinates": [
          139.7831791,
          35.6997024
        ]
      },
      "id": "node/5525436410"
    },
    {
      "type": "Feature",
      "properties": {
        "@id": "node/5568283708",
        "access": "permissive",
        "emergency": "defibrillator",
        "indoor": "yes"
      },
      "geometry": {
        "type": "Point",
        "coordinates": [
          139.7762052,
          35.7024534
        ]
      },
      "id": "node/5568283708"
    },
    {
      "type": "Feature",
      "properties": {
        "@id": "node/5580605949",
        "emergency": "defibrillator",
        "source": "survey"
      },
      "geometry": {
        "type": "Point",
        "coordinates": [
          139.7833169,
          35.699463
        ]
      },
      "id": "node/5580605949"
    },
    {
      "type": "Feature",
      "properties": {
        "@id": "node/5582687550",
        "emergency": "defibrillator",
        "indoor": "yes",
        "level": "0",
        "source": "survey"
      },
      "geometry": {
        "type": "Point",
        "coordinates": [
          139.7848721,
          35.7066173
        ]
      },
      "id": "node/5582687550"
    },
    {
      "type": "Feature",
      "properties": {
        "@id": "node/5592737110",
        "emergency": "assembly_point",
        "name": "一時集合場所"
      },
      "geometry": {
        "type": "Point",
        "coordinates": [
          139.7785775,
          35.7032883
        ]
      },
      "id": "node/5592737110"
    },
    {
      "type": "Feature",
      "properties": {
        "@id": "node/5602363696",
        "emergency": "assembly_point"
      },
      "geometry": {
        "type": "Point",
        "coordinates": [
          139.7835391,
          35.705554
        ]
      },
      "id": "node/5602363696"
    },
    {
      "type": "Feature",
      "properties": {
        "@id": "node/5752967072",
        "emergency": "defibrillator"
      },
      "geometry": {
        "type": "Point",
        "coordinates": [
          139.7810957,
          35.7014391
        ]
      },
      "id": "node/5752967072"
    },
    {
      "type": "Feature",
      "properties": {
        "@id": "node/5950436522",
        "emergency": "defibrillator"
      },
      "geometry": {
        "type": "Point",
        "coordinates": [
          139.7816268,
          35.7144961
        ]
      },
      "id": "node/5950436522"
    },
    {
      "type": "Feature",
      "properties": {
        "@id": "node/6167679480",
        "emergency": "defibrillator"
      },
      "geometry": {
        "type": "Point",
        "coordinates": [
          139.7826323,
          35.7115115
        ]
      },
      "id": "node/6167679480"
    },
    {
      "type": "Feature",
      "properties": {
        "@id": "node/6202597860",
        "emergency": "defibrillator"
      },
      "geometry": {
        "type": "Point",
        "coordinates": [
          139.7731552,
          35.7071763
        ]
      },
      "id": "node/6202597860"
    },
    {
      "type": "Feature",
      "properties": {
        "@id": "node/6960268986",
        "emergency": "defibrillator"
      },
      "geometry": {
        "type": "Point",
        "coordinates": [
          139.7895635,
          35.7174697
        ]
      },
      "id": "node/6960268986"
    },
    {
      "type": "Feature",
      "properties": {
        "@id": "node/7180365976",
        "emergency": "defibrillator"
      },
      "geometry": {
        "type": "Point",
        "coordinates": [
          139.7753386,
          35.7028219
        ]
      },
      "id": "node/7180365976"
    },
    {
      "type": "Feature",
      "properties": {
        "@id": "node/7180365980",
        "emergency": "defibrillator"
      },
      "geometry": {
        "type": "Point",
        "coordinates": [
          139.7735565,
          35.7029685
        ]
      },
      "id": "node/7180365980"
    },
    {
      "type": "Feature",
      "properties": {
        "@id": "node/7196512582",
        "emergency": "defibrillator"
      },
      "geometry": {
        "type": "Point",
        "coordinates": [
          139.7671875,
          35.7101763
        ]
      },
      "id": "node/7196512582"
    },
    {
      "type": "Feature",
      "properties": {
        "@id": "node/7374387123",
        "emergency": "defibrillator"
      },
      "geometry": {
        "type": "Point",
        "coordinates": [
          139.7698987,
          35.7171292
        ]
      },
      "id": "node/7374387123"
    },
    {
      "type": "Feature",
      "properties": {
        "@id": "node/7658485491",
        "emergency": "defibrillator"
      },
      "geometry": {
        "type": "Point",
        "coordinates": [
          139.7942034,
          35.7046298
        ]
      },
      "id": "node/7658485491"
    },
    {
      "type": "Feature",
      "properties": {
        "@id": "node/8166867974",
        "emergency": "defibrillator"
      },
      "geometry": {
        "type": "Point",
        "coordinates": [
          139.7812157,
          35.7026137
        ]
      },
      "id": "node/8166867974"
    },
    {
      "type": "Feature",
      "properties": {
        "@id": "node/8244845970",
        "emergency": "defibrillator"
      },
      "geometry": {
        "type": "Point",
        "coordinates": [
          139.788404,
          35.7182523
        ]
      },
      "id": "node/8244845970"
    },
    {
      "type": "Feature",
      "properties": {
        "@id": "node/8491447531",
        "emergency": "defibrillator"
      },
      "geometry": {
        "type": "Point",
        "coordinates": [
          139.7706373,
          35.7218855
        ]
      },
      "id": "node/8491447531"
    },
    {
      "type": "Feature",
      "properties": {
        "@id": "node/9175936542",
        "amenity": "police",
        "name": "浅草警察署 日本堤交番"
      },
      "geometry": {
        "type": "Point",
        "coordinates": [
          139.8000153,
          35.7274185
        ]
      },
      "id": "node/9175936542"
    },
    {
      "type": "Feature",
      "properties": {
        "@id": "node/9956466591",
        "emergency": "defibrillator"
      },
      "geometry": {
        "type": "Point",
        "coordinates": [
          139.7896921,
          35.7037428
        ]
      },
      "id": "node/9956466591"
    },
    {
      "type": "Feature",
      "properties": {
        "@id": "node/10219741801",
        "emergency": "assembly_point",
        "source": "survey"
      },
      "geometry": {
        "type": "Point",
        "coordinates": [
          139.7739073,
          35.7038519
        ]
      },
      "id": "node/10219741801"
    },
    {
      "type": "Feature",
      "properties": {
        "@id": "node/10219741802",
        "emergency": "assembly_point"
      },
      "geometry": {
        "type": "Point",
        "coordinates": [
          139.7722473,
          35.7065527
        ]
      },
      "id": "node/10219741802"
    },
    {
      "type": "Feature",
      "properties": {
        "@id": "node/10219741803",
        "emergency": "assembly_point",
        "source": "survey"
      },
      "geometry": {
        "type": "Point",
        "coordinates": [
          139.7890157,
          35.7039933
        ]
      },
      "id": "node/10219741803"
    },
    {
      "type": "Feature",
      "properties": {
        "@id": "node/10248569878",
        "emergency": "assembly_point",
        "name": "NBK浅草橋ビル前周辺 一時集合場所"
      },
      "geometry": {
        "type": "Point",
        "coordinates": [
          139.7824249,
          35.7019696
        ]
      },
      "id": "node/10248569878"
    },
    {
      "type": "Feature",
      "properties": {
        "@id": "node/10613392558",
        "emergency": "assembly_point",
        "source": "survey"
      },
      "geometry": {
        "type": "Point",
        "coordinates": [
          139.7892136,
          35.7004498
        ]
      },
      "id": "node/10613392558"
    },
    {
      "type": "Feature",
      "properties": {
        "@id": "node/10680972840",
        "emergency": "assembly_point",
        "source": "survey"
      },
      "geometry": {
        "type": "Point",
        "coordinates": [
          139.7780509,
          35.7019724
        ]
      },
      "id": "node/10680972840"
    },
    {
      "type": "Feature",
      "properties": {
        "@id": "node/10773558185",
        "emergency": "assembly_point",
        "source": "survey"
      },
      "geometry": {
        "type": "Point",
        "coordinates": [
          139.7803207,
          35.7055736
        ]
      },
      "id": "node/10773558185"
    },
    {
      "type": "Feature",
      "properties": {
        "@id": "node/10914283020",
        "emergency": "assembly_point",
        "name": "松坂屋東側路上"
      },
      "geometry": {
        "type": "Point",
        "coordinates": [
          139.7736212,
          35.7074905
        ]
      },
      "id": "node/10914283020"
    },
    {
      "type": "Feature",
      "properties": {
        "@id": "node/11228362388",
        "emergency": "defibrillator"
      },
      "geometry": {
        "type": "Point",
        "coordinates": [
          139.7924304,
          35.7171908
        ]
      },
      "id": "node/11228362388"
    },
    {
      "type": "Feature",
      "properties": {
        "@id": "node/11399750369",
        "access": "customers",
        "check_date": "2023-12-07",
        "defibrillator:location:en": "In the police station",
        "emergency": "defibrillator",
        "indoor": "yes",
        "level": "0"
      },
      "geometry": {
        "type": "Point",
        "coordinates": [
          139.7705847,
          35.7251529
        ]
      },
      "id": "node/11399750369"
    },
    {
      "type": "Feature",
      "properties": {
        "@id": "node/11900345797",
        "amenity": "police",
        "name": "下谷警察署入谷西交番",
        "name:en": "Koban",
        "source": "Bing"
      },
      "geometry": {
        "type": "Point",
        "coordinates": [
          139.7835417,
          35.7190034
        ]
      },
      "id": "node/11900345797"
    },
    {
      "type": "Feature",
      "properties": {
        "@id": "node/11953767636",
        "emergency": "defibrillator"
      },
      "geometry": {
        "type": "Point",
        "coordinates": [
          139.7951191,
          35.7237634
        ]
      },
      "id": "node/11953767636"
    },
    {
      "type": "Feature",
      "properties": {
        "@id": "node/11969585100",
        "emergency": "defibrillator"
      },
      "geometry": {
        "type": "Point",
        "coordinates": [
          139.7956974,
          35.7220448
        ]
      },
      "id": "node/11969585100"
    },
    {
      "type": "Feature",
      "properties": {
        "@id": "node/12113963885",
        "access": "permissive",
        "emergency": "defibrillator",
        "indoor": "yes"
      },
      "geometry": {
        "type": "Point",
        "coordinates": [
          139.7768461,
          35.7178949
        ]
      },
      "id": "node/12113963885"
    },
    {
      "type": "Feature",
      "properties": {
        "@id": "node/12116359883",
        "access": "permissive",
        "emergency": "defibrillator",
        "indoor": "yes"
      },
      "geometry": {
        "type": "Point",
        "coordinates": [
          139.7743513,
          35.7186821
        ]
      },
      "id": "node/12116359883"
    },
    {
      "type": "Feature",
      "properties": {
        "@id": "node/12452331940",
        "emergency": "defibrillator",
        "indoor": "yes",
        "level": "0"
      },
      "geometry": {
        "type": "Point",
        "coordinates": [
          139.7878728,
          35.6994217
        ]
      },
      "id": "node/12452331940"
    },
    {
      "type": "Feature",
      "properties": {
        "@id": "node/12455796509",
        "defibrillator:location": "It's in the entrance and easily visible from outside.",
        "emergency": "defibrillator",
        "indoor": "yes",
        "level": "0"
      },
      "geometry": {
        "type": "Point",
        "coordinates": [
          139.7939393,
          35.7064811
        ]
      },
      "id": "node/12455796509"
    },
    {
      "type": "Feature",
      "properties": {
        "@id": "node/12798816667",
        "emergency": "assembly_point",
        "source": "survey"
      },
      "geometry": {
        "type": "Point",
        "coordinates": [
          139.7733258,
          35.7029245
        ]
      },
      "id": "node/12798816667"
    }
  ]
}